REFERENCE_PE,NOM,CODE_SAFIR,TYPE_SITE,REGION,LIBELLE_REGION,COMPLEMENT_ADRESSE,DC_COMPLEMENTADRSITEPHYSIQUE,ADRESSE,CODE_POSTAL,COMMUNE,DN_LATITUDE,DN_LONGITUDE
PES0001005145,PES PERI DEFENSE,00310,DRA,11,ILE-DE-FRANCE,NULL,RESIDENCE LE BROADWAY,390 RUE D ESTIENNE D ORVES,92700,COLOMBES,"48,909987","2,233133"
ARA0283005901,TREVOUX,01004,ALE,84,AUVERGNE-RHONE-ALPES,NULL,NULL,527 Allée de Fétan,01600,TREVOUX,"45,942833","4,754614"
ARA0285004012,BOURG EN BRESSE PARME,01010,ALE,84,AUVERGNE-RHONE-ALPES,NULL,NULL,323 AVENUE DE PARME,01000,BOURG EN BRESSE,"46,21809","5,248208"
ARA0280004134,MEXIMIEUX,01019,ALE,84,AUVERGNE-RHONE-ALPES,NULL,NULL,RUE DES VERCHERES,01800,MEXIMIEUX,"45,901016","5,194597"
ARA0290006055,AMBERIEU EN BUGEY,01025,ALE,84,AUVERGNE-RHONE-ALPES,NULL,NULL,285 rue des Mouettes,01500,AMBERIEU EN BUGEY,"45,960463","5,33211"
ARA0291005536,OYONNAX ANATOLE FRANCE,01033,ALE,84,AUVERGNE-RHONE-ALPES,NULL,NULL,188 rue Anatole France,01100,OYONNAX,"46,25398","5,652448"
ARA0293005169,BELLEY ECASSAZ,01064,ALE,84,AUVERGNE-RHONE-ALPES,NULL,ZI ECASSAZ,62 RUE JUVANON DU VACHAT,01300,BELLEY,"45,755494","5,691133"
ARA0284006024,THOIRY,01080,ALE,84,AUVERGNE-RHONE-ALPES,Technopolis du Leman,NULL,348 avenue du Mont-Blanc,01710,THOIRY,"46,237388","6,010226"
HDF0238005382,CHATEAU THIERRY,02012,ALE,32,HAUTS-DE-FRANCE,NULL,NULL,56 AVENUE DE LA REPUBLIQUE,02400,CHATEAU THIERRY,"49,039924","3,412405"
HDF0233003192,ST QUENTIN CORDIER COUR,02014,ALE,32,HAUTS-DE-FRANCE,NULL,NULL,8 BOULEVARD CORDIER,02100,ST QUENTIN,"49,8385","3,2977"
HDF0239006153,HIRSON,02020,ALE,32,HAUTS-DE-FRANCE,NULL,NULL,2 place Victor Hugo,02500,HIRSON,"49,924944","4,080814"
HDF0231005632,VERVINS,02022,ALE,32,HAUTS-DE-FRANCE,NULL,NULL,"23, rue Marc l'Escarbot",02140,VERVINS,"49,836013","3,91721"
HDF0240005857,LAON FOCH,02035,ALE,32,HAUTS-DE-FRANCE,NULL,NULL,Avenue du Maréchal Foch,02000,LAON,"49,553416","3,606758"
HDF0242003204,ST QUENTIN PERI,02043,ALE,32,HAUTS-DE-FRANCE,NULL,NULL,53 RUE GABRIEL PERI,02100,ST QUENTIN,"49,844822","3,28291"
HDF0244005383,SOISSONS,02051,ALE,32,HAUTS-DE-FRANCE,NULL,ZAC DES ENTREPOTS,24 RUE DE L EMAILLERIE,02200,SOISSONS,"49,392693","3,339386"
HDF0237005606,CHAUNY,02074,ALE,32,HAUTS-DE-FRANCE,NULL,NULL,25 rue Jean Monnet,02300,CHAUNY,"49,628001","3,213833"
ARA0059005916,VICHY,03000,ALE,84,AUVERGNE-RHONE-ALPES,NULL,NULL,650 avenue de la Liberté,03200,VICHY,"46,128376","3,425071"
ARA0062005361,MOULINS,03014,ALE,84,AUVERGNE-RHONE-ALPES,NULL,NULL,42 place Jean Moulin,03000,MOULINS,"46,566699","3,326951"
ARA0065005600,MONTLUCON SUD,03022,ALE,84,AUVERGNE-RHONE-ALPES,NULL,NULL,51-53 AVENUE CHARLES DE GAULLE,03100,MONTLUCON,"46,346858","2,609569"
PAC0125005760,DT 04 05,04016,DDA,93,PROVENCE-ALPES-COTE D'AZUR,NULL,résidence le Saint Coeur,7 C rue du Capitaine de Bresson,05000,GAP,"44,559659","6,08301"
PAC0130005820,Digne APE,04254,ALE,93,PROVENCE-ALPES-COTE D'AZUR,NULL,NULL,53 Bis avenue du 8 Mai 1945,04000,DIGNE LES BAINS,"44,091215","6,243275"
PAC0132006093,MANOSQUE APE ET DR,04262,ALE,93,PROVENCE-ALPES-COTE D'AZUR,NULL,ZAC de Chanteprunier,Traverse Françoise Dolto,04100,MANOSQUE,"43,829595","5,804604"
PAC0135005637,GAP,05280,ALE,93,PROVENCE-ALPES-COTE D'AZUR,NULL,NULL,26 boulevard Georges Pompidou,05000,GAP,"44,559106","6,083653"
PAC0141003518,BRIANCON,05295,ALE,93,PROVENCE-ALPES-COTE D'AZUR,NULL,BATIMENT F RESIDENCE LE PRE DU MOULIN,6 AVENUE DU GENERAL DE GAULLE,05100,BRIANCON,"44,894978","6,633022"
PAC0165003444,LA TRINITE APE,06001,ALE,93,PROVENCE-ALPES-COTE D'AZUR,NULL,NULL,3 boulevard Général De Gaulle,06340,LA TRINITE,"43,739868","7,310523"
PAC0142005930,DT 06,06013,DDA,93,PROVENCE-ALPES-COTE D'AZUR,NULL,Immeuble Horizon 1er étage,455 Promenade des Anglais,06200,NICE,"43,666905","7,215334"
PAC0172003661,NICE NORD,06021,ALE,93,PROVENCE-ALPES-COTE D'AZUR,NULL,NULL,98 AVENUE SAINT LAMBERT,06100,NICE,"43,714512","7,262495"
PAC0173003343,LE CANNET / PFV / EOS / CRP,06036,ALE,93,PROVENCE-ALPES-COTE D'AZUR,NULL,IMMEUBLE CANEOPOLE,11-13 CHEMIN DE L'INDUSTRIE,06110,LE CANNET,"43,573244","6,990537"
PAC0152006021,Antibes Sophia APE,06045,ALE,93,PROVENCE-ALPES-COTE D'AZUR,NULL,NULL,1547 chemin des Combes,06600,ANTIBES,"43,601662","7,088791"
PAC0174005826,NICE EST APE,06204,ALE,93,PROVENCE-ALPES-COTE D'AZUR,NULL,NULL,30 - 32 rue Fontaine de la ville,06000,NICE,"43,701917","7,290333"
PAC0175003486,Nice Centre APE et A2S,06212,ALE,93,PROVENCE-ALPES-COTE D'AZUR,NULL,NULL,44 rue Berlioz,06000,NICE,"43,703081","7,259753"
PAC0177005348,NICE OUEST APE,06220,ALE,93,PROVENCE-ALPES-COTE D'AZUR,NULL,Immeuble Premium,"61, 63 avenue Simone Veil",06000,NICE,"43,685575","7,202003"
PAC0168003581,MANDELIEU,06346,ALE,93,PROVENCE-ALPES-COTE D'AZUR,NULL,Z.I. LES TOURRADES PALACE CENTER II,ALLEE HELENE BOUCHER,06210,MANDELIEU LA NAPOULE,"43,55622","6,954444"
PAC0169003659,MENTON,06354,ALE,93,PROVENCE-ALPES-COTE D'AZUR,NULL,NULL,8 rue Guyau,06500,MENTON,"43,776482","7,504488"
PAC0170003354,GRASSE APE,06362,ALE,93,PROVENCE-ALPES-COTE D'AZUR,NULL,NULL,143 CHEMIN DE SAINT MARC,06130,GRASSE,"43,631058","6,960973"
PAC0171005824,Cagnes sur Mer APE,06370,ALE,93,PROVENCE-ALPES-COTE D'AZUR,NULL,Les Jardins d¿Auguste,84 avenue de Grasse,06800,CAGNES SUR MER,"43,659629","7,133676"
ARA0268005898,PRIVAS,07015,ALE,84,AUVERGNE-RHONE-ALPES,NULL,bd du Vivarais,Zone d'Activité Chamaras,07000,PRIVAS,"44,726584","4,603342"
ARA0270005378,ANNONAY,07023,ALE,84,AUVERGNE-RHONE-ALPES,NULL,NULL,34 BOULEVARD DE LA REPUBLIQUE,07100,ANNONAY,"45,244123","4,673738"
ARA0271005840,AUBENAS,07031,ALE,84,AUVERGNE-RHONE-ALPES,NULL,NULL,71 chemin de la Chareyrasse,07201,AUBENAS,"44,619926","4,404473"
ARA0273005574,TOURNON,07046,ALE,84,AUVERGNE-RHONE-ALPES,NULL,ZA DE SERVICES DE LA PICHONNIERE,123 impasse Olympe de Gouges,07300,TOURNON SUR RHONE,"45,053849","4,832096"
GRE0039005407,APE CHARLEVILLE MEZIERES MONTJOLY,08009,ALE,44,GRAND EST,NULL,NULL,106 RUE BOURBON,08000,CHARLEVILLE MEZIERES,"49,773224","4,713763"
GRE0046005409,APE CHARLEVILLE VAL DE VENCE,08010,ALE,44,GRAND EST,NULL,NULL,6 RUE JEAN-BAPTISTE LEFORT,08000,CHARLEVILLE MEZIERES,"49,741977","4,729343"
GRE0048001246,RETHEL,08025,ALE,44,GRAND EST,NULL,CENTRE D'ENTREPRISE MERMOZ,RUE JEAN MERMOZ,08300,RETHEL,"49,514294","4,371731"
GRE0049005613,REVIN,08033,ALE,44,GRAND EST,NULL,NULL,10 rue LOUISE WEISS,08500,REVIN,"49,937815","4,641412"
GRE0050005372,APE SEDAN,08041,ALE,44,GRAND EST,NULL,NULL,5 RUE BERTHELOT,08200,SEDAN,"49,697117","4,944915"
GRE0038005407,APE CHARLEVILLE MEZIERES MONTJOLY,08056,DDA,44,GRAND EST,NULL,NULL,106 RUE BOURBON,08000,CHARLEVILLE MEZIERES,"49,773224","4,713763"
OCC0124006147,FOIX,09115,ALE,76,OCCITANIE,NULL,NULL,3 rue germain AUTHIE,09000,FOIX,"42,964001","1,607207"
OCC0121002721,LAVELANET,09123,ALE,76,OCCITANIE,NULL,NULL,PLACE SAINT EXUPERY,09300,LAVELANET,"42,934911","1,849977"
OCC0122002649,PAMIERS,09131,ALE,76,OCCITANIE,NULL,NULL,4 AVENUE DE LA PAIX,09100,PAMIERS,"43,108719","1,618092"
OCC0123005081,SAINT GIRONS,09146,ALE,76,OCCITANIE,NULL,NULL,14 chemin de Pegoumas,09200,ST GIRONS,"42,981096","1,152895"
GRE0059005462,TROYES LANGEVIN,10023,ALE,44,GRAND EST,NULL,NULL,1 PLACE PROFESSEUR LANGEVIN,10000,TROYES,"48,29613","4,075671"
GRE0060005460,TROYES COPAINVILLE,10024,ALE,44,GRAND EST,NULL,NULL,3 ALLEE YVES DE COPAINVILLE,10000,TROYES,"48,290584","4,091225"
GRE1100001231,DT AUBE HAUTE MARNE TROYES,10038,DDA,44,GRAND EST,NULL,NULL,8 rue Nicolas Siret,10000,TROYES,"48,293966","4,081219"
GRE0062005266,ROMILLY SUR SEINE,10215,ALE,44,GRAND EST,NULL,NULL,32 RUE MILFORD HAVEN,10100,ROMILLY SUR SEINE,"48,504675","3,722"
GRE0064005641,BAR SUR AUBE,10231,ALE,44,GRAND EST,NULL,NULL,55 rue du Général De Gaulle,10200,BAR SUR AUBE,"48,23639","4,706416"
GRE0065005461,TROYES ROMAIN ROLLAND,10262,ALE,44,GRAND EST,NULL,NULL,107 AVENUE EDOUARD HERRIOT,10000,TROYES,"48,271929","4,083484"
GRE0051001231,DT AUBE HAUTE MARNE TROYES,10270,DDA,44,GRAND EST,NULL,NULL,8 rue Nicolas Siret,10000,TROYES,"48,293966","4,081219"
OCC0214005136,PE LEZIGNAN,11013,ALE,76,OCCITANIE,NULL,ZA PLAI DE CAUMONT LOT N 11,RUE BECQUEREL,11200,LEZIGNAN CORBIERES,"43,201789","2,759989"
OCC1034005750,Carcassonne La Conte,11030,DDA,76,OCCITANIE,NULL,NULL,Bvd Irène et Frédéric Joliot Curie,11000,CARCASSONNE,"43,216229","2,364949"
OCC0208005750,Carcassonne La Conte,11504,ALE,76,OCCITANIE,NULL,NULL,Bvd Irène et Frédéric Joliot Curie,11000,CARCASSONNE,"43,216229","2,364949"
OCC0211005711,Limoux,11512,ALE,76,OCCITANIE,NULL,NULL,3 impasse Didier Daurat,11300,LIMOUX,"43,074886","2,224363"
OCC0212005579,Narbonne La Coupe,11520,ALE,76,OCCITANIE,Domaine de la Coupe,NULL,100 rue Antoine Becquerel,11100,NARBONNE,"43,153079","2,970914"
OCC0216005532,APE CASTELNAUDARY,11535,ALE,76,OCCITANIE,Espace TUFFERY,NULL,11 boulevard DU GENERAL LAPASSET,11400,CASTELNAUDARY,"43,321907","1,949787"
OCC0028002702,DECAZEVILLE,12212,ALE,76,OCCITANIE,NULL,NULL,AVENUE DU 10 AOUT,12300,DECAZEVILLE,"44,558349","2,255102"
OCC0029005344,APE MILLAU,12220,ALE,76,OCCITANIE,NULL,NULL,12 AV EDOUARD ALFRED MARTEL,12100,MILLAU,"44,11278","3,08254"
OCC0030005880,RODEZ,12235,ALE,76,OCCITANIE,NULL,NULL,245 rue du docteur Théodor Mathieu,12000,RODEZ,"44,362692","2,559709"
OCC0031002707,VILLEFRANCHE DE ROUERGUE,12251,ALE,76,OCCITANIE,NULL,NULL,CHEMIN DE 13 PIERRES,12200,VILLEFRANCHE DE ROUERGUE,"44,355161","2,028244"
PAC0042005114,MARSEILLE MOUREPIANE APE,13001,ALE,93,PROVENCE-ALPES-COTE D'AZUR,NULL,ANGLE AVENUE ALBERT COHEN,79 CHEMIN DU PASSET,13016,MARSEILLE,"43,361609","5,337648"
PAC0005005379,DR PACA - DT 13,13010,DDA,93,PROVENCE-ALPES-COTE D'AZUR,NULL,NULL,34 rue Alfred Curtel,13010,MARSEILLE,"43,278449","5,407216"
PAC0040005827,Aix Galice APE,13013,ALE,93,PROVENCE-ALPES-COTE D'AZUR,NULL,NULL,38 bis route de Galice,13090,AIX EN PROVENCE,"43,528669","5,436467"
PAC0039005211,APE MARSEILLE CHATEAU GOMBERT,13017,ALE,93,PROVENCE-ALPES-COTE D'AZUR,NULL,IMMEUBLE 4274 BATIMENT EUCLIDE,RUE FREDERIC JOLIOT CURIE,13013,MARSEILLE,"43,345841","5,435661"
PAC0020005208,APE MARSEILLE ST CHARLES,13050,ALE,93,PROVENCE-ALPES-COTE D'AZUR,NULL,RESIDENCE LE TRIANUM,6 RUE LEON GOZLAN,13003,MARSEILLE,"43,304317","5,380933"
PAC0008006116,Miramas APE,13090,ALE,93,PROVENCE-ALPES-COTE D'AZUR,NULL,NULL,4 boulevard Jacques Minet,13140,MIRAMAS,"43,576301","4,997563"
PAC0050003428,ARLES,13150,ALE,93,PROVENCE-ALPES-COTE D'AZUR,NULL,NULL,RUE JEAN GIONO,13200,ARLES,"43,679323","4,635127"
PAC0052005763,AUBAGNE APE,13165,ALE,93,PROVENCE-ALPES-COTE D'AZUR,NULL,NULL,88 rue de la République,13400,AUBAGNE,"43,289808","5,571698"
PAC0053005830,LA CIOTAT,13173,ALE,93,PROVENCE-ALPES-COTE D'AZUR,NULL,Accès pièton par Avenue Rovarch,18-20 Avenue Émile Sellon,13600,LA CIOTAT,"43,191154","5,616371"
PAC0054003669,GARDANNE,13181,ALE,93,PROVENCE-ALPES-COTE D'AZUR,NULL,ENTREE 1 RESIDENCE LES OMBRAGES,RUE JULES FERRY,13120,GARDANNE,"43,453854","5,469388"
PAC0055005488,APE MARIGNANE,13196,ALE,93,PROVENCE-ALPES-COTE D'AZUR,LE FLORICITY Bt A,Route départementale 9,ZAC BAUSSET FLORIDES,13700,MARIGNANE,"43,398389","5,196123"
PAC0056006036,MARTIGUES APE,13206,ALE,93,PROVENCE-ALPES-COTE D'AZUR,NULL,NULL,124 avenue Clément Escoffier,13500,MARTIGUES,"43,410357","5,041947"
PAC0058005506,APE SALON DE PROVENCE,13214,ALE,93,PROVENCE-ALPES-COTE D'AZUR,NULL,Parc des Magisters ZA de la Gandonne,246 rue des Canesteu,13300,SALON DE PROVENCE,"43,633559","5,092854"
PAC0044006154,CHATEAURENARD PROVISOIRE,13245,ALE,93,PROVENCE-ALPES-COTE D'AZUR,Algéco 8,Parc des Beaumes,638 avenue de la Libération,13160,CHATEAURENARD,"43,885279","4,863411"
PAC0060005311,APE et A2S Marseille Pont de Vivaux,13341,ALE,93,PROVENCE-ALPES-COTE D'AZUR,NULL,Immmeuble le Longchamp,250 boulevard Mireille Lauze,13010,MARSEILLE,"43,284143","5,419766"
PAC0061005833,MARSEILLE LA VALENTINE APE,13356,ALE,93,PROVENCE-ALPES-COTE D'AZUR,NULL,NULL,10 route de la Valentine,13011,MARSEILLE,"43,289251","5,465428"
PAC0062003350,MARSEILLE CARRE GABRIEL APE,13364,ALE,93,PROVENCE-ALPES-COTE D'AZUR,NULL,IMMEUBLE CARRE GABRIE,31 BD CHARLES MORETTI,13014,MARSEILLE,"43,325049","5,382242"
PAC0063005714,Istres APE et A2S,13421,ALE,93,PROVENCE-ALPES-COTE D'AZUR,NULL,NULL,Allée de la Solidarité,13800,ISTRES,"43,495871","4,98507"
PAC0064005715,Marseille Belle de Mai APE et A2S,13436,ALE,93,PROVENCE-ALPES-COTE D'AZUR,NULL,NULL,24-28 rue Jobin,13003,MARSEILLE,"43,31033","5,389346"
PAC0065003424,MARSEILLE PHARO,13444,ALE,93,PROVENCE-ALPES-COTE D'AZUR,NULL,NULL,23 avenue de la Corse,13007,MARSEILLE,"43,289391","5,364313"
PAC0066005831,MARSEILLE BLANCARDE APE,13452,ALE,93,PROVENCE-ALPES-COTE D'AZUR,NULL,NULL,18-20 place de la Gare de la Blancarde,13005,MARSEILLE,"43,296252","5,406193"
PAC0067003485,APE MARSEILLE PARADIS,13460,ALE,93,PROVENCE-ALPES-COTE D'AZUR,NULL,NULL,435 rue Paradis,13008,MARSEILLE,"43,273409","5,385361"
PAC0068005832,MARSEILLE CAP PINEDE APE,13475,ALE,93,PROVENCE-ALPES-COTE D'AZUR,NULL,NULL,5 boulevard de la Méditerranée,13015,MARSEILLE,"43,333231","5,363281"
PAC0047005828,AIX EN PROVENCE APE VALLEE DE L ARC,13483,ALE,93,PROVENCE-ALPES-COTE D'AZUR,NULL,NULL,95 chemin Roger Martin,13090,AIX EN PROVENCE,"43,515092","5,430837"
PAC0049005601,APE VITROLLES,13501,ALE,93,PROVENCE-ALPES-COTE D'AZUR,NULL,NULL,3 voie d'Allemagne,13127,VITROLLES,"43,422323","5,258986"
PAC0001005379,DR PACA - DT 13,13992,DRA,93,PROVENCE-ALPES-COTE D'AZUR,NULL,NULL,34 rue Alfred Curtel,13010,MARSEILLE,"43,278449","5,407216"
NOR0054005118,APE MONDEVILLE,14011,ALE,28,NORMANDIE,NULL,NULL,5 rue Paul Louis Halley,14120,MONDEVILLE,"49,172442","-0,327045"
NOR0056000646,LISIEUX,14025,ALE,28,NORMANDIE,NULL,NULL,88 AV GUILLAUME LE CONQUERANT,14100,LISIEUX,"49,14327","0,26023"
NOR0057005477,VIRE,14033,ALE,28,NORMANDIE,NULL,NULL,71 rue d'Aunay,14500,VIRE,"48,839801","-0,890579"
NOR0058005469,HONFLEUR,14041,ALE,28,NORMANDIE,NULL,NULL,cours Jean de Vienne,14600,HONFLEUR,"49,416111","0,243171"
NOR0039000612,DR BNO SIEGE,14056,DDA,28,NORMANDIE,NULL,NULL,1 RUE NORMANDIE NIEMEN,14000,CAEN,"49,199796","-0,384702"
NOR0039006004,CAEN FRESNEL,14056,DDA,28,NORMANDIE,NULL,ZAE Fresnel,8 Rue Raymonde Bail,14000,CAEN,"49,162861","-0,356244"
NOR0059005172,APE FALAISE,14064,ALE,28,NORMANDIE,NULL,BATIMENT A,CENTRE D AFFAIRES GUILBRAY,14700,FALAISE,"48,896457","-0,195824"
NOR0060006077,BAYEUX,14072,ALE,28,NORMANDIE,NULL,NULL,2 boulevard Maréchal Montgomery,14400,BAYEUX,"49,27023","-0,69561"
NOR0061005260,APE HEROUVILLE,14080,ALE,28,NORMANDIE,NULL,ESPACE JEAN MONNET,8 PLACE DE L EUROPE,14200,HEROUVILLE ST CLAIR,"49,203018","-0,33516"
NOR0062006004,CAEN FRESNEL,14105,ALE,28,NORMANDIE,NULL,ZAE Fresnel,8 Rue Raymonde Bail,14000,CAEN,"49,162861","-0,356244"
NOR0063005482,CAEN BEAULIEU,14113,ALE,28,NORMANDIE,NULL,NULL,2 rue Nicolas Oresme,14000,CAEN,"49,184595","-0,39971"
ARA0049005720,AURILLAC,15012,ALE,84,AUVERGNE-RHONE-ALPES,NULL,NULL,9 av du Cdt Hubert Monraisse,15013,AURILLAC,"44,91453","2,43409"
ARA0052005913,ST FLOUR,15035,ALE,84,AUVERGNE-RHONE-ALPES,NULL,NULL,16 avenue de Besserette,15100,ST FLOUR,"45,035226","3,08414"
NAQ0201000139,ANGOULEME SAINT MARTIAL,16001,ALE,75,NOUVELLE-AQUITAINE,NULL,NULL,7 RUE JEAN FOUGERAT,16000,ANGOULEME,"45,649076","0,161479"
NAQ0194000140,DIRECTION TERRITORIALE CHARENTE,16006,DDA,75,NOUVELLE-AQUITAINE,NULL,NULL,7 rue Jean Fougerat,16000,ANGOULEME,"45,649076","0,161479"
NAQ0204005442,PE ANGOULEME LA COURONNE,16014,ALE,75,NOUVELLE-AQUITAINE,NULL,NULL,3 IMPASSE CHAPELLE DE PRADE,16400,LA COURONNE,"45,615529","0,100804"
NAQ0206005412,APE COGNAC,16022,ALE,75,NOUVELLE-AQUITAINE,NULL,NULL,11 RUE DE L'AVENIR,16100,COGNAC,"45,689411","-0,323817"
NAQ0208000123,CONFOLENS,16030,ALE,75,NOUVELLE-AQUITAINE,NULL,NULL,RUE DE L OUILLETTE,16500,CONFOLENS,"46,019842","0,656498"
NAQ0209000166,DT CHARENTE MARITIME,17001,DDA,75,NOUVELLE-AQUITAINE,NULL,NULL,BD DU COMMANDANT CHARCOT,17440,AYTRE,"46,13484","-1,126575"
NAQ0220005918,ROCHEFORT,17024,ALE,75,NOUVELLE-AQUITAINE,NULL,NULL,4 place François Blondel,17300,ROCHEFORT,"45,945034","-0,975673"
NAQ0221005435,PE SAINTES SAINT GEORGES,17032,ALE,75,NOUVELLE-AQUITAINE,NULL,NULL,"5, ZAC DE LA BOBINERIE",17810,ST GEORGES DES COTEAUX,"45,75066","-0,667697"
NAQ0222005727,PE ROYAN,17040,ALE,75,NOUVELLE-AQUITAINE,NULL,NULL,7 rue DU PORT ROYAL,17205,ROYAN,"45,632582","-1,019572"
NAQ1031000166,DT CHARENTE MARITIME,17041,DDA,75,NOUVELLE-AQUITAINE,NULL,NULL,BD DU COMMANDANT CHARCOT,17440,AYTRE,"46,13484","-1,126575"
NAQ0223005568,PE SAINT JEAN D ANGELY,17055,ALE,75,NOUVELLE-AQUITAINE,NULL,NULL,1 rue LE CORBUSIER,17400,ST JEAN D ANGELY,"45,94638","-0,529397"
NAQ0224000124,JONZAC RESIDENCE PHILIPPE,17063,ALE,75,NOUVELLE-AQUITAINE,NULL,RESIDENCE PHILIPPE,RUE SAINT GERMAIN DE LUSIGNAN,17500,JONZAC,"45,451529","-0,448063"
NAQ0225000149,LA ROCHELLE BEL AIR,17071,ALE,75,NOUVELLE-AQUITAINE,NULL,NULL,88 RUE DE BEL AIR,17000,LA ROCHELLE,"46,168808","-1,169363"
NAQ0227005734,PE LA ROCHELLE VILLENEUVE,17074,ALE,75,NOUVELLE-AQUITAINE,NULL,NULL,45 avenue Billaud Varenne,17000,LA ROCHELLE,"46,151307","-1,117349"
NAQ0229005345,APE LA ROCHELLE LAGORD,17078,ALE,75,NOUVELLE-AQUITAINE,NULL,NULL,7B RUE DU BOIS D'HURE,17140,LAGORD,"46,190051","-1,145316"
NAQ0231005639,SAINT PIERRE D OLERON,17086,ALE,75,NOUVELLE-AQUITAINE,NULL,NULL,10 T lotissement Moulin du Coivre,17310,ST PIERRE D OLERON,"45,936807","-1,304049"
CEN0094005725,APE BOURGES BAUDENS,18011,ALE,24,CENTRE-VAL DE LOIRE,NULL,NULL,5 boulevard du Maréchal Joffre,18000,BOURGES,"47,073447","2,402348"
CEN0097006110,APE VIERZON,18026,ALE,24,CENTRE-VAL DE LOIRE,NULL,NULL,6 rue Bernard Palissy,18100,VIERZON,"47,22519","2,05975"
CEN0471005725,APE BOURGES BAUDENS,18029,DDA,24,CENTRE-VAL DE LOIRE,NULL,NULL,5 boulevard du Maréchal Joffre,18000,BOURGES,"47,073447","2,402348"
CEN0098005990,APE SAINT AMAND MONTROND,18034,ALE,24,CENTRE-VAL DE LOIRE,NULL,NULL,34 rue Auguste et Charles Moricault,18200,ST AMAND MONTROND,"46,7228","2,53216"
CEN0100005628,APE BOURGES PROSPECTIVE,18042,ALE,24,CENTRE-VAL DE LOIRE,NULL,NULL,111 avenue de la Prospective,18000,BOURGES,"47,106386","2,394667"
CEN0101001146,POLE EMPLOI AUBIGNY SUR NERE,18050,ALE,24,CENTRE-VAL DE LOIRE,NULL,NULL,27 AV LA GARE DES MARCHANDISES,18700,AUBIGNY SUR NERE,"47,487981","2,434186"
NAQ0022005605,TULLE,19013,ALE,75,NOUVELLE-AQUITAINE,NULL,NULL,Rue du 9 Juin 1944,19012,TULLE,"45,259831","1,752125"
NAQ0024005142,BRIVE LA MARQUISIE,19021,ALE,75,NOUVELLE-AQUITAINE,NULL,ZONE INDUSTRIELLE LA MARQUISIE,RUE ERNEST COMTE,19100,BRIVE LA GAILLARDE,"45,15597","1,48128"
COR0001005970,Dr CORSE,20010,DRA,94,CORSE,NULL,Résidence Opéra,Boulevard Louis Campi,20700,AJACCIO,"41,942196","8,749986"
COR0007000103,AJACCIO,20382,ALE,94,CORSE,NULL,QUARTIER SAINT JOSEPH,AVENUE DU MONT THABOR,20090,AJACCIO,"41,933586","8,75458"
COR0005000092,PORTO VECCHIO S1 / MDE,20390,ALE,94,CORSE,NULL,IMMEUBLE MARCELLESI,ROUTE D ARCA,20137,PORTO VECCHIO,"41,58033","9,253494"
COR0015005657,BASTIA,20400,ALE,94,CORSE,NULL,Bâtiment CASAPROM,Rue Maréchal Juin,20407,BASTIA,"42,6701","9,436417"
COR0010005657,BASTIA,20431,DDA,94,CORSE,NULL,Bâtiment CASAPROM,Rue Maréchal Juin,20407,BASTIA,"42,6701","9,436417"
COR0020005938,ILE ROUSSE,20446,ALE,94,CORSE,NULL,Col de Fogata,Col de Fogata,20220,L ILE ROUSSE,"42,634633","8,937639"
COR0019006070,Pole Emploi Ghisonaccia,20462,ALE,94,CORSE,NULL,Résidence LINARI 2,Route de Ghisoni,20240,GHISONACCIA,"42,016147","9,404913"
BFC0057000771,DIJON OUEST,21005,ALE,27,BOURGOGNE-FRANCHE-COMTE,NULL,NULL,5 boulevard Chanoine Kir,21000,DIJON,"47,320768","5,00964"
BFC0052005889,DIJON SUD,21013,ALE,27,BOURGOGNE-FRANCHE-COMTE,NULL,NULL,93 avenue Jean Jaurès,21000,DIJON,"47,306759","5,024378"
BFC0062000784,MONTBARD CHATILLON,21051,ALE,27,BOURGOGNE-FRANCHE-COMTE,NULL,NULL,PASSAGE GEORGES BRASSENS,21500,MONTBARD,"47,62236","4,33862"
BFC0064000778,BEAUNE,21066,ALE,27,BOURGOGNE-FRANCHE-COMTE,NULL,ZAC PORTE DE BEAUNE,7 B RUE BUFFON,21200,BEAUNE,"47,009087","4,844482"
BFC0001000768,DR BOURGOGNE,21069,DRA,27,BOURGOGNE-FRANCHE-COMTE,NULL,PARC VALMY,41 AVENUE FRANCOISE GIROUD,21000,DIJON,"47,3645","5,04928"
BFC0065005801,DIJON NORD,21074,ALE,27,BOURGOGNE-FRANCHE-COMTE,NULL,Parc Valmy,33 rue Elsa Triolet,21000,DIJON,"47,365166","5,051353"
BFC0067005890,DIJON EST,21090,ALE,27,BOURGOGNE-FRANCHE-COMTE,NULL,NULL,2 rue des Charrieres,21800,QUETIGNY,"47,3138","5,097864"
BFC0050005890,DIJON EST,21265,DDA,27,BOURGOGNE-FRANCHE-COMTE,NULL,NULL,2 rue des Charrieres,21800,QUETIGNY,"47,3138","5,097864"
BRE0095005089,DINAN,22014,ALE,53,BRETAGNE,NULL,NULL,2 BOULEVARD DE L EUROPE,22100,DINAN,"48,45562","-2,05767"
BRE0089006117,SAINT BRIEUC SUD,22020,ALE,53,BRETAGNE,NULL,NULL,3 rue Jean Grenier,22000,ST BRIEUC,"48,49846","-2,747447"
BRE0096005341,GUINGAMP,22022,ALE,53,BRETAGNE,NULL,NULL,6 RUE DU 48E REGIMENT D'INFANTERIE,22200,GUINGAMP,"48,559599","-3,160894"
BRE0097005533,SAINT BRIEUC OUEST (APE/DT/A2S22),22030,ALE,53,BRETAGNE,NULL,NULL,"25, Rue de la Hunaudaye",22000,ST BRIEUC,"48,521915","-2,800086"
BRE0082005533,SAINT BRIEUC OUEST (APE/DT/A2S22),22045,DDA,53,BRETAGNE,NULL,NULL,"25, Rue de la Hunaudaye",22000,ST BRIEUC,"48,521915","-2,800086"
BRE0098005376,LANNION,22053,ALE,53,BRETAGNE,NULL,NULL,1 rue du Muguet,22300,LANNION,"48,74477","-3,47095"
BRE0099000840,LOUDEAC,22061,ALE,53,BRETAGNE,NULL,NULL,1 RUE DE LA CHESNAIE,22600,LOUDEAC,"48,180148","-2,753745"
BRE0094005473,LAMBALLE,22084,ALE,53,BRETAGNE,NULL,NULL,5 avenue Georges Clemenceau,22405,LAMBALLE,"48,464739","-2,506187"
NAQ0018005143,GUERET,23016,ALE,75,NOUVELLE-AQUITAINE,NULL,NULL,19 AVENUE PIERRE LEROUX,23000,GUERET,"46,17274","1,881692"
NAQ0021005062,AUBUSSON,23024,ALE,75,NOUVELLE-AQUITAINE,NULL,NULL,ESPLANADE CHARLES DE GAULLE,23200,AUBUSSON,"45,955413","2,165891"
NAQ0085000435,APE PERIGUEUX LITTRE,24003,DDA,75,NOUVELLE-AQUITAINE,NULL,NULL,1 rue Littre,24000,PERIGUEUX,"45,186814","0,721831"
NAQ0098000584,APE NONTRON,24006,ALE,75,NOUVELLE-AQUITAINE,NULL,NULL,Place Paul Bert,24300,NONTRON,"45,525379","0,66047"
NAQ0096005518,APE ST ASTIER,24007,ALE,75,NOUVELLE-AQUITAINE,NULL,NULL,Boulevard Pierre Mallebay,24110,ST ASTIER,"45,150569","0,529049"
NAQ0100000435,APE PERIGUEUX LITTRE,24011,ALE,75,NOUVELLE-AQUITAINE,NULL,NULL,1 rue Littre,24000,PERIGUEUX,"45,186814","0,721831"
NAQ0093000463,APE PERIGUEUX CHANGE,24013,ALE,75,NOUVELLE-AQUITAINE,NULL,NULL,135 BOULEVARD DU PETIT CHANGE,24000,PERIGUEUX,"45,18325","0,73802"
NAQ0101005590,APE BERGERAC,24026,ALE,75,NOUVELLE-AQUITAINE,NULL,NULL,2 rue Rudolf Noureev,24100,BERGERAC,"44,853375","0,482974"
NAQ0102005519,APE TERRASSON,24034,ALE,75,NOUVELLE-AQUITAINE,NULL,NULL,Rue de l'Industrie,24120,TERRASSON LA VILLEDIEU,"45,135144","1,299401"
NAQ1032005689,DT DORDOGNE,24036,DDA,75,NOUVELLE-AQUITAINE,Site LISA SPB,2° étage,1 Bis rue Littre,24000,PERIGUEUX,"45,186814","0,721831"
NAQ0103005910,APE SARLAT,24042,ALE,75,NOUVELLE-AQUITAINE,NULL,NULL,1 route du Pont de Campagnac,24200,SARLAT LA CANEDA,"44,917029","1,203839"
BFC0107005848,BESANCON PALENTE,25009,ALE,27,BOURGOGNE-FRANCHE-COMTE,NULL,NULL,6 rue du Muguet,25000,BESANCON,"47,265893","6,049393"
BFC0093001316,BESANCON MONTBOUCONS,25019,DDA,27,BOURGOGNE-FRANCHE-COMTE,NULL,NULL,7 AVENUE DES MONTBOUCONS,25000,BESANCON,"47,25121","5,998677"
BFC0114005846,MORTEAU,25021,ALE,27,BOURGOGNE-FRANCHE-COMTE,NULL,NULL,1A RUE DU CLOS JEUNE,25503,MORTEAU,"47,057226","6,610615"
BFC0103001293,MONTBELIARD HEXAGONE,25026,ALE,27,BOURGOGNE-FRANCHE-COMTE,NULL,NULL,2 RUE PIERRE BROSSOLETTE,25200,MONTBELIARD,"47,499742","6,802838"
BFC0094005044,BESANCON TEMIS,25038,ALE,27,BOURGOGNE-FRANCHE-COMTE,NULL,NULL,17 A rue Alain Savary,25000,BESANCON,"47,253091","6,000646"
BFC0115001325,PONTARLIER,25044,ALE,27,BOURGOGNE-FRANCHE-COMTE,NULL,BATIMENT A,6 RUE CLAUDE CHAPPE,25300,PONTARLIER,"46,90942","6,34165"
BFC0117005529,MONTBELIARD CENTRE,25052,ALE,27,BOURGOGNE-FRANCHE-COMTE,NULL,NULL,8 avenue Gambetta,25200,MONTBELIARD,"47,51463","6,79689"
BFC0121005772,BESANCON PLANOISE,25075,ALE,27,BOURGOGNE-FRANCHE-COMTE,NULL,NULL,8 rue Marc Bloch,25000,BESANCON,"47,218036","5,968719"
BFC0122005258,AUDINCOURT,25116,ALE,27,BOURGOGNE-FRANCHE-COMTE,NULL,Immeuble BAZAINE,1 rue Aimé Césaire,25400,AUDINCOURT,"47,484146","6,839614"
ARA0252005635,VALENCE BRIFFAUT,26001,ALE,84,AUVERGNE-RHONE-ALPES,NULL,NULL,354 A AVENUE CHABEUIL,26000,VALENCE,"44,92661","4,916812"
ARA0255005422,VALENCE HUGO,26015,ALE,84,AUVERGNE-RHONE-ALPES,NULL,NULL,333 Avenue Victor Hugo,26000,VALENCE,"44,915262","4,885068"
ARA0261005575,ROMANS,26023,ALE,84,AUVERGNE-RHONE-ALPES,NULL,NULL,4 Rue auguste Perret,26105,ROMANS,"45,046666","5,055472"
ARA0262005839,MONTELIMAR,26031,ALE,84,AUVERGNE-RHONE-ALPES,NULL,NULL,Rue Léon Blum,26200,MONTELIMAR,"44,567631","4,755017"
ARA0265005548,PIERRELATTE JAMES WATT,26054,ALE,84,AUVERGNE-RHONE-ALPES,NULL,NULL,2 B rue James Watt,26700,PIERRELATTE,"44,370599","4,706486"
ARA0267005551,CREST ROZIER,26062,ALE,84,AUVERGNE-RHONE-ALPES,NULL,NULL,4 avenue Félix Rozier,26400,CREST,"44,734801","5,010711"
ARA0241005635,VALENCE BRIFFAUT,26085,DDA,84,AUVERGNE-RHONE-ALPES,NULL,NULL,354 A AVENUE CHABEUIL,26000,VALENCE,"44,92661","4,916812"
NOR0114005664,A2S DT EURE,27002,DDA,28,NORMANDIE,NULL,NULL,487 rue de l'Industrie,27000,EVREUX,"49,017304","1,178102"
NOR0121005391,VERNEUIL SUR AVRE,27004,ALE,28,NORMANDIE,NULL,NULL,135 RUE PORTE MORTAGNE,27130,VERNEUIL SUR AVRE,"48,735953","0,929057"
NOR0122005976,EVREUX BROSSOLETTE,27010,ALE,28,NORMANDIE,NULL,NULL,41 rue Pierre Brossolette,27000,EVREUX,"49,023141","1,168046"
NOR0474005677,GISORS,27023,ALE,28,NORMANDIE,NULL,NULL,30 RUE RIESGELSBERG,27140,GISORS,"49,282891","1,765031"
NOR0124006065,VERNON,27025,ALE,28,NORMANDIE,NULL,ZAC FIESCHI,3 rue Hannah ARENDT,27200,VERNON,"49,096403","1,473655"
NOR0125005603,LOUVIERS,27033,ALE,28,NORMANDIE,NULL,NULL,2 boulevard du Maréchal Joffre,27400,LOUVIERS,"49,214883","1,166964"
NOR0126005644,BERNAY,27041,ALE,28,NORMANDIE,NULL,NULL,28 rue Guillaume de la Tremblaye,27300,BERNAY,"49,08856","0,58763"
NOR0127001515,PONT AUDEMER,27056,ALE,28,NORMANDIE,NULL,NULL,8 RUE DU PRESIDENT GEORGES POMPIDOU,27500,PONT AUDEMER,"49,351534","0,518322"
NOR0128005962,EVREUX DELAUNE,27064,ALE,28,NORMANDIE,NULL,NULL,6 rue Auguste Delaune,27000,EVREUX,"49,005628","1,158928"
CEN0071001067,POLE EMPLOI LUCE,28004,DDA,24,CENTRE-VAL DE LOIRE,NULL,NULL,2 RUE D AQUITAINE,28110,LUCE,"48,43635","1,44947"
CEN0077001094,POLE EMPLOI VERNOUILLET,28008,ALE,24,CENTRE-VAL DE LOIRE,NULL,NULL,3 AVENUE MARC CHAPPEY,28500,VERNOUILLET,"48,731063","1,339215"
CEN0080006151,APE LUCE,28012,ALE,24,CENTRE-VAL DE LOIRE,NULL,NULL,1 impasse des Granges,28110,LUCE,"48,431787","1,463944"
CEN0082005504,APE DREUX / APES DREUX,28020,ALE,24,CENTRE-VAL DE LOIRE,NULL,NULL,1 Rue Pierre Sémard,28100,DREUX,"48,730658","1,368139"
CEN0086005369,APE CHATEAUDUN,28035,ALE,24,CENTRE-VAL DE LOIRE,NULL,NULL,9 PLACE DU PHENIX,28200,CHATEAUDUN,"48,06765","1,34151"
CEN0087006029,APE NOGENT LE ROTROU,28043,ALE,24,CENTRE-VAL DE LOIRE,NULL,NULL,50 rue Émile Gohon,28400,NOGENT LE ROTROU,"48,32338","0,80427"
CEN0088005956,APE CHARTRES GARE,28051,ALE,24,CENTRE-VAL DE LOIRE,NULL,NULL,21 rue Nicole,28000,CHARTRES,"48,446371","1,479748"
BRE0039005194,BREST MARINE (APE/DT29),29014,ALE,53,BRETAGNE,NULL,ZAC DU PORT DE BREST,130 RUE ERNEST HEMINGWAY,29200,BREST,"48,385604","-4,477666"
BRE0037005774,QUIMPER SUD,29016,ALE,53,BRETAGNE,NULL,NULL,50 rue Président Sadate,29000,QUIMPER,"47,977322","-4,097174"
BRE0032005816,BREST EUROPE,29019,ALE,53,BRETAGNE,NULL,NULL,11 rue du 8 Mai 1945,29200,BREST,"48,409735","-4,47025"
BRE0040005090,DOUARNENEZ,29022,ALE,53,BRETAGNE,NULL,NULL,23 RUE DE L AUBEPINE,29100,DOUARNENEZ,"48,08627","-4,344967"
BRE0042005256,MORLAIX,29030,ALE,53,BRETAGNE,NULL,NULL,10 rue Louis le Jeune,29600,MORLAIX,"48,58924","-3,809308"
BRE0045005817,QUIMPER NORD,29045,ALE,53,BRETAGNE,NULL,NULL,29 route de Ty Nay,29000,QUIMPER,"48,015796","-4,095153"
BRE0046005754,CARHAIX,29053,ALE,53,BRETAGNE,NULL,NULL,1 rue KERWENN,29270,CARHAIX PLOUGUER,"48,276533","-3,571156"
BRE0047000949,LANDERNEAU,29061,ALE,53,BRETAGNE,NULL,197 AV GENERAL GEORGE PATTON,59 RUE DE BREST,29800,LANDERNEAU,"48,450824","-4,257622"
BRE0049000945,BREST IROISE (APE/A2S29),29076,ALE,53,BRETAGNE,NULL,NULL,530 avenue de Tallinn,29200,BREST,"48,387737","-4,528618"
BRE0050005389,CONCARNEAU,29084,ALE,53,BRETAGNE,NULL,NULL,17 RUE AIME CESAIRE,29900,CONCARNEAU,"47,90232","-3,906945"
BRE0051005438,APE QUIMPERLE,29092,ALE,53,BRETAGNE,NULL,Zone de Kervidannou 4,11 bis rue Eric Tabarly,29300,QUIMPERLE,"47,866441","-3,58066"
BRE0052005494,PONT L ABBE,29102,ALE,53,BRETAGNE,NULL,NULL,24 rue Roger Signor,29120,PONT L ABBE,"47,862381","-4,223289"
BRE0024005194,BREST MARINE (APE/DT29),29110,DDA,53,BRETAGNE,NULL,ZAC DU PORT DE BREST,130 RUE ERNEST HEMINGWAY,29200,BREST,"48,385604","-4,477666"
OCC0151005757,Nimes Courbessac,30022,ALE,76,OCCITANIE,NULL,NULL,335 route d'Avignon,30000,NIMES,"43,854965","4,402974"
OCC0148005771,APE Ales Avene,30025,ALE,76,OCCITANIE,NULL,NULL,29 Chemin des 2 mas,30100,ALES,"44,120034","4,117081"
OCC0145005351,APE VAUVERT,30028,ALE,76,OCCITANIE,NULL,ZAC COTE SOLEIL,79 AVENUE MAS SAINT LAURENT,30600,VAUVERT,"43,707285","4,268469"
OCC0156005770,APE Ales Gardon,30543,ALE,76,OCCITANIE,NULL,NULL,5 Avenue Jean Baptiste Dumas,30100,ALES,"44,134472","4,080273"
OCC0158005710,APE Bagnols sur Ceze,30566,ALE,76,OCCITANIE,NULL,NULL,520 avenue Roger Salengro,30200,BAGNOLS SUR CEZE,"44,166664","4,613141"
OCC0162005107,PE VIGAN FO,30590,ALE,76,OCCITANIE,NULL,NULL,ROUTE DE TESSAN,30120,LE VIGAN,"43,992518","3,612842"
OCC0142000344,DT Gard Lozère,30600,DDA,76,OCCITANIE,NULL,NULL,112 allée du Mas de Ville,30000,NIMES,"43,831823","4,383216"
OCC0163005607,APE BEAUCAIRE,30623,ALE,76,OCCITANIE,NULL,NULL,Chemin Clapas de Cornut,30300,BEAUCAIRE,"43,811188","4,613672"
OCC0164005413,APE NIMES 7 COLLINES,30631,ALE,76,OCCITANIE,IMMEUBLE ALTIS,NULL,PARC GEORGES BESSE II,30000,NIMES,"43,83459","4,360864"
OCC0165005578,NIMES SAINT CESAIRE,30670,ALE,76,OCCITANIE,NULL,Quartier Quiquillon,3788 avenue Kennedy,30900,NIMES,"43,814267","4,31133"
OCC0153002142,PE VILLENEUVE LES AVIGNON,30703,ALE,76,OCCITANIE,NULL,ESPACE SAINT PONS,1 PLACE SAINT PONS,30400,VILLENEUVE LES AVIGNON,"43,96343","4,79738"
OCC0097005441,LABEGE,31001,ALE,76,OCCITANIE,NULL,Bâtiment 5 GREEN park 2,298 allée du Lac,31670,LABEGE,"43,535481","1,512887"
OCC0099002725,PORTET SUR GARONNE,31002,ALE,76,OCCITANIE,NULL,NULL,6 rue de l'Hôtel de Ville,31120,PORTET SUR GARONNE,"43,520834","1,398049"
OCC0096005500,CASTELGINEST,31005,ALE,76,OCCITANIE,NULL,NULL,"12, Rue du Pont Vieil",31780,CASTELGINEST,"43,692661","1,427729"
OCC0095002567,BLAGNAC,31008,ALE,76,OCCITANIE,NULL,NULL,11 MAIL LOUIS ARAGON,31700,BLAGNAC,"43,644661","1,377464"
OCC0094002669,SAINT JEAN,31011,ALE,76,OCCITANIE,NULL,NULL,6 CHEMIN DU BOIS DU SAGET,31240,ST JEAN,"43,662513","1,497988"
OCC0093006012,COLOMIERS,31015,ALE,76,OCCITANIE,NULL,NULL,25 boulevard Victor Hugo,31770,COLOMIERS,"43,613571","1,309383"
OCC0079002643,TOULOUSE LA CEPIERE,31026,ALE,76,OCCITANIE,NULL,NULL,4 CHE PIGEONNIER LA CEPIERE,31100,TOULOUSE,"43,586132","1,400742"
OCC0084005882,VILLEFRANCHE DE LAURAGAIS,31031,ALE,76,OCCITANIE,NULL,NULL,7 place des Cerisiers,31290,VILLEFRANCHE DE LAURAGAIS,"43,398401","1,71743"
OCC0075002691,TOULOUSE SAINT MICHEL,31037,ALE,76,OCCITANIE,NULL,NULL,2 avenue de l'Urss,31400,TOULOUSE,"43,603949","1,444509"
OCC0001002632,DR BALMA,31096,DRA,76,OCCITANIE,NULL,NULL,33 44 RUE GEORGES POMPIDOU 93186,31130,BALMA,"43,609885","1,49758"
OCC0120005881,SAINT GAUDENS ARRIEU,31315,ALE,76,OCCITANIE,NULL,NULL,5 B avenue Anselme Arrieu,31800,ST GAUDENS,"43,109223","0,720565"
OCC0104002677,TOULOUSE BELLEFONTAINE,31346,ALE,76,OCCITANIE,NULL,NULL,63 ALLEE DE BELLEFONTAINE,31100,TOULOUSE,"43,565759","1,399923"
OCC0105005401,MURET,31354,ALE,76,OCCITANIE,NULL,NULL,181-187 AVENUE JACQUES DOUZANS,31600,MURET,"43,47225","1,33074"
OCC0106002678,TOULOUSE OCCITANE,31370,ALE,76,OCCITANIE,NULL,NULL,6 A PLACE OCCITANE,31000,TOULOUSE,"43,603475","1,448614"
OCC0107002681,TOULOUSE JOLIMONT,31385,ALE,76,OCCITANIE,Etage 2,Bâtiment B,7 avenue Léon Blum,31500,TOULOUSE,"43,614368","1,461299"
OCC0071006039,TOULOUSE CARTOUCHERIE,31403,DDA,76,OCCITANIE,NULL,ZAC de la Cartoucherie,82 voie du Toec,31300,TOULOUSE,"43,596897","1,403433"
OCC0108005072,TOULOUSE LA PLAINE,31426,ALE,76,OCCITANIE,NULL,NULL,1 impasse René Couzinet,31500,TOULOUSE,"43,582804","1,492372"
OCC0102005669,TOULOUSE BORDEROUGE,31496,ALE,76,OCCITANIE,NULL,NULL,"6,Rue Françoise D'EAUBONNE",31200,TOULOUSE,"43,643708","1,452534"
OCC0103006039,TOULOUSE CARTOUCHERIE,31522,ALE,76,OCCITANIE,NULL,ZAC de la Cartoucherie,82 voie du Toec,31300,TOULOUSE,"43,596897","1,403433"
OCC0065002554,L'ISLE JOURDAIN,32002,ALE,76,OCCITANIE,NULL,NULL,1 B BOULEVARD POUMADERES,32600,L ISLE JOURDAIN,"43,610649","1,090664"
OCC0069005040,AUCH,32413,ALE,76,OCCITANIE,NULL,NULL,8 RUE RACINE,32000,AUCH,"43,63569","0,58487"
OCC0070002593,CONDOM,32421,ALE,76,OCCITANIE,NULL,NULL,2 B RUE LAMARTINE,32100,CONDOM,"43,95082","0,37496"
NAQ0129000554,APE SAINT MEDARD EN JALLES,33004,ALE,75,NOUVELLE-AQUITAINE,NULL,NULL,59 rue Jean Duperier,33160,ST MEDARD EN JALLES,"44,892435","-0,715123"
NAQ0127000604,APE VILLENAVE D ORNON,33024,ALE,75,NOUVELLE-AQUITAINE,NULL,NULL,Rue Saint Jean,33140,VILLENAVE D ORNON,"44,795878","-0,571249"
NAQ0143000494,APE LANGON,33025,ALE,75,NOUVELLE-AQUITAINE,NULL,NULL,22 E ROUTE DE BAZAS,33210,LANGON,"44,545041","-0,242601"
NAQ0144005457,APE LA TESTE,33033,ALE,75,NOUVELLE-AQUITAINE,NULL,NULL,55 impasse du Bosquet,33260,LA TESTE DE BUCH,"44,61701","-1,141103"
NAQ0146005630,APE LIBOURNE,33041,ALE,75,NOUVELLE-AQUITAINE,NULL,NULL,33-35 Chemin du Casse,33500,LIBOURNE,"44,918006","-0,22241"
NAQ0147005838,APE BLAYE,33056,ALE,75,NOUVELLE-AQUITAINE,NULL,NULL,14 Rue Adélaïde Hautval,33390,BLAYE,"45,127692","-0,653076"
NAQ0130005803,APE ANDERNOS,33064,ALE,75,NOUVELLE-AQUITAINE,NULL,NULL,13 esplanade du Broustic,33510,ANDERNOS LES BAINS,"44,743321","-1,099611"
NAQ0148005909,APE BEGLES Terres Neuves,33121,ALE,75,NOUVELLE-AQUITAINE,NULL,NULL,Rue Robert Schuman,33130,BEGLES,"44,814629","-0,550265"
NAQ0001005177,DR AQUITAINE,33127,DRA,75,NOUVELLE-AQUITAINE,NULL,IMMEUBLE ILOT B,87 RUE NUYENS,33100,BORDEAUX,"44,843958","-0,56061"
NAQ0149005421,APE CENON,33136,ALE,75,NOUVELLE-AQUITAINE,NULL,Résidence les 3 ponts,3 rue René Bonnac,33150,CENON,"44,850945","-0,523145"
NAQ0150006073,APE LESPARRE,33144,ALE,75,NOUVELLE-AQUITAINE,NULL,NULL,7 chemin de PRADAL,33340,LESPARRE MEDOC,"45,3073","-0,94204"
NAQ0134005811,APE ST JEAN,33201,ALE,75,NOUVELLE-AQUITAINE,Belcier,NULL,36 rue Terres de Borde,33800,BORDEAUX,"44,827265","-0,554061"
NAQ0135005439,APE BORDEAUX NORD,33216,ALE,75,NOUVELLE-AQUITAINE,NULL,Immeuble Le Cinq,5 place Ravezies,33300,BORDEAUX,"44,865295","-0,576048"
NAQ0136000436,APE BORDEAUX MERIADECK,33224,ALE,75,NOUVELLE-AQUITAINE,NULL,Résidence de la tour 2000,1 Terrasse du Front du Médoc,33000,BORDEAUX,"44,838546","-0,588143"
NAQ0137006142,EYSINES,33232,ALE,75,NOUVELLE-AQUITAINE,NULL,NULL,144 avenue du Médoc,33320,EYSINES,"44,885037","-0,636706"
NAQ0140005046,APE PESSAC,33320,ALE,75,NOUVELLE-AQUITAINE,NULL,NULL,15 avenue Léonard de Vinci,33600,PESSAC,"44,782558","-0,654735"
NAQ0133005385,APE LORMONT,33335,ALE,75,NOUVELLE-AQUITAINE,NULL,Immeuble LE SIGNAL,4 rue Romain Rolland,33310,LORMONT,"44,881886","-0,523306"
NAQ0141005042,APE MERIGNAC,33366,ALE,75,NOUVELLE-AQUITAINE,NULL,Immeuble GREENWICH,15 rue Thales,33700,MERIGNAC,"44,833889","-0,674185"
NAQ0142000524,APE BORDEAUX BASTIDE,33374,ALE,75,NOUVELLE-AQUITAINE,NULL,NULL,4 rue René Buthaut,33100,BORDEAUX,"44,837671","-0,555565"
NAQ0104005811,DT GIRONDE,33390,DDA,75,NOUVELLE-AQUITAINE,Belcier,NULL,36 rue Terres de Borde,33800,BORDEAUX,"44,827265","-0,554061"
OCC0180005411,APE MONTPELLIER Méditerranée,34011,ALE,76,OCCITANIE,NULL,Parc AEROPORT,300 impasse John Locke,34470,PEROLS,"43,58229","3,93869"
OCC0181005490,Montpellier Castelnau,34012,ALE,76,OCCITANIE,NULL,NULL,400 avenue Marcel Dassault,34170,CASTELNAU LE LEZ,"43,6282","3,91194"
OCC0178005761,APE BEZIERS COURONDELLE,34049,ALE,76,OCCITANIE,NULL,NULL,75 boulevard Colette Besson,34500,BEZIERS,"43,364376","3,222993"
OCC0174002229,APE MONTPELLIER MAS DE GRILLE,34055,ALE,76,OCCITANIE,NULL,NULL,RUE THEOPHRASTE RENAUDOT,34430,ST JEAN DE VEDAS,"43,57303","3,85186"
OCC0168005449,DT HERAULT,34300,DDA,76,OCCITANIE,NULL,Batiment 22,"1025, avenue Henri Becquerel",34000,MONTPELLIER,"43,609497","3,914734"
OCC0191005647,BEZIERS CAPISCOL,34601,ALE,76,OCCITANIE,NULL,Parc club le Devéze,166 rue Maurice Bejart,34500,BEZIERS,"43,332073","3,250616"
OCC0195006082,Montpellier Cévennes,34616,ALE,76,OCCITANIE,NULL,Parc 2000,411 rue Favre de Saint Castor,34080,MONTPELLIER,"43,61821","3,825309"
OCC0198005852,APE SETE,34624,ALE,76,OCCITANIE,NULL,NULL,Avenue du maréchal Juin,34200,SETE,"43,40526","3,70256"
OCC0199000330,PE CLERMONT L HERAULT,34640,ALE,76,OCCITANIE,NULL,NULL,16 B ROUTE DE MONTPELLIER,34800,CLERMONT L HERAULT,"43,633484","3,440462"
OCC0184005375,APE LUNEL,34663,ALE,76,OCCITANIE,NULL,NULL,300 AVENUE DES ABRIVADOS,34400,LUNEL,"43,670863","4,129018"
OCC0185002231,PE PEZENAS,34671,ALE,76,OCCITANIE,NULL,NULL,ZA DES RODETTES,34120,PEZENAS,"43,452522","3,419853"
OCC0186005807,AGDE,34712,ALE,76,OCCITANIE,NULL,NULL,82 chemin de Janin,34300,AGDE,"43,301581","3,480905"
BRE0070005671,RENNES NORD,35001,ALE,53,BRETAGNE,NULL,ZAC ARMORIQUE,4 rue René Dumont,35700,RENNES,"48,130311","-1,676667"
BRE0069005815,SAINT MALO,35007,ALE,53,BRETAGNE,NULL,NULL,7 rue Augustin Fresnel,35400,ST MALO,"48,650241","-1,989533"
BRE0078005352,COMBOURG,35010,ALE,53,BRETAGNE,NULL,Parc d'activités allée DE LOHON,Moulin Madame,35270,COMBOURG,"48,4155","-1,751936"
BRE0073000973,VITRE,35014,ALE,53,BRETAGNE,NULL,NULL,9 PLACE DU CHAMP DE FOIRE,35500,VITRE,"48,120281","-1,206686"
BRE0074000880,FOUGERES,35022,ALE,53,BRETAGNE,NULL,NULL,15 RUE HIPPOLYTE REHAULT,35300,FOUGERES,"48,348777","-1,191238"
BRE0067000950,RENNES OUEST,35027,ALE,53,BRETAGNE,NULL,200 boulevard GAY LUSSAC,5 B rue Pierre Joseph Colin,35000,RENNES,"48,114517","-1,715199"
BRE0075005726,REDON,35030,ALE,53,BRETAGNE,Maison de l emploi,NULL,3 rue Charles Sillard,35600,REDON,"47,653407","-2,095352"
BRE0076005524,RENNES CENTRE,35045,ALE,53,BRETAGNE,NULL,NULL,22 rue de Redon,35000,RENNES,"48,105697","-1,689184"
BRE0079006042,RENNES SUD,35061,ALE,53,BRETAGNE,NULL,NULL,"2 bis, avenue des Pays-Bas",35200,RENNES,"48,087759","-1,66128"
BRE0001000919,DR BRETAGNE,35076,DRA,53,BRETAGNE,NULL,NULL,36 RUE DE LEON,35000,RENNES,"48,108058","-1,66862"
BRE0081005367,RENNES EST (APE/DT35),35133,ALE,53,BRETAGNE,NULL,NULL,22 RUE DU BIGNON,35200,RENNES,"48,097094","-1,629411"
BRE0054005367,RENNES EST (APE/DT35),35141,DDA,53,BRETAGNE,NULL,NULL,22 RUE DU BIGNON,35200,RENNES,"48,097094","-1,629411"
CEN0007005659,APE CHATEAUROUX BALSAN,36016,ALE,24,CENTRE-VAL DE LOIRE,NULL,NULL,4 avenue Francois Mitterrand,36000,CHATEAUROUX,"46,811266","1,684017"
CEN0012005995,APE ARGENTON SUR CREUSE,36024,ALE,24,CENTRE-VAL DE LOIRE,Bâtiment modulaire,NULL,Place du Champ de Foire,36200,ARGENTON SUR CREUSE,"46,585549","1,522113"
CEN0015001169,POLE EMPLOI ISSOUDUN,36032,ALE,24,CENTRE-VAL DE LOIRE,NULL,LE FORMAPOLE,RUE GEORGES BRASSENS,36100,ISSOUDUN,"46,94961","2,0061"
CEN0026005323,APE TOURS DEUX LIONS / A2S INDRE ET LO,37002,ALE,24,CENTRE-VAL DE LOIRE,NULL,BATIMENT ACTI CAMPUS,40 RUE JAMES WATT,37200,TOURS,"47,36734","0,681005"
CEN0027005195,APE TOURS RONSARD,37011,ALE,24,CENTRE-VAL DE LOIRE,NULL,NULL,106 rue Ronsard,37100,TOURS,"47,420582","0,706072"
CEN0031005680,APE AMBOISE,37026,ALE,24,CENTRE-VAL DE LOIRE,NULL,Parc d¿activités St Maurice,10 rue de l¿ancienne Fonderie,37530,NAZELLES NEGRON,"47,432339","0,952927"
CEN0033001014,POLE EMPLOI LOCHES,37034,ALE,24,CENTRE-VAL DE LOIRE,NULL,NULL,1 PLACE DU MARECHAL LECLERC,37600,BEAULIEU LES LOCHES,"47,128365","1,01162"
CEN0034005996,APE CHINON,37042,ALE,24,CENTRE-VAL DE LOIRE,NULL,NULL,27 Avenue Gambetta,37500,CHINON,"47,163835","0,251976"
CEN0472005480,DT 37 INDRE & LOIRE/APE ST P DES CORPS,37056,DDA,24,CENTRE-VAL DE LOIRE,NULL,NULL,55 & 56 Avenue Georges Pompidou,37700,ST PIERRE DES CORPS,"47,38584","0,70996"
CEN0035005965,APE JOUE LES TOURS,37065,ALE,24,CENTRE-VAL DE LOIRE,NULL,NULL,92 boulevard Jean Jaurès,37300,JOUE LES TOURS,"47,348461","0,6616"
CEN0037005480,DT 37 INDRE & LOIRE/APE ST P DES CORPS,37073,ALE,24,CENTRE-VAL DE LOIRE,NULL,NULL,55 & 56 Avenue Georges Pompidou,37700,ST PIERRE DES CORPS,"47,38584","0,70996"
CEN0038005493,APE SAINT CYR SUR LOIRE,37081,ALE,24,CENTRE-VAL DE LOIRE,NULL,NULL,7 rue Lavoisier,37540,ST CYR SUR LOIRE,"47,423727","0,660681"
ARA0101005274,GRENOBLE EUROPOLE,38013,ALE,84,AUVERGNE-RHONE-ALPES,NULL,NULL,1 RUE D ARMENIE,38000,GRENOBLE,"45,191791","5,711678"
ARA0090006090,GRENOBLE LA BRUYERE,38017,ALE,84,AUVERGNE-RHONE-ALPES,NULL,NULL,78 avenue La Bruyère,38100,GRENOBLE,"45,166807","5,729247"
ARA0104005475,VIENNE Général LECLERC,38021,ALE,84,AUVERGNE-RHONE-ALPES,NULL,Jazz Parc - Bâtiment 5,30 Avenue du Général LECLERC,38200,VIENNE,"45,513832","4,866558"
ARA0089005649,LA COTE SAINT ANDRE,38030,ALE,84,AUVERGNE-RHONE-ALPES,NULL,NULL,12 rue du Commandant Julhiet,38260,LA COTE ST ANDRE,"45,394461","5,254306"
ARA0106005670,BOURGOIN,38036,ALE,84,AUVERGNE-RHONE-ALPES,NULL,Green park,1 rue Claude Chappe,38300,BOURGOIN JALLIEU,"45,589938","5,261477"
ARA0093005897,TIGNIEU Jameyzieu,38037,ALE,84,AUVERGNE-RHONE-ALPES,NULL,NULL,15 Rue Vaucanson,38230,TIGNIEU JAMEYZIEU,"45,753789","5,190657"
ARA0073005895,MEYLAN,38040,DDA,84,AUVERGNE-RHONE-ALPES,NULL,Immeuble INOVALLIA,16 chemin de Malacher,38240,MEYLAN,"45,208464","5,787697"
ARA0088005904,PONTCHARRA,38041,ALE,84,AUVERGNE-RHONE-ALPES,NULL,NULL,40 Avenue de la gare,38530,PONTCHARRA,"45,432084","6,020107"
ARA0108005905,CENTRE ISERE,38044,ALE,84,AUVERGNE-RHONE-ALPES,NULL,NULL,73 boulevard Franklin Roosevelt,38500,VOIRON,"45,361776","5,594682"
ARA0109005658,ROUSSILLON ANATOLE FRANCE,38052,ALE,84,AUVERGNE-RHONE-ALPES,NULL,NULL,8 rue Anatole France,38150,ROUSSILLON,"45,363434","4,804304"
ARA0110005478,SAINT MARTIN D HERES,38060,ALE,84,AUVERGNE-RHONE-ALPES,NULL,NULL,22 avenue Benoît Frachon,38400,ST MARTIN D HERES,"45,184663","5,754015"
ARA0094003965,ECHIROLLES,38075,ALE,84,AUVERGNE-RHONE-ALPES,NULL,NULL,33 RUE NORMANDIE NIEMEN,38130,ECHIROLLES,"45,14886","5,72013"
ARA0095005724,FONTAINE LIBERTE,38091,ALE,84,AUVERGNE-RHONE-ALPES,NULL,NULL,26 rue de la Liberté,38600,FONTAINE,"45,191167","5,69604"
ARA0096005557,PONT DE CLAIX,38101,ALE,84,AUVERGNE-RHONE-ALPES,NULL,NULL,1 avenue du Marechal Juin,38800,LE PONT DE CLAIX,"45,120792","5,696406"
ARA0099004071,LA TOUR DU PIN,38124,ALE,84,AUVERGNE-RHONE-ALPES,NULL,NULL,8 RUE PIERRE VINCENDON,38110,LA TOUR DU PIN,"45,565225","5,442402"
ARA0100005779,VILLEFONTAINE,38171,ALE,84,AUVERGNE-RHONE-ALPES,NULL,NULL,315 RUE SERGE MAUROIT,38090,VILLEFONTAINE,"45,611729","5,155785"
BFC0087005992,LONS LE SAUNIER,39015,ALE,27,BOURGOGNE-FRANCHE-COMTE,NULL,NULL,11 B avenue du Stade Municipal,39000,LONS LE SAUNIER,"46,670625","5,56129"
BFC0089005604,SAINT CLAUDE,39046,ALE,27,BOURGOGNE-FRANCHE-COMTE,NULL,NULL,20 RUE DE BELLEFONTAINE,39200,ST CLAUDE,"46,380595","5,823968"
BFC0092001292,DOLE NERUDA,39054,ALE,27,BOURGOGNE-FRANCHE-COMTE,NULL,NULL,22 rue Pablo Neruda,39100,DOLE,"47,08697","5,4715"
NAQ0073006072,APE PARENTIS,40002,ALE,75,NOUVELLE-AQUITAINE,NULL,NULL,113 Allée Malichecq,40160,PARENTIS EN BORN,"44,353594","-1,07044"
NAQ0070005009,APE SAINT PAUL LES DAX,40003,ALE,75,NOUVELLE-AQUITAINE,NULL,NULL,835 rue de l'Europe,40990,ST PAUL LES DAX,"43,728371","-1,077682"
NAQ0078005362,APE MONT DE MARSAN,40012,ALE,75,NOUVELLE-AQUITAINE,NULL,Immeuble BOSQUET ILOT C,105 rue Renée Darriet,40000,MONT DE MARSAN,"43,89911","-0,49361"
NAQ0243005749,DT LANDES,40019,DDA,75,NOUVELLE-AQUITAINE,NULL,NULL,3 place Francis Plante,40000,MONT DE MARSAN,"43,89097","-0,497903"
NAQ0082000559,APE DAX,40020,ALE,75,NOUVELLE-AQUITAINE,NULL,NULL,8 rue des Frènes,40100,DAX,"43,7182","-1,05634"
NAQ1034005749,DT LANDES,40029,DDA,75,NOUVELLE-AQUITAINE,NULL,NULL,3 place Francis Plante,40000,MONT DE MARSAN,"43,89097","-0,497903"
NAQ0083005517,APE ST VINCENT DE TYROSSE,40043,ALE,75,NOUVELLE-AQUITAINE,NULL,NULL,2 allée des Pyrénées,40230,ST VINCENT DE TYROSSE,"43,658165","-1,302515"
CEN0043005937,APE BLOIS GARE / A2S LOIR ET CHER,41000,ALE,24,CENTRE-VAL DE LOIRE,NULL,Ilot Ducoux,9 rue Auguste Poulain,41000,BLOIS,"47,584113","1,323987"
CEN0047006017,APE BLOIS LAPLACE,41014,ALE,24,CENTRE-VAL DE LOIRE,NULL,NULL,67 avenue de Châteaudun,41000,BLOIS,"47,60167","1,328298"
CEN0045005470,APE Vendome,41022,ALE,24,CENTRE-VAL DE LOIRE,NULL,NULL,11 bis Rue Albert 1er,41100,VENDOME,"47,799542","1,060447"
CEN0046005681,APE ROMORANTIN,41030,ALE,24,CENTRE-VAL DE LOIRE,NULL,NULL,16 avenue Saint-Exupéry,41200,ROMORANTIN LANTHENAY,"47,35707","1,75121"
ARA0227004114,PLATEAU TEL. RHONE ALPES + ANDREZIEUX,42024,ALE,84,AUVERGNE-RHONE-ALPES,NULL,IMMEUBLE LE DIAMANT,ROND POINT AUGUSTE COLONNA,42160,ANDREZIEUX BOUTHEON,"45,530018","4,28014"
ARA0228005741,MONTBRISON GRANDS CHENES,42032,ALE,84,AUVERGNE-RHONE-ALPES,NULL,NULL,64 rue des Grands Chênes,42600,MONTBRISON,"45,599323","4,09291"
ARA0229005986,ROANNE,42040,ALE,84,AUVERGNE-RHONE-ALPES,NULL,NULL,2 rue des fosses,42300,ROANNE,"46,040632","4,071607"
ARA0212003803,SAINT ETIENNE OUEST,42045,ALE,84,AUVERGNE-RHONE-ALPES,NULL,NULL,18 AVENUE AUGUSTIN DUPRE,42000,ST ETIENNE,"45,43739","4,379175"
ARA0231006101,FIRMINY,42055,ALE,84,AUVERGNE-RHONE-ALPES,NULL,NULL,3 Rue de l'Ecole,42700,FIRMINY,"45,381677","4,28524"
ARA1363005377,SAINT ETIENNE TECHNOPOLE,42060,DDA,84,AUVERGNE-RHONE-ALPES,NULL,NULL,59 RUE DES ACIERIES,42000,SAINT ETIENNE,"45,45759","4,393407"
ARA0233003797,SAINT CHAMOND PORT SEC,42063,ALE,84,AUVERGNE-RHONE-ALPES,NULL,NULL,1 B RUE DU PORT SEC,42400,ST CHAMOND,"45,473177","4,511764"
ARA0234005549,RIVE DE GIER,42071,ALE,84,AUVERGNE-RHONE-ALPES,NULL,NULL,1 rue de la Petite Vitesse,42800,RIVE DE GIER,"45,524043","4,602061"
ARA0235003835,SAINT ETIENNE CHATEAUCREUX,42112,ALE,84,AUVERGNE-RHONE-ALPES,NULL,NULL,14 rue de la Montat,42100,ST ETIENNE,"45,439952","4,399454"
ARA0238003938,SAINT ETIENNE BELLEVUE,42120,ALE,84,AUVERGNE-RHONE-ALPES,NULL,NULL,29 rue du Mont,42100,ST ETIENNE,"45,418036","4,388759"
ARA0239003822,SAINT ETIENNE TERRASSE,42135,ALE,84,AUVERGNE-RHONE-ALPES,NULL,NULL,12 allée des Artilleurs,42000,ST ETIENNE,"45,463498","4,378485"
ARA0042000044,LE PUY EN VELAY,43011,ALE,84,AUVERGNE-RHONE-ALPES,NULL,NULL,5 rue des Chevaliers de Saint-Jean,43000,LE PUY EN VELAY,"45,044763","3,89073"
ARA0045005487,MONISTROL SUR LOIRE,43026,ALE,84,AUVERGNE-RHONE-ALPES,NULL,NULL,7 boulevard Mitterrand,43120,MONISTROL SUR LOIRE,"45,282828","4,174838"
ARA0041005912,BRIOUDE,43034,ALE,84,AUVERGNE-RHONE-ALPES,NULL,NULL,30 avenue de Lamothe,43100,BRIOUDE,"45,294732","3,388468"
PDL0082005452,Nantes Nord,44009,ALE,52,PAYS DE LA LOIRE,NULL,NULL,50 boulevard Albert Einstein,44300,NANTES,"47,26385","-1,569667"
PDL0080003137,CLISSON,44013,ALE,52,PAYS DE LA LOIRE,NULL,NULL,7 allée du Chantre,44190,CLISSON,"47,096684","-1,283733"
PDL0079005479,LA BAULE GUERANDE,44016,ALE,52,PAYS DE LA LOIRE,NULL,NULL,3 avenue des Noelles,44500,LA BAULE,"47,290807","-2,394016"
PDL0087005700,ST NAZAIRE,44021,ALE,52,PAYS DE LA LOIRE,NULL,NULL,10 boulevard de l'Université,44600,ST NAZAIRE,"47,253407","-2,264484"
PDL0074005652,Nantes Ste Luce,44033,ALE,52,PAYS DE LA LOIRE,NULL,NULL,1 allée des Citronniers,44300,NANTES,"47,2484","-1,495149"
PDL0076005650,Nantes Chantenay,44035,ALE,52,PAYS DE LA LOIRE,NULL,NULL,5 chemin Pressoir Chênaie,44100,NANTES,"47,198526","-1,590155"
PDL0088005544,CHATEAUBRIANT,44036,ALE,52,PAYS DE LA LOIRE,NULL,Bâtiment A,10 rue d'Ancenis,44110,CHATEAUBRIANT,"47,710901","-1,372935"
PDL0072005512,BLAIN,44039,ALE,52,PAYS DE LA LOIRE,NULL,NULL,1 rue des Droits de l'Homme,44130,BLAIN,"47,474732","-1,758946"
PDL0071005496,Saint Sébastien,44046,ALE,52,PAYS DE LA LOIRE,NULL,NULL,13 rue Marie Curie,44230,ST SEBASTIEN SUR LOIRE,"47,188649","-1,484047"
PDL0055003143,DT 44,44060,DDA,52,PAYS DE LA LOIRE,NULL,NULL,8 B rue de la Garde,44300,NANTES,"47,250023","-1,50305"
PDL0091006106,NANTES CENTRE,44075,ALE,52,PAYS DE LA LOIRE,NULL,NULL,8 avenue du Petit Clos,44300,NANTES,"47,23416","-1,57862"
PDL0001003075,Dr PDL CRUCY,44116,DRA,52,PAYS DE LA LOIRE,NULL,NULL,1 rue de la Cale Crucy,44100,NANTES,"47,197523","-1,585425"
PDL0092005651,Nantes Malakoff,44155,ALE,52,PAYS DE LA LOIRE,NULL,NULL,10 rue de Chypre,44000,NANTES,"47,215471","-1,524487"
PDL0093003138,PORNIC,44163,ALE,52,PAYS DE LA LOIRE,NULL,NULL,62 boulevard de Linz,44210,PORNIC,"47,12193","-2,113977"
PDL0094005464,REZE,44171,ALE,52,PAYS DE LA LOIRE,NULL,NULL,7 rue Eugène Orieux,44400,REZE,"47,18477","-1,546177"
PDL0084003045,MACHECOUL,44174,ALE,52,PAYS DE LA LOIRE,NULL,NULL,19 rue Marcel Bruneliere,44270,MACHECOUL,"46,993831","-1,819872"
PDL0096005640,TRIGNAC,44194,ALE,52,PAYS DE LA LOIRE,NULL,NULL,7 avenue Barbara,44570,TRIGNAC,"47,297261","-2,205791"
PDL0097005795,Saint Herblain,44212,ALE,52,PAYS DE LA LOIRE,NULL,NULL,4 rue de la Gironde,44800,ST HERBLAIN,"47,210815","-1,613463"
PDL0098006006,APE Ancenis,44243,ALE,52,PAYS DE LA LOIRE,NULL,NULL,336 rue François René Châteaubriand,44150,ANCENIS,"47,376376","-1,180475"
PDL0100006089,Nantes Haluchère,44266,ALE,52,PAYS DE LA LOIRE,NULL,NULL,224 boulevard Jules Verne,44300,NANTES,"47,24815","-1,521632"
CEN0050005313,DT 45 LOIRET / PE ORLEANS OUEST,45000,DDA,24,CENTRE-VAL DE LOIRE,NULL,NULL,10 RUE LAVOISIER,45140,INGRE,"47,903597","1,852823"
CEN0058005554,APE Orleans Sud,45009,ALE,24,CENTRE-VAL DE LOIRE,NULL,NULL,18 avenue de la Boliere,45100,ORLEANS,"47,836674","1,932538"
CEN0065005545,APE ORLEANS NORD,45015,ALE,24,CENTRE-VAL DE LOIRE,NULL,Bâtiment B,8 avenue du Général Patton,45000,ORLEANS,"47,915954","1,901723"
CEN0056005313,DT 45 LOIRET / PE ORLEANS OUEST,45021,ALE,24,CENTRE-VAL DE LOIRE,NULL,NULL,10 RUE LAVOISIER,45140,INGRE,"47,903597","1,852823"
CEN0069005459,APE Montargis,45023,ALE,24,CENTRE-VAL DE LOIRE,NULL,NULL,111 rue des Déportés et Internés,45200,MONTARGIS,"47,99266","2,74538"
CEN0059005472,APE PITHIVIERS,45031,ALE,24,CENTRE-VAL DE LOIRE,NULL,NULL,Rue Olympe de Gouges,45300,PITHIVIERS,"48,186199","2,251963"
CEN0060005471,APE Gien,45046,ALE,24,CENTRE-VAL DE LOIRE,NULL,NULL,62 route d'Orléans,45500,GIEN,"47,695285","2,612732"
CEN0001001110,DR CENTRE SIEGE PLAZA,45054,DRA,24,CENTRE-VAL DE LOIRE,NULL,NULL,3 A RUE PIERRE GILLES DE GENNES,45000,ORLEANS,"47,915567","1,901972"
CEN0061005921,APE ORLEANS EST,45062,ALE,24,CENTRE-VAL DE LOIRE,NULL,NULL,8 boulevard Émile Bernon,45800,ST JEAN DE BRAYE,"47,910719","1,972361"
CEN0464001126,APE ORLEANS LOIRE,45122,ALE,24,CENTRE-VAL DE LOIRE,NULL,NULL,50 rue Tudelle,45100,ORLEANS,"47,89272","1,90032"
OCC0044005963,SOUILLAC,46001,ALE,76,OCCITANIE,NULL,NULL,Place de la Gare,46200,SOUILLAC,"44,901786","1,466175"
OCC0047005563,CAHORS,46511,ALE,76,OCCITANIE,NULL,NULL,"94,Rue HAUTESSERRE",46000,CAHORS,"44,443922","1,43874"
OCC0048002667,FIGEAC,46534,ALE,76,OCCITANIE,NULL,NULL,6 AVENUE BERNARD FONTANGES,46100,FIGEAC,"44,609141","2,02168"
NAQ0075005390,APE AGEN,47012,ALE,75,NOUVELLE-AQUITAINE,NULL,NULL,104 AVENUE DU DOCTEUR JEAN BRU,47000,AGEN,"44,193418","0,614981"
NAQ0076000512,APE MARMANDE,47020,ALE,75,NOUVELLE-AQUITAINE,NULL,NULL,35 rue Portogruaro,47200,MARMANDE,"44,507457","0,154243"
NAQ0077005629,APE VILLENEUVE SUR LOT,47035,ALE,75,NOUVELLE-AQUITAINE,NULL,NULL,Avenue Lazare Carnot,47300,VILLENEUVE SUR LOT,"44,40279","0,70332"
NAQ0059000536,DT LOT ET GARONNE,47100,DDA,75,NOUVELLE-AQUITAINE,NULL,NULL,51 RUE ALBERT CAMUS,47000,AGEN,"44,191948","0,639532"
OCC0154005402,PE MENDE,48642,ALE,76,OCCITANIE,NULL,NULL,44 BIS AVENUE DU 11 NOVEMBRE,48000,MENDE,"44,524292","3,482909"
PDL0117006030,ANGERS ROSERAIE,49005,ALE,52,PAYS DE LA LOIRE,NULL,NULL,5 rue Henri Bergson,49000,ANGERS,"47,445163","-0,561854"
PDL0116005513,BEAUPREAU,49008,ALE,52,PAYS DE LA LOIRE,NULL,NULL,67 rue de la Limé,49600,BEAUPREAU,"47,20172","-0,991566"
PDL0115005780,Saumur,49009,ALE,52,PAYS DE LA LOIRE,NULL,NULL,680 avenue François Mitterrand,49400,SAUMUR,"47,243901","-0,076413"
PDL0112006007,APE Angers Capucins,49015,ALE,52,PAYS DE LA LOIRE,NULL,NULL,14 rue du general lize,49000,ANGERS,"47,491102","-0,564428"
PDL0111005860,Cholet,49019,ALE,52,PAYS DE LA LOIRE,NULL,NULL,24 rue du Carteron,49300,CHOLET,"47,048437","-0,869502"
PDL0123005860,Cholet,49024,ALE,52,PAYS DE LA LOIRE,NULL,NULL,24 rue du Carteron,49300,CHOLET,"47,048437","-0,869502"
PDL0118005859,Beaufort en Anjou,49032,ALE,52,PAYS DE LA LOIRE,NULL,NULL,3 place de la République,49250,BEAUFORT EN ANJOU,"47,437838","-0,2145"
PDL0119003002,SEGRE,49040,ALE,52,PAYS DE LA LOIRE,NULL,NULL,1 rue Auguste Rodin,49500,SEGRE,"47,69335","-0,86742"
PDL0120003100,ANGERS BALZAC,49055,ALE,52,PAYS DE LA LOIRE,NULL,NULL,4 rue des Basses Fouassieres,49000,ANGERS,"47,472842","-0,581251"
PDL0121005731,Angers Europe,49063,ALE,52,PAYS DE LA LOIRE,NULL,NULL,9 Bis boulevard Auguste Allonneau,49100,ANGERS,"47,484972","-0,526344"
PDL0103003100,ANGERS BALZAC,49104,DDA,52,PAYS DE LA LOIRE,NULL,NULL,4 rue des Basses Fouassieres,49000,ANGERS,"47,472842","-0,581251"
NOR0031005591,CHERBOURG La Noé - A2S Manche,50013,ALE,28,NORMANDIE,NULL,NULL,100 impasse des Cerisiers,50110,TOURLAVILLE,"49,640569","-1,580383"
NOR0027000628,CHERBOURG CENTRE,50016,ALE,28,NORMANDIE,NULL,NULL,25 RUE DOM PEDRO,50100,CHERBOURG OCTEVILLE,"49,638669","-1,614241"
NOR0032005429,SAINT-LO,50021,ALE,28,NORMANDIE,NULL,NULL,419 Rue Alexis de Tocqueville,50000,ST LO,"49,103","-1,07762"
NOR0034005006,GRANVILLE,50036,ALE,28,NORMANDIE,NULL,NULL,204 RUE PAUL DE GIBON,50400,GRANVILLE,"48,834472","-1,565521"
NOR0035000669,COUTANCES,50044,ALE,28,NORMANDIE,NULL,NULL,103 RUE GEOFFROY DE MONTBRAY,50200,COUTANCES,"49,041642","-1,446892"
NOR0036005777,AVRANCHES,50052,ALE,28,NORMANDIE,NULL,NULL,2 rue de la sablonniere,50300,AVRANCHES,"48,680122","-1,345948"
NOR0037006048,CHERBOURG PROVINCES,50124,ALE,28,NORMANDIE,NULL,NULL,2 rue de Touraine,50130,CHERBOURG EN COTENTIN,"49,626074","-1,634484"
GRE0023005616,REIMS JEANNE D ARC,51002,ALE,44,GRAND EST,NULL,NULL,1 rue des Thiolettes,51100,REIMS,"49,250645","4,053719"
GRE0020005615,REIMS BEZANNES,51012,ALE,44,GRAND EST,NULL,NULL,RUE LOUIS NEIL,51430,BEZANNES,"49,223177","4,003923"
GRE0021005618,REIMS NEUVILLETTE,51013,ALE,44,GRAND EST,NULL,NULL,Rue Charles Guggiari,51100,REIMS,"49,284797","4,026275"
GRE0013001213,DT MARNE,51023,DDA,44,GRAND EST,NULL,NULL,51 esplanade Fléchambault,51100,REIMS,"49,241883","4,03703"
GRE0029005619,EPERNAY,51421,ALE,44,GRAND EST,NULL,NULL,2 RUE MARCEL PAUL,51200,EPERNAY,"49,05039","3,9613"
GRE0031005617,REIMS MONT D ARENE,51436,ALE,44,GRAND EST,NULL,NULL,67 rue du Mont d'Arène,51100,REIMS,"49,261507","4,019411"
GRE0034005993,VITRY LE FRANCOIS,51444,ALE,44,GRAND EST,NULL,NULL,16 BIS BOULEVARD CARNOT,51300,VITRY LE FRANCOIS,"48,72292","4,58894"
GRE0036005363,APE CHALONS EN CHAMPAGNE,51452,ALE,44,GRAND EST,NULL,CASERNE CHANZY FORGEOT BAT 33,71 AVENUE DE LA 2EME DIVISION BLINDEE,51000,CHALONS EN CHAMPAGNE,"48,964718","4,363754"
GRE0027005855,SEZANNE,51475,ALE,44,GRAND EST,NULL,NULL,51 rue Aristide Briand,51120,SEZANNE,"48,718297","3,728409"
GRE0007001183,CHAUMONT,52614,ALE,44,GRAND EST,NULL,NULL,22 RUE JULES CHERET,52000,CHAUMONT,"48,097405","5,144604"
GRE0009005450,SAINT DIZIER,52622,ALE,44,GRAND EST,NULL,NULL,4 rue Godard Jeanson,52100,ST DIZIER,"48,631802","4,952229"
GRE0012006009,LANGRES,52630,ALE,44,GRAND EST,NULL,NULL,29 avenue du Général De Gaulle,52200,LANGRES,"47,848706","5,326523"
GRE0003006063,DT AUBE HAUTE MARNE CHAUMONT,52653,DDA,44,GRAND EST,NULL,NULL,4 rue Raymond Savignac,52000,CHAUMONT,"48,095811","5,144996"
PDL0050005862,Laval Saint Nicolas,53007,ALE,52,PAYS DE LA LOIRE,NULL,NULL,18 rue Albert Einstein,53000,LAVAL,"48,054497","-0,742265"
PDL0052005631,Laval Ferrié,53012,ALE,52,PAYS DE LA LOIRE,NULL,Bâtiment G,Rue du Général Ferrie,53000,LAVAL,"48,080737","-0,789427"
PDL0053005430,CHATEAU GONTIER,53020,ALE,52,PAYS DE LA LOIRE,NULL,Quartier de la Motte Vauvert,1 rue de l'Atlantique,53200,CHATEAU GONTIER,"47,826791","-0,722431"
PDL0054005408,APE MAYENNE,53035,ALE,52,PAYS DE LA LOIRE,NULL,NULL,24 rue Charles de Blois,53100,MAYENNE,"48,30037","-0,60874"
GRE0097005781,NANCY GENTILLY,54008,ALE,44,GRAND EST,NULL,NULL,199 rue Julie Victoire Daubie,54100,NANCY,"48,703066","6,145106"
GRE0111002338,BRIEY JARNY,54014,ALE,44,GRAND EST,NULL,NULL,2 RUE DE LA FILATURE,54150,BRIEY,"49,247174","5,939209"
GRE0113002395,LONGWY,54022,ALE,44,GRAND EST,NULL,NULL,ESPACE JEAN MONNET,54810,LONGLAVILLE,"49,532746","5,785847"
GRE0092002340,NANCY MAJORELLE,54028,ALE,44,GRAND EST,NULL,NULL,22 RUE FRANCOIS DE NEUFCHATEAU,54000,NANCY,"48,686937","6,164634"
GRE0117005197,LUNEVILLE RIVOLET,54030,ALE,44,GRAND EST,NULL,RESIDENCE MOZART,1 RUE CHARLES RIVOLET,54300,LUNEVILLE,"48,58782","6,49384"
GRE0118006066,NANCY JOFFRE,54045,ALE,44,GRAND EST,NANCY GRAND COEUR,Bâtiment D1,32 boulevard Joffre,54000,NANCY,"48,687348","6,178693"
GRE0101006013,PONT A MOUSSON,54053,ALE,44,GRAND EST,NULL,ZAC D'EMBIZE,158 rue Pierre Adt,54700,PONT A MOUSSON,"48,923995","6,067258"
GRE0102002337,TOUL PECHOT,54061,ALE,44,GRAND EST,NULL,NULL,90 avenue du Colonel Pechot,54200,TOUL,"48,681026","5,891444"
GRE0104002341,NANCY CRISTALLERIE,54102,ALE,44,GRAND EST,NULL,NULL,88 AVENUE DU XXEME CORPS,54000,NANCY,"48,698192","6,200428"
GRE1109005717,APE BAR LE DUC,54127,DDA,44,GRAND EST,NULL,NULL,77 rue ERNEST BRADFER,55012,BAR LE DUC,"48,766244","5,176689"
GRE0108002345,VANDOEUVRE ROTTERDAM,54133,ALE,44,GRAND EST,NULL,NULL,2 ALLEE DE ROTTERDAM,54500,VANDOEUVRE LES NANCY,"48,662972","6,182466"
GRE0123005717,APE BAR LE DUC,55215,ALE,44,GRAND EST,NULL,NULL,77 rue ERNEST BRADFER,55012,BAR LE DUC,"48,766244","5,176689"
GRE0124005086,VERDUN,55223,ALE,44,GRAND EST,NULL,ACTIPOLE SUD,RUE ROBERT DE COTTE,55100,VERDUN,"49,14903","5,40562"
GRE0127005129,POLE EMPLOI DE COMMERCY,55231,ALE,44,GRAND EST,NULL,NULL,54 B AVENUE STANISLAS,55200,COMMERCY,"48,760885","5,58712"
BRE0015000899,VANNES OUEST,56005,ALE,53,BRETAGNE,NULL,BATIMENT H,3 RUE MARIE CURIE,56890,PLESCOP,"47,677657","-2,801996"
BRE0018005444,LORIENT VILLE,56011,ALE,53,BRETAGNE,NULL,NULL,"2, rue Alice Coléno",56100,LORIENT,"47,756199","-3,389415"
BRE0019000947,PONTIVY,56026,ALE,53,BRETAGNE,NULL,ZONE ARTISANALE PORZH ROUZ,1 RUE KRISTEN NOGUES,56300,PONTIVY,"48,065529","-2,965917"
BRE0020005091,VANNES EST,56034,ALE,53,BRETAGNE,NULL,BATIMENT B RESIDENCE MOGADOR,15 ROUTE DE NANTES,56860,SENE,"47,653911","-2,735744"
BRE0021006028,PLOERMEL,56050,ALE,53,BRETAGNE,NULL,NULL,Rue Georges Brassens,56800,PLOERMEL,"47,93177","-2,39873"
BRE0022000958,AURAY,56065,ALE,53,BRETAGNE,NULL,NULL,7 RUE DE LA LIBERATION,56400,AURAY,"47,670806","-2,994299"
BRE0016005818,APE LANESTER,56073,ALE,53,BRETAGNE,NULL,NULL,42 avenue François Billoux,56607,LANESTER,"47,766604","-3,344918"
BRE0017000944,LORIENT MARINE,56081,ALE,53,BRETAGNE,NULL,NULL,9 RUE FRANCOIS TOULLEC,56100,LORIENT,"47,732375","-3,379214"
BRE0002000992,DT 56 / AGENCE SPECIALISEE 56,56106,DDA,53,BRETAGNE,NULL,NULL,RUE CAMILLE CLAUDEL,56890,PLESCOP,"47,676448","-2,800869"
GRE0143005663,APE CREUTZWALD,57036,ALE,44,GRAND EST,NULL,NULL,6 rue de Carling,57150,CREUTZWALD,"49,205416","6,695364"
GRE0146002335,THIONVILLE BEAUREGARD,57039,ALE,44,GRAND EST,NULL,NULL,2 rue des Frères,57106,THIONVILLE,"49,352723","6,159187"
GRE0132002311,FORBACH VILLE HAUTE,57040,ALE,44,GRAND EST,NULL,NULL,1 RUE JEAN MONNET,57600,FORBACH,"49,187451","6,903126"
GRE0135002319,METZ BLIDA,57043,ALE,44,GRAND EST,NULL,NULL,3 AVENUE DE BLIDA,57000,METZ,"49,125774","6,181573"
GRE0149002312,FORBACH CARREFOUR DE EUROPE,57411,ALE,44,GRAND EST,NULL,NULL,1 RUE DU 18E CHASSEUR,57600,FORBACH,"49,18059","6,88751"
GRE0154002318,METZ GARE,57426,ALE,44,GRAND EST,NULL,NULL,3 T rue Gambetta,57000,METZ,"49,110752","6,173404"
GRE0156005786,APE SARREBOURG,57434,ALE,44,GRAND EST,NULL,LES TERRASSES DE BRETAGNE,ZA LES TERRASSES DE LA SARRE,57400,SARREBOURG,"48,734975","7,0519"
GRE0157005428,SARREGUEMINES,57442,ALE,44,GRAND EST,NULL,NULL,42 RUE RAYMOND POINCARE,57200,SARREGUEMINES,"49,10575","7,072106"
GRE0158005662,APE THIONVILLE MANOM,57450,ALE,44,GRAND EST,NULL,Zone d'activités DE L EMAILLERIE,42 BIS RUE DU LUXEMBOURG,57100,MANOM,"49,375608","6,170243"
GRE0159002317,METZ SEBASTOPOL,57465,ALE,44,GRAND EST,NULL,NULL,5 RUE DES DINANDIERS,57070,METZ,"49,109473","6,230357"
GRE0161005552,SAINT AVOLD,57481,ALE,44,GRAND EST,NULL,NULL,2 rue du Général De Gaulle,57500,ST AVOLD,"49,103246","6,709126"
GRE0162005463,MONTIGNY LES METZ,57514,ALE,44,GRAND EST,NULL,NULL,325 rue de Pont-à-Mousson,57950,MONTIGNY LES METZ,"49,095911","6,139739"
GRE0163002316,HAYANGE,57530,ALE,44,GRAND EST,NULL,NULL,13 RUE DE LA MARNE,57700,HAYANGE,"49,33211","6,061766"
GRE0164005748,APE HAGONDANGE,57553,ALE,44,GRAND EST,NULL,NULL,15 RUE DES ARTISANS,57300,HAGONDANGE,"49,243059","6,165528"
GRE0130005597,Direction Territoriale de Moselle,57561,DDA,44,GRAND EST,DT57 et Plateforme de Production,NULL,47 rue Haute Seille,57045,METZ,"49,114462","6,17209"
BFC0005005891,NEVERS,58006,ALE,27,BOURGOGNE-FRANCHE-COMTE,NULL,Ancienne caserne pittié,5 B rue du 13e de Ligné,58000,NEVERS,"46,99163","3,145"
BFC0027005505,COSNE COURS SUR LOIRE,58054,ALE,27,BOURGOGNE-FRANCHE-COMTE,NULL,NULL,45 B rue Général Binot,58200,COSNE COURS SUR LOIRE,"47,40134","2,92548"
BFC0023005888,DECIZE,58062,ALE,27,BOURGOGNE-FRANCHE-COMTE,NULL,NULL,121 avenue de Verdun,58300,DECIZE,"46,827807","3,48319"
HDF0027002879,LILLE FLUVIAL,59000,ALE,32,HAUTS-DE-FRANCE,NULL,NULL,43 BOULEVARD DE LA MOSELLE,59000,LILLE,"50,627281","3,031497"
HDF0062005674,Armentières,59010,ALE,32,HAUTS-DE-FRANCE,NULL,NULL,21 avenue de l'Europe,59280,ARMENTIERES,"50,689559","2,867931"
HDF0104005785,AULNOYE AYMERIES,59025,ALE,32,HAUTS-DE-FRANCE,NULL,NULL,6 rue Jean Jaurès,59620,AULNOYE AYMERIES,"50,198877","3,845289"
HDF0025005872,LILLE VAUCANSON,59030,ALE,32,HAUTS-DE-FRANCE,NULL,NULL,21 rue Vaucanson,59800,LILLE,"50,628838","3,095342"
HDF0105005865,AVESNELLES,59041,ALE,32,HAUTS-DE-FRANCE,NULL,Zone d¿activités du Château d'eau,20 Route d'Haut-Lieu,59440,AVESNELLES,"50,117803","3,946685"
HDF0064005380,BAILLEUL,59056,ALE,32,HAUTS-DE-FRANCE,NULL,NULL,656 ROUTE DE METEREN,59270,BAILLEUL,"50,738771","2,723635"
HDF0107005527,Cambrai,59064,ALE,32,HAUTS-DE-FRANCE,NULL,NULL,16 rue du Colonel Francis-Nicol,59400,CAMBRAI,"50,175115","3,24312"
HDF0109005868,CAUDRY,59080,ALE,32,HAUTS-DE-FRANCE,NULL,NULL,111 rue Gustave Delory,59540,CAUDRY,"50,115575","3,40382"
HDF0110005791,CONDE SUR L ESCAUT,59095,ALE,32,HAUTS-DE-FRANCE,NULL,NULL,Square de l'Escaut,59163,CONDE SUR L ESCAUT,"50,447471","3,591906"
HDF0111005540,Sin Le Noble,59105,ALE,32,HAUTS-DE-FRANCE,NULL,NULL,309 Avenue du Maréchal Leclerc,59450,SIN LE NOBLE,"50,360102","3,107414"
HDF0112005451,DENAIN,59113,ALE,32,HAUTS-DE-FRANCE,NULL,NULL,6 Allée du 24 juillet 1712,59220,DENAIN,"50,326835","3,400101"
HDF0011005730,Roubaix Les Près,59119,ALE,32,HAUTS-DE-FRANCE,NULL,NULL,30 boulevard de Mulhouse,59100,ROUBAIX,"50,684972","3,193441"
HDF0115005209,DOUAI GAYANT,59121,ALE,32,HAUTS-DE-FRANCE,NULL,NULL,414 RUE GABRIEL FAURE,59500,DOUAI,"50,379746","3,092504"
HDF0066006079,DUNKERQUE,59136,ALE,32,HAUTS-DE-FRANCE,NULL,NULL,2 rue des Brasseries,59140,DUNKERQUE,"51,027869","2,369253"
HDF0010002751,HEM,59140,ALE,32,HAUTS-DE-FRANCE,NULL,NULL,1 PARVIS BERTHELOT,59510,HEM,"50,665684","3,198598"
HDF0071002838,GRAVELINES,59152,ALE,32,HAUTS-DE-FRANCE,NULL,NULL,29 RUE DE DUNKERQUE,59820,GRAVELINES,"50,996014","2,153662"
HDF0041005610,Halluin,59160,ALE,32,HAUTS-DE-FRANCE,NULL,NULL,ZAC de la Viscourt,59250,HALLUIN,"50,770147","3,123827"
HDF0042002832,HAZEBROUCK CASSEL,59175,ALE,32,HAUTS-DE-FRANCE,NULL,NULL,27 RUE DU FER A CHEVAL,59190,HAZEBROUCK,"50,722627","2,549311"
HDF0092005521,Le Cateau Cambrésis,59201,ALE,32,HAUTS-DE-FRANCE,NULL,NULL,64 rue de Landrecies,59360,LE CATEAU CAMBRESIS,"50,103725","3,548148"
HDF0001005012,DR NORD PAS DE CALAIS (ELISEE A),59212,DRA,32,HAUTS-DE-FRANCE,NULL,NULL,28 RUE ELISEE RECLUS,59650,VILLENEUVE D ASCQ,"50,60698","3,13298"
HDF0093005784,LE QUESNOY,59216,ALE,32,HAUTS-DE-FRANCE,NULL,NULL,139 route de Valenciennes,59530,LE QUESNOY,"50,262573","3,632706"
HDF0045002781,LILLE REPUBLIQUE,59224,ALE,32,HAUTS-DE-FRANCE,NULL,NULL,11 RUE JEAN SANS PEUR,59800,LILLE,"50,633745","3,060629"
HDF0094005762,MAUBEUGE GARE,59232,ALE,32,HAUTS-DE-FRANCE,NULL,NULL,4 avenue de la Gare,59600,MAUBEUGE,"50,273159","3,968996"
HDF0090002905,MAUBEUGE PASTEUR,59235,ALE,32,HAUTS-DE-FRANCE,NULL,NULL,60 T BOULEVARD LOUIS PASTEUR,59600,MAUBEUGE,"50,274521","3,949599"
HDF0049002923,ROUBAIX CENTRE,59263,ALE,32,HAUTS-DE-FRANCE,NULL,NULL,74 GRANDE RUE,59100,ROUBAIX,"50,692675","3,180082"
HDF0097002936,SAINT AMAND LES EAUX,59271,ALE,32,HAUTS-DE-FRANCE,NULL,NULL,84 RUE HENRI BARBUSSE,59230,ST AMAND LES EAUX,"50,444384","3,422849"
HDF0055005508,Seclin,59286,ALE,32,HAUTS-DE-FRANCE,NULL,NULL,Avenue de la République,59113,SECLIN,"50,552995","3,037961"
HDF0098005874,SOMAIN,59304,ALE,32,HAUTS-DE-FRANCE,NULL,NULL,101 rue Pasteur,59490,SOMAIN,"50,359706","3,280909"
HDF0056005933,TOURCOING,59312,ALE,32,HAUTS-DE-FRANCE,NULL,NULL,64 avenue Alfred Lefrancois,59200,TOURCOING,"50,717602","3,172055"
HDF0099006000,VALENCIENNES,59320,ALE,32,HAUTS-DE-FRANCE,NULL,NULL,21 rue des Frères Dana,59300,VALENCIENNES,"50,367974","3,528895"
HDF0058002756,LOMME MIN,59343,ALE,32,HAUTS-DE-FRANCE,NULL,NULL,17 RUE DU CHEMIN SAINT MARTIN,59160,LOMME,"47,743922","0,557649"
HDF0059002877,HAUBOURDIN LES WEPPES,59374,ALE,32,HAUTS-DE-FRANCE,NULL,NULL,42 RUE PASTEUR,59320,HAUBOURDIN,"50,61026","2,98605"
HDF0032002874,LA MADELEINE CRYSTAL,59390,ALE,32,HAUTS-DE-FRANCE,NULL,NULL,38 ALLEE VAUBAN,59110,LA MADELEINE,"50,64572","3,07325"
HDF0033005783,LILLE GRAND SUD,59423,ALE,32,HAUTS-DE-FRANCE,NULL,NULL,1 rue Jean Walter,59000,LILLE,"50,614418","3,038757"
HDF0035005569,Wattrelos,59431,ALE,32,HAUTS-DE-FRANCE,NULL,NULL,1 allée des Fabricants,59150,WATTRELOS,"50,691989","3,23257"
HDF0036005869,GRANDE-SYNTHE,59446,ALE,32,HAUTS-DE-FRANCE,NULL,NULL,24 rue Georges Clémenceau,59760,GRANDE SYNTHE,"51,014443","2,305404"
HDF0037005878,VILLENEUVE D ASCQ,59454,ALE,32,HAUTS-DE-FRANCE,NULL,NULL,18 rue Trudaine,59650,VILLENEUVE D ASCQ,"50,616292","3,136455"
HDF0005002910,DT NORD,59470,DDA,32,HAUTS-DE-FRANCE,NULL,Résidence Clairefontaine,677 avenue de la République,59800,LILLE,"50,656066","3,087273"
HDF0040005775,CROIX,59534,ALE,32,HAUTS-DE-FRANCE,NULL,NULL,146.4 rue de la Gare,59170,CROIX,"50,67811","3,1397"
HDF0091005919,ANZIN,59756,ALE,32,HAUTS-DE-FRANCE,NULL,NULL,5 esplanade Jean Monnet,59410,ANZIN,"50,374403","3,503828"
HDF0205006085,CREIL MONTATAIRE,60005,ALE,32,HAUTS-DE-FRANCE,NULL,NULL,38 avenue Ambroise Croizat,60160,MONTATAIRE,"49,251131","2,434721"
HDF0207005304,COMPIEGNE DE LESSEPS,60006,ALE,32,HAUTS-DE-FRANCE,NULL,NULL,5 B RUE FERDINAND DE LESSEPS,60200,COMPIEGNE,"49,395318","2,784461"
HDF0223003228,BEAUVAIS DELIE,60213,ALE,32,HAUTS-DE-FRANCE,NULL,ZAC SAINT LAZARE,7 rue du Docteur Pierre Délie,60000,BEAUVAIS,"49,411181","2,111738"
HDF0209005047,BEAUVAIS MYKONOS,60215,ALE,32,HAUTS-DE-FRANCE,NULL,BATIMENT G VILLAGE MYKONOS,2 RUE DE SETUBAL,60000,BEAUVAIS,"49,439422","2,105822"
HDF0211005653,COMPIEGNE MARGNY,60221,ALE,32,HAUTS-DE-FRANCE,NULL,NULL,25 rue Pierre et Marie Curie,60280,MARGNY LES COMPIEGNE,"49,42379","2,824332"
HDF0213003240,CREIL SAINT MAXIMIN,60236,ALE,32,HAUTS-DE-FRANCE,NULL,NULL,415 RUE CLAIRE LACOMBE,60740,ST MAXIMIN,"49,238563","2,465351"
HDF0216005534,CREPY EN VALOIS,60244,ALE,32,HAUTS-DE-FRANCE,NULL,NULL,5 rue Blaise Pascal,60800,CREPY EN VALOIS,"49,226865","2,909709"
HDF0217005443,NOYON,60252,ALE,32,HAUTS-DE-FRANCE,NULL,NULL,6 Rue du Long Pont,60400,NOYON,"49,580097","2,998616"
HDF0199006088,DT OISE,60260,DDA,32,HAUTS-DE-FRANCE,NULL,NULL,Rue Norman King,60006,BEAUVAIS,"49,42603","2,123094"
HDF0218005858,CLERMONT FITZ JAMES,60275,ALE,32,HAUTS-DE-FRANCE,NULL,NULL,Rue Saint-Exupéry,60600,FITZ JAMES,"49,390225","2,431312"
HDF0219003236,CREIL NOGENT,60283,ALE,32,HAUTS-DE-FRANCE,NULL,NULL,116 AVENUE DE L EUROPE,60180,NOGENT SUR OISE,"49,272526","2,480735"
HDF0222005190,MERU,60291,ALE,32,HAUTS-DE-FRANCE,NULL,NULL,6 RUE DU 8 MAI 1945,60110,MERU,"49,231681","2,124675"
NOR0011005744,ALENCON A2S61 DT61,61016,ALE,28,NORMANDIE,NULL,NULL,2 avenue John Fitzgerald Kennedy,61000,ALENCON,"48,4151","0,093356"
NOR0014005436,FLERS,61024,ALE,28,NORMANDIE,NULL,NULL,51 rue Charles Mousset,61100,FLERS,"48,752413","-0,564472"
NOR0016005593,ARGENTAN,61032,ALE,28,NORMANDIE,NULL,NULL,7 route de Sées,61200,ARGENTAN,"48,72533","-0,0138"
NOR0017000731,L'AIGLE,61040,ALE,28,NORMANDIE,NULL,POLE ADMINISRATIF,1 PLACE DU PARC,61300,L AIGLE,"48,762404","0,632644"
NOR0018005776,MORTAGNE AU PERCHE,61055,ALE,28,NORMANDIE,NULL,NULL,ZA de Prefontaine,61400,MORTAGNE AU PERCHE,"48,50944","0,561267"
HDF0139005932,LENS GARE,62011,ALE,32,HAUTS-DE-FRANCE,NULL,NULL,48 rue Jean Letienne,62300,LENS,"50,429632","2,823223"
HDF0129005448,LONGUENESSE,62042,ALE,32,HAUTS-DE-FRANCE,NULL,NULL,21 RUE BRUEGHEL,62219,LONGUENESSE,"50,743564","2,262698"
HDF0170005863,ARRAS SYMPHORINE,62512,ALE,32,HAUTS-DE-FRANCE,NULL,NULL,2 rue de la Symphorine,62000,ARRAS,"50,302027","2,7354"
HDF0174005999,LIEVIN,62520,ALE,32,HAUTS-DE-FRANCE,NULL,NULL,207 rue Silas Goulet,62800,LIEVIN,"50,422396","2,779538"
HDF0176002901,BAPAUME,62535,ALE,32,HAUTS-DE-FRANCE,NULL,NULL,6 RUE DE DOUAI,62450,BAPAUME,"50,105113","2,851328"
HDF0141005864,BERCK,62543,ALE,32,HAUTS-DE-FRANCE,NULL,NULL,2 chemin des Pourrières,62600,BERCK,"50,4002","1,579849"
HDF0143005866,BETHUNE,62551,ALE,32,HAUTS-DE-FRANCE,NULL,NULL,230 rue de la Faïencerie,62400,BETHUNE,"50,532004","2,637742"
HDF0145005793,BOULOGNE SUR MER,62566,ALE,32,HAUTS-DE-FRANCE,NULL,NULL,135 boulevard Pierre Daunou,62200,BOULOGNE SUR MER,"50,71859","1,61113"
HDF0148002860,SAINT MARTIN LES BOULOGNE,62567,ALE,32,HAUTS-DE-FRANCE,NULL,NULL,37 rue du mont-joie,62280,ST MARTIN BOULOGNE,"50,727561","1,641358"
HDF0151005867,BRUAY LA BUISSIERE,62574,ALE,32,HAUTS-DE-FRANCE,NULL,NULL,825 rue Raoul Briquet,62700,BRUAY LA BUISSIERE,"50,475805","2,557483"
HDF0152002909,CALAIS MOLLIEN,62582,ALE,32,HAUTS-DE-FRANCE,NULL,NULL,66 RUE MOLLIEN,62100,CALAIS,"50,955447","1,863088"
HDF0153005960,CALAIS SAINT-EXUPERY,62583,ALE,32,HAUTS-DE-FRANCE,NULL,NULL,"60, Avenue Antoine de Saint-Exupéry",62100,CALAIS,"50,946364","1,89362"
HDF0158005581,Carvin,62590,ALE,32,HAUTS-DE-FRANCE,NULL,NULL,189 avenue de la République,62220,CARVIN,"50,493766","2,964802"
HDF0159005870,HENIN BEAUMONT,62623,ALE,32,HAUTS-DE-FRANCE,NULL,NULL,91 rue de la Perche,62110,HENIN BEAUMONT,"50,416392","2,947636"
HDF0161005959,MARCONNELLE,62631,ALE,32,HAUTS-DE-FRANCE,NULL,NULL,484 route de Mouriez,62140,MARCONNELLE,"50,368157","2,027478"
HDF0162005871,LENS LALOUX,62646,ALE,32,HAUTS-DE-FRANCE,NULL,NULL,20 rue Hector Laloux,62300,LENS,"50,437994","2,837406"
HDF0165005672,Lillers,62654,ALE,32,HAUTS-DE-FRANCE,NULL,NULL,1 rue de la Gare,62190,LILLERS,"50,560841","2,480037"
HDF0166005873,NOEUX LES MINES,62670,ALE,32,HAUTS-DE-FRANCE,NULL,NULL,541 rue Nationale,62290,NOEUX LES MINES,"50,464117","2,675728"
HDF0168002969,DU TERNOIS,62693,ALE,32,HAUTS-DE-FRANCE,NULL,NULL,RUE DE CANTERAINE,62130,ST POL SUR TERNOISE,"50,377932","2,332955"
HDF0122005845,DR NORD PAS DE CALAIS - DT (ARRAS ),62750,DDA,32,HAUTS-DE-FRANCE,NULL,NULL,"2 Bis, rue de la Symphorine",62000,ARRAS,"50,302027","2,7354"
ARA0018005437,CLERMONT NORD,63000,ALE,84,AUVERGNE-RHONE-ALPES,NULL,NULL,68 boulevard Léon Jouhaux,63100,CLERMONT FERRAND,"45,797681","3,115459"
ARA0014000009,CLERMONT OUEST,63019,ALE,84,AUVERGNE-RHONE-ALPES,NULL,NULL,132 boulevard Lavoisier,63000,CLERMONT FERRAND,"45,777206","3,082518"
ARA0021005745,THIERS,63021,ALE,84,AUVERGNE-RHONE-ALPES,NULL,NULL,20 rue des Docteurs Dumas,63300,THIERS,"45,857941","3,546346"
ARA0024005914,ISSOIRE,63044,ALE,84,AUVERGNE-RHONE-ALPES,NULL,NULL,47 rue du 8 Mai,63500,ISSOIRE,"45,544275","3,242538"
ARA0026005634,RIOM,63052,ALE,84,AUVERGNE-RHONE-ALPES,NULL,NULL,24 avenue George Gershwin,63200,RIOM,"45,893248","3,138548"
ARA1364000068,DR ARA CLERMONT,63074,DDA,84,AUVERGNE-RHONE-ALPES,NULL,NULL,18 rue du Pré la Reine,63100,CLERMONT FERRAND,"45,78055","3,111524"
ARA0029005511,CHAMALIERES,63075,ALE,84,AUVERGNE-RHONE-ALPES,NULL,NULL,78 Avenue des Thermes,63407,CHAMALIERES,"45,76906","3,05901"
ARA0030000027,CLERMONT EST,63083,ALE,84,AUVERGNE-RHONE-ALPES,NULL,NULL,20 RUE DU PRE LA REINE,63100,CLERMONT FERRAND,"45,781585","3,110944"
ARA0032005170,COURNON,63101,ALE,84,AUVERGNE-RHONE-ALPES,NULL,ZAC DES TOULAITS,12 avenue Jules Ferry,63800,COURNON D AUVERGNE,"45,743634","3,210279"
NAQ0049005403,APE LONS,64006,ALE,75,NOUVELLE-AQUITAINE,NULL,Bâtiment CASSIOPEE 1,2 rue Pierre Gilles de Gennes,64140,LONS,"43,302","-0,408927"
NAQ0051000595,PAU LYAUTEY,64015,ALE,75,NOUVELLE-AQUITAINE,NULL,NULL,6 rue Paul et Henri Courteault,64000,PAU,"43,310619","-0,359697"
NAQ0045000428,APE BOUCAU,64016,ALE,75,NOUVELLE-AQUITAINE,NULL,Route départementale 810,Impasse des Lilas,64340,BOUCAU,"43,529415","-1,463287"
NAQ0052006068,APE BAYONNE,64023,ALE,75,NOUVELLE-AQUITAINE,NULL,NULL,42 boulevard du Bab,64100,BAYONNE,"43,496252","-1,484675"
NAQ0054005792,APE OLORON,64031,ALE,75,NOUVELLE-AQUITAINE,NULL,NULL,7 rue du Gouverneur Général Bordes,64400,OLORON STE MARIE,"43,194711","-0,608923"
NAQ0055006138,APE MOURENX ANGOT,64046,ALE,75,NOUVELLE-AQUITAINE,NULL,NULL,AVENUE PIERRE ANGOT,64150,MOURENX,"43,369339","-0,625206"
NAQ0056000446,APE SAINT JEAN DE LUZ,64054,ALE,75,NOUVELLE-AQUITAINE,NULL,NULL,11 rue de la ferme Dai Baita,64500,ST JEAN DE LUZ,"43,397585","-1,641442"
NAQ0057000525,APE BIARRITZ MARINE,64062,ALE,75,NOUVELLE-AQUITAINE,NULL,NULL,40 allées Marines,64100,BAYONNE,"43,497912","-1,487467"
NAQ0058005753,APE PAU Jean ZAY,64070,ALE,75,NOUVELLE-AQUITAINE,NULL,NULL,25 rue Jean Zay,64000,PAU,"43,320021","-0,326342"
NAQ0038005998,DT64 + PRGA,64093,DDA,75,NOUVELLE-AQUITAINE,Pau verdun,NULL,1 rue Lapouble,64000,PAU,"43,299817","-0,374172"
OCC0063002607,TARBES PYRENEES,65003,ALE,76,OCCITANIE,NULL,NULL,24 avenue Aristide Briand,65000,TARBES,"43,22586","0,06603"
OCC0066006074,LANNEMEZAN,65010,ALE,76,OCCITANIE,NULL,NULL,Place du 14 Juillet,65300,LANNEMEZAN,"43,123421","0,383672"
OCC1035005565,TARBES LES FORGES,65020,DDA,76,OCCITANIE,NULL,NULL,8 Avenue des Tilleuls,65000,TARBES,"43,244862","0,078586"
OCC0067005041,LOURDES,65622,ALE,76,OCCITANIE,NULL,NULL,22 AVENUE DU MARECHAL JOFFRE,65100,LOURDES,"43,094974","-0,04375"
OCC0068005396,TARBES ARSENAL,65630,ALE,76,OCCITANIE,NULL,NULL,RUE DE LA CARTOUCHERIE,65000,TARBES,"43,244507","0,079127"
OCC0132005712,Perpignan Saint Vicens,66001,ALE,76,OCCITANIE,NULL,NULL,Chemin de Saint-Gauderique,66330,CABESTANY,"42,68062","2,936711"
OCC0126005320,DT PYRENEES ORIENTALES,66004,DDA,76,OCCITANIE,NULL,Immeuble CAMCON,4 avenue Ambroise Croizat,66330,CABESTANY,"42,69295","2,93124"
OCC0128005102,APE PERPIGNAN POLYGONE,66010,ALE,76,OCCITANIE,NULL,NULL,331 rue Alphonse Beau de Rochas,66000,PERPIGNAN,"42,731916","2,897767"
OCC0140005713,Perpignan Saint Assiscle,66704,ALE,76,OCCITANIE,NULL,NULL,Rue la Vigneronne,66000,PERPIGNAN,"42,689756","2,870649"
OCC0133005395,PE PRADES,66712,ALE,76,OCCITANIE,NULL,NULL,AVENUE DE LA GARE,66500,PRADES,"42,617006","2,428488"
OCC0134006003,APE CERET,66720,ALE,76,OCCITANIE,NULL,NULL,6 rue du Barbet,66400,CERET,"42,485834","2,74785"
OCC0135005137,PE ARGELES,66751,ALE,76,OCCITANIE,NULL,LOTISSEMENT DE L OLIVERAIE,AVENUE DE MONTGAT,66700,ARGELES SUR MER,"42,551241","3,010423"
GRE0178005398,APE STRASBOURG PONT MATTHIS,67012,ALE,44,GRAND EST,NULL,NULL,2 RUE GUSTAVE ADOLPHE HIRN,67000,STRASBOURG,"48,577984","7,7345"
GRE0177006081,Strasbourg DANUBE,67013,ALE,44,GRAND EST,NULL,NULL,31 avenue du Rhin,67100,STRASBOURG,"48,571875","7,769461"
GRE0167000264,STRASBOURG DT67,67014,DDA,44,GRAND EST,NULL,NULL,24 avenue François Mitterrand,67200,STRASBOURG,"48,584614","7,693382"
GRE0001005148,DR ALSACE LAWN,67085,DRA,44,GRAND EST,NULL,NULL,27 RUE JEAN WENGER VALENTIN,67000,STRASBOURG,"48,59967","7,758557"
GRE1096000315,STRASBOURG SEYBOTH,67101,ALE,44,GRAND EST,NULL,NULL,8 rue Adolphe Seyboth,67000,STRASBOURG,"48,581818","7,739202"
GRE0181006049,Lingolsheim,67110,ALE,44,GRAND EST,NULL,Bâtiment 8,14 allée des Foulons,67380,LINGOLSHEIM,"48,557141","7,694412"
GRE0185006062,HAGUENAU,67125,ALE,44,GRAND EST,NULL,Bâtiment 4,33 Rue de la Redoute,67500,HAGUENAU,"48,81027","7,78438"
GRE0187005466,Molsheim,67133,ALE,44,GRAND EST,NULL,NULL,16 B rue Gaston Romazzotti,67120,MOLSHEIM,"48,532571","7,511"
GRE0189000237,SAVERNE,67141,ALE,44,GRAND EST,NULL,NULL,16 rue du Zornhoff,67700,SAVERNE,"48,744531","7,369189"
GRE0190005906,SELESTAT,67156,ALE,44,GRAND EST,NULL,NULL,14 rue de la Manufacture,67600,SELESTAT,"48,262959","7,444226"
GRE0192005987,WISSEMBOURG,67164,ALE,44,GRAND EST,NULL,NULL,2 rue Marie Gross Herrel,67160,WISSEMBOURG,"49,029455","7,962787"
GRE0193006016,Schiltigheim Berne,67180,ALE,44,GRAND EST,NULL,NULL,2 rue de Berne,67300,SCHILTIGHEIM,"48,612064","7,71758"
GRE0194005322,STRASBOURG MEINAU,67195,ALE,44,GRAND EST,NULL,NULL,10 RUE DU MARECHAL LEFEBVRE,67100,STRASBOURG,"48,559669","7,745964"
GRE0196005093,STRASBOURG HAUTEPIERRE,67221,ALE,44,GRAND EST,NULL,NULL,9 RUE ALFRED DE VIGNY,67200,STRASBOURG,"48,593318","7,711974"
GRE0210006014,COLMAR Europe,68006,ALE,44,GRAND EST,NULL,NULL,10 rue d'amsterdam,68000,COLMAR,"48,077301","7,326695"
GRE0206005751,APE MULHOUSE VERRIER,68014,ALE,44,GRAND EST,NULL,NULL,4 rue des Verriers,68200,MULHOUSE,"47,750282","7,30279"
GRE0205000289,MULHOUSE DROUOT,68024,ALE,44,GRAND EST,NULL,NULL,40 RUE 57E REGIMENT DE TRANSMISSIONS,68100,MULHOUSE,"47,760823","7,35834"
GRE0220005265,COLMAR LACARRE,68215,ALE,44,GRAND EST,NULL,NULL,45 RUE DE LA FECHT,68000,COLMAR,"48,08693","7,355614"
GRE0225000282,ALTKIRCH,68223,ALE,44,GRAND EST,NULL,NULL,39 AV DU 8E RGT DE HUSSARDS,68130,ALTKIRCH,"47,626027","7,226144"
GRE0211005386,APE GUEBWILLER,68231,ALE,44,GRAND EST,NULL,NULL,170 RUE DE LA REPUBLIQUE,68500,GUEBWILLER,"47,913698","7,205588"
GRE0212005752,MULHOUSE PORTE DE BALE,68246,ALE,44,GRAND EST,NULL,NULL,8 rue Zuber,68100,MULHOUSE,"47,745704","7,345128"
GRE0213005360,APE SAINT LOUIS,68254,ALE,44,GRAND EST,NULL,NULL,123 RUE DE MULHOUSE,68300,SAINT LOUIS,"47,597051","7,552749"
GRE0214005966,APE THANN,68270,ALE,44,GRAND EST,NULL,NULL,17A faubourg des Vosges,68800,THANN,"47,814335","7,09094"
GRE0215006078,MULHOUSE DOLLER,68303,ALE,44,GRAND EST,NULL,NULL,5 rue de Quimper,68200,MULHOUSE,"47,765604","7,328845"
GRE0198000317,DT HAUT RHIN,68311,DDA,44,GRAND EST,NULL,NULL,2 RUE FREDO KRUMNOV,68200,MULHOUSE,"47,746492","7,29823"
ARA0138006130,ST FONS,69003,ALE,84,AUVERGNE-RHONE-ALPES,NULL,NULL,61 rue Mathieu Dussurgey,69190,ST FONS,"45,712342","4,861911"
ARA0136006043,VILLEURBANNE,69014,ALE,84,AUVERGNE-RHONE-ALPES,NULL,NULL,41 rue Colin,69100,VILLEURBANNE,"45,773258","4,874242"
ARA0135005894,BELLEVILLE,69021,ALE,84,AUVERGNE-RHONE-ALPES,NULL,NULL,Rue du Bois BARON,69220,BELLEVILLE,"46,10509","4,731805"
ARA0134004001,LYON CROIX ROUSSE,69027,ALE,84,AUVERGNE-RHONE-ALPES,NULL,NULL,49 RUE DE CUIRE,69004,LYON,"45,778788","4,8295"
ARA0133003980,NEUVILLE,69040,ALE,84,AUVERGNE-RHONE-ALPES,NULL,NULL,4 AVENUE CARNOT,69250,NEUVILLE SUR SAONE,"45,885386","4,832759"
ARA0111005594,LYON ALBERT THOMAS,69050,DDA,84,AUVERGNE-RHONE-ALPES,NULL,CAT SUD,68 cours Albert Thomas,69008,LYON,"45,74652","4,867972"
ARA0152005085,VILLEFRANCHE CAMUS,69065,ALE,84,AUVERGNE-RHONE-ALPES,NULL,NULL,588 BOULEVARD ALBERT CAMUS,69400,VILLEFRANCHE SUR SAONE,"45,979837","4,727245"
ARA0154004087,TARARE ROSSET,69073,ALE,84,AUVERGNE-RHONE-ALPES,NULL,NULL,9 RUE ROSSET,69170,TARARE,"45,8944","4,435528"
ARA0157005425,GIVORS,69096,ALE,84,AUVERGNE-RHONE-ALPES,NULL,NULL,18 Rue Jacques Prevert,69700,GIVORS,"45,58368","4,76957"
ARA0158006040,RILLIEUX LA PAPE,69106,ALE,84,AUVERGNE-RHONE-ALPES,NULL,NULL,109 rue des Mercières,69140,RILLIEUX LA PAPE,"45,815128","4,884132"
ARA0159005188,CALUIRE PETITES BROSSES,69109,ALE,84,AUVERGNE-RHONE-ALPES,NULL,NULL,9 CHEMIN DES PETITES BROSSES,69300,CALUIRE ET CUIRE,"45,796574","4,854505"
ARA0160006054,SAINT PRIEST,69114,ALE,84,AUVERGNE-RHONE-ALPES,NULL,NULL,100 rue Aristide Briand,69800,ST PRIEST,"45,697006","4,925751"
ARA0161005850,VAULX EN VELIN,69122,ALE,84,AUVERGNE-RHONE-ALPES,NULL,NULL,1 bis Avenue Salvador ALLENDE,69120,VAULX EN VELIN,"45,781028","4,920367"
ARA0162003928,VENISSIEUX REPUBLIQUE,69130,ALE,84,AUVERGNE-RHONE-ALPES,NULL,NULL,27 AVENUE DE LA REPUBLIQUE,69200,VENISSIEUX,"45,707595","4,868148"
ARA0163005896,OULLINS,69153,ALE,84,AUVERGNE-RHONE-ALPES,NULL,NULL,18 Grande rue,69600,OULLINS,"45,720005","4,810667"
ARA0164003892,MEYZIEU REPUBLIQUE,69176,ALE,84,AUVERGNE-RHONE-ALPES,NULL,NULL,20 RUE DE LA REPUBLIQUE,69330,MEYZIEU,"45,766753","4,996607"
ARA0142003939,TASSIN,69184,ALE,84,AUVERGNE-RHONE-ALPES,NULL,NULL,3 AVENUE GENERAL BROSSET,69160,TASSIN LA DEMI LUNE,"45,757826","4,776426"
ARA0001005308,DR ARA LYON,69188,DRA,84,AUVERGNE-RHONE-ALPES,NULL,NULL,13 rue Crepet.,69007,LYON,"45,739765","4,8336"
ARA0143005267,LYON CONFLUENCE,69225,ALE,84,AUVERGNE-RHONE-ALPES,NULL,IMMEUBLE LE MONOLITHE,59 RUE DENUZIERE,69002,LYON,"45,743015","4,818339"
ARA0144003937,LYON VAISE MASSET,69233,ALE,84,AUVERGNE-RHONE-ALPES,NULL,NULL,29 AVENUE JOANNES MASSET,69009,LYON,"45,768773","4,80112"
ARA0145006034,LYON PART-DIEU,69241,ALE,84,AUVERGNE-RHONE-ALPES,NULL,NULL,26 rue Général Mouton Duvernet,69003,LYON,"45,756304","4,861401"
ARA0147004036,LYON BOLLIER,69256,ALE,84,AUVERGNE-RHONE-ALPES,NULL,NULL,63 RUE ANDRE BOLLIER,69007,LYON,"45,734569","4,831701"
ARA0148005666,BRON - MAI 1945,69272,ALE,84,AUVERGNE-RHONE-ALPES,NULL,NULL,3 AVENUE DU 08 MAI 1945,69500,BRON,"45,727417","4,915572"
ARA0150005594,LYON ALBERT THOMAS,69313,ALE,84,AUVERGNE-RHONE-ALPES,NULL,CAT SUD,68 cours Albert Thomas,69008,LYON,"45,74652","4,867972"
BFC0071006136,DT 39 70 DEC 2018,70007,DDA,27,BOURGOGNE-FRANCHE-COMTE,NULL,NULL,12 avenue Aristide Briand,39100,DOLE,"47,09461","5,49115"
BFC0084005355,VESOUL,70015,ALE,27,BOURGOGNE-FRANCHE-COMTE,NULL,NULL,4 RUE DU DOCTEUR JEAN GIRARD,70000,VESOUL,"47,623496","6,155884"
BFC0086001265,ARC LES GRAY,70046,ALE,27,BOURGOGNE-FRANCHE-COMTE,NULL,NULL,1 AVENUE DES PARCS,70100,ARC LES GRAY,"47,453462","5,588315"
BFC0080006020,LURE,70062,ALE,27,BOURGOGNE-FRANCHE-COMTE,NULL,NULL,32 rue René Dumont,70200,LURE,"47,691267","6,500524"
BFC0083005075,LUXEUIL,70070,ALE,27,BOURGOGNE-FRANCHE-COMTE,NULL,ZAC DES 7 CHEVAUX,1 rue Bourgeline,70300,LUXEUIL LES BAINS,"47,81773","6,380245"
BFC0037005886,CHALON NORD,71001,ALE,27,BOURGOGNE-FRANCHE-COMTE,NULL,NULL,19 avenue John Fitzgerald Kennedy,71100,CHALON SUR SAONE,"46,803484","4,860348"
BFC0028000742,DT SAONE ET LOIRE,71002,DDA,27,BOURGOGNE-FRANCHE-COMTE,NULL,CLOS DE LA BIGEONNIERE,1 COURS MOREAU,71000,MACON,"46,309987","4,834608"
BFC0038000748,MACON,71010,ALE,27,BOURGOGNE-FRANCHE-COMTE,NULL,NULL,1000 AV MAL D LATTRE DE TASSIGNY,71000,MACON,"46,310578","4,837825"
BFC0039006075,CHALON CENTRE,71041,ALE,27,BOURGOGNE-FRANCHE-COMTE,NULL,NULL,27-29 avenue Georges Pompidou,71100,CHALON SUR SAONE,"46,780138","4,844987"
BFC0043000786,AUTUN,71056,ALE,27,BOURGOGNE-FRANCHE-COMTE,NULL,MAISON DE LA FORMATION,RUE EUGENE CHEVALIER,71400,AUTUN,"46,95867","4,2996"
BFC0044005766,LE CREUSOT,71064,ALE,27,BOURGOGNE-FRANCHE-COMTE,NULL,NULL,30B rue de Chanzy,71200,LE CREUSOT,"46,794313","4,443753"
BFC0046005808,MONTCEAU LES MINES,71072,ALE,27,BOURGOGNE-FRANCHE-COMTE,NULL,NULL,5 rue saint-eloi,71300,MONTCEAU LES MINES,"46,674658","4,359156"
BFC0047005609,DIGOIN,71080,ALE,27,BOURGOGNE-FRANCHE-COMTE,NULL,zone ligerval,1 rue des charmes,71160,DIGOIN,"46,47787","4,002346"
BFC0048000766,LOUHANS,71095,ALE,27,BOURGOGNE-FRANCHE-COMTE,NULL,NULL,4 PROMENADE DES CORDELIERS,71500,LOUHANS,"46,62685","5,226629"
PDL0037006047,Montval sur Loir,72005,ALE,52,PAYS DE LA LOIRE,MONTVAL,Chat DU LOIR 19 rue du mont sur loir,ZI de Mont sur Loir,72500,MONTVAL SUR LOIR,"47,686584","0,428923"
PDL0041005547,LA FLECHE,72020,ALE,52,PAYS DE LA LOIRE,NULL,NULL,3 rue Irène Joliot Curie,72200,LA FLECHE,"47,706743","-0,097632"
PDL0031005983,Le Mans Ouest,72022,ALE,52,PAYS DE LA LOIRE,NULL,NULL,2 avenue Georges Auric,72000,LE MANS,"48,015516","0,151963"
PDL0042005861,La Ferté Bernard,72035,ALE,52,PAYS DE LA LOIRE,NULL,NULL,57 avenue du Général De Gaulle,72400,LA FERTE BERNARD,"48,17794","0,653482"
PDL0043005789,Sablé sur Sarthe,72043,ALE,52,PAYS DE LA LOIRE,NULL,NULL,7 rue de La Martinière,72300,SABLE SUR SARTHE,"47,839459","-0,312381"
PDL0044005788,Mamers,72051,ALE,52,PAYS DE LA LOIRE,NULL,NULL,102 B rue Ledru Rollin,72600,MAMERS,"48,346842","0,37092"
PDL0038005773,Le Mans Sablons,72115,ALE,52,PAYS DE LA LOIRE,NULL,NULL,"20, rue de corse",72100,LE MANS,"47,996219","0,233632"
PDL0039005678,Le Mans Gare,72123,ALE,52,PAYS DE LA LOIRE,NULL,Zone Novaxud,18-20 Rue Pierre Félix Delarue,72100,LE MANS,"47,994421","0,186444"
PDL0023005678,Le Mans Gare,72203,DDA,52,PAYS DE LA LOIRE,NULL,Zone Novaxud,18-20 Rue Pierre Félix Delarue,72100,LE MANS,"47,994421","0,186444"
ARA0203003854,MONTMELIAN,73000,ALE,84,AUVERGNE-RHONE-ALPES,NULL,NULL,363 AVENUE DE LA GARE,73800,MONTMELIAN,"45,501829","6,050655"
ARA0209006069,MOUTIERS,73002,ALE,84,AUVERGNE-RHONE-ALPES,NULL,NULL,11 Rue des Casernes,73600,MOUTIERS,"45,486067","6,533558"
ARA0201004079,CHAMBERY MUDRY,73011,ALE,84,AUVERGNE-RHONE-ALPES,NULL,NULL,85 rue Auguste Mudry,73000,CHAMBERY,"45,5689","5,933652"
ARA0204006056,CHAMBERY GRAND VERGER,73014,ALE,84,AUVERGNE-RHONE-ALPES,NULL,ZAC GRAND VERGER,272 Rue François Guise,73000,CHAMBERY,"45,575923","5,908583"
ARA0207005541,AIX LES BAINS WILSON,73022,ALE,84,AUVERGNE-RHONE-ALPES,NULL,NULL,128 boulevard du Président Wilson,73100,AIX LES BAINS,"45,688978","5,909681"
ARA0208005903,ALBERTVILLE,73030,ALE,84,AUVERGNE-RHONE-ALPES,NULL,NULL,11 avenue des Chasseurs Alpins,73200,ALBERTVILLE,"45,67021","6,39131"
ARA1362005312,LE BOURGET DU LAC,73055,DDA,84,AUVERGNE-RHONE-ALPES,NULL,SAVOIE TECHNOLAC PARC OURAGAN BAT B,20 RUE LAC MAJEUR,73370,LE BOURGET DU LAC,"45,643704","5,868401"
ARA0173003800,MEYTHET,74013,ALE,84,AUVERGNE-RHONE-ALPES,NULL,NULL,1 RUE DE L EURO,74960,MEYTHET,"45,916082","6,093319"
ARA0176003829,ANNECY GENEVE 127,74016,ALE,84,AUVERGNE-RHONE-ALPES,NULL,NULL,127 AVENUE DE GENEVE,74000,ANNECY,"45,923614","6,123742"
ARA0170003904,VILLE LA GRAND,74021,ALE,84,AUVERGNE-RHONE-ALPES,NULL,RESIDENCE ARC EN CIEL,21 RUE DES TOURNELLES,74100,VILLE LA GRAND,"46,197685","6,243195"
ARA0181003899,ANNEMASSE VERDUN,74024,ALE,84,AUVERGNE-RHONE-ALPES,NULL,NULL,21 AVENUE DE VERDUN,74100,ANNEMASSE,"46,18622","6,24333"
ARA0184003819,CLUSES CLEMENCEAU 1115,74032,ALE,84,AUVERGNE-RHONE-ALPES,NULL,NULL,1115 AVENUE GEORGES CLEMENCEAU,74300,CLUSES,"46,0706","6,566653"
ARA0185005900,THONON LES BAINS,74040,ALE,84,AUVERGNE-RHONE-ALPES,NULL,NULL,22 rue Jean Blanchard,74200,THONON LES BAINS,"46,36963","6,481874"
ARA0186003864,SALLANCHES COLONNEY,74055,ALE,84,AUVERGNE-RHONE-ALPES,NULL,NULL,170 RUE DU COLONNEY,74700,SALLANCHES,"45,9455","6,635273"
ARA0166005899,SEYNOD,74063,DDA,84,AUVERGNE-RHONE-ALPES,NULL,NULL,2 Rue du champ de la taillée,74600,SEYNOD,"45,888842","6,100223"
ARA0188005899,SEYNOD,74086,ALE,84,AUVERGNE-RHONE-ALPES,NULL,NULL,2 Rue du champ de la taillée,74600,SEYNOD,"45,888842","6,100223"
IDF0050005625,Paris 7 8 9ème Saint Petersbourg,75018,ALE,11,ILE-DE-FRANCE,NULL,NULL,34 rue de Saint Petersbourg,75008,PARIS,"48,882476","2,326325"
IDF0034001630,Plateau DR Paris,75082,DDA,11,ILE-DE-FRANCE,NULL,2eme DT75 - 5eme PTC / Salle Formation,21 23 RUE DES ARDENNES,75019,PARIS,"48,888475","2,386026"
IDF0072005798,Paris 1 2 3 et 4eme Paul Lelong,75106,ALE,11,ILE-DE-FRANCE,NULL,NULL,4 rue Paul Lelong,75002,PARIS,"48,867779","2,343255"
IDF0074005572,Paris 12ème Diderot (APE-Cadres),75202,ALE,11,ILE-DE-FRANCE,NULL,NULL,3 boulevard Diderot,75012,PARIS,"48,845457","2,368915"
IDF0018001721,Paris 11ème Beaumarchais,75210,ALE,11,ILE-DE-FRANCE,NULL,NULL,11 rue Pelee,75011,PARIS,"48,859783","2,36986"
IDF0081001761,Paris 6 et 14ème Jean Moulin,75225,ALE,11,ILE-DE-FRANCE,NULL,NULL,9 rue Friant,75014,PARIS,"48,826198","2,324702"
IDF0059005576,Paris 18ème Gennevoix,75233,ALE,11,ILE-DE-FRANCE,NULL,NULL,11 rue Maurice Genevoix,75018,PARIS,"48,894212","2,360109"
IDF0032001737,Paris 19ème Laumière,75241,ALE,11,ILE-DE-FRANCE,NULL,NULL,75 AVENUE JEAN JAURES,75019,PARIS,"48,885008","2,378089"
IDF0033005573,PARIS 19ème Armand Carrel,75264,ALE,11,ILE-DE-FRANCE,NULL,NULL,42-46 rue Armand Carrel,75019,PARIS,"48,882866","2,376476"
IDF0021005796,Paris 20ème PIAT,75463,ALE,11,ILE-DE-FRANCE,NULL,NULL,51 rue Piat,75020,PARIS,"48,872928","2,383708"
IDF0039005599,Paris 15ème Brancion (APE-AVS-Cadres),75654,ALE,11,ILE-DE-FRANCE,NULL,NULL,10 rue Brancion,75015,PARIS,"48,835715","2,305833"
IDF0016005797,Paris 20ème Vitruve,75685,ALE,11,ILE-DE-FRANCE,NULL,NULL,60 rue Vitruve,75020,PARIS,"48,859062","2,4064"
IDF0030001648,PARIS 10E VICQ D AZIR,75693,ALE,11,ILE-DE-FRANCE,NULL,NULL,26 rue Vicq d'Azir,75010,PARIS,"48,876075","2,371421"
IDF0067005037,Paris 5 et 13ème Daviel,75765,ALE,11,ILE-DE-FRANCE,NULL,NULL,23 rue Daviel,75013,PARIS,"48,828069","2,344573"
IDF0055005623,PARIS 18ème NEY (APE - PFP),75773,ALE,11,ILE-DE-FRANCE,NULL,NULL,78 boulevard Ney,75018,PARIS,"48,898552","2,353079"
IDF0041005119,Paris 16 et 17ème Cardinet,75945,ALE,11,ILE-DE-FRANCE,NULL,NULL,8 rue Bernard Buffet,75017,PARIS,"48,891864","2,316428"
IDF0003005071,DR ILE DE FRANCE PLUTON,75980,DRA,11,ILE-DE-FRANCE,NULL,IMMEUBLE PLUTON,3 RUE GALILEE,93160,NOISY LE GRAND,"48,844063","2,546758"
NOR0104006149,ROUEN BEAUVOISINE,76013,ALE,28,NORMANDIE,NULL,NULL,5/7 route de NEUFCHATEL,76000,ROUEN,"49,448937","1,099408"
NOR0106001452,LE HAVRE SOUDAY,76021,ALE,28,NORMANDIE,NULL,NULL,17 à 21 RUE PAUL SOUDAY,76600,LE HAVRE,"49,494244","0,116857"
NOR0080005633,HAVRE VILLE HAUTE,76022,ALE,28,NORMANDIE,NULL,NULL,20 & 30 rue Léon PEULEVEY,76620,LE HAVRE,"49,519628","0,116717"
NOR0108005729,LILLEBONNE,76036,ALE,28,NORMANDIE,NULL,NULL,4 rue Chico Mendes,76170,LILLEBONNE,"49,521607","0,53551"
NOR0109005934,DIEPPE,76044,ALE,28,NORMANDIE,NULL,NULL,7 rue de l'Entrepôt,76200,DIEPPE,"49,92169","1,08397"
NOR0085005929,ELBEUF,76052,ALE,28,NORMANDIE,NULL,NULL,39 rue POUSSIN,76504,ELBEUF,"49,285258","1,004724"
NOR0087005305,FECAMP,76060,ALE,28,NORMANDIE,NULL,NULL,122 AVENUE JEAN LORRAIN,76400,FECAMP,"49,761353","0,382418"
NOR0088005764,LE TREPORT,76075,ALE,28,NORMANDIE,NULL,NULL,4 ter rue de la digue,76470,LE TREPORT,"50,058424","1,386304"
NOR0089005542,FORGES-LES-EAUX,76083,ALE,28,NORMANDIE,NULL,NULL,"91, rue de NEUFCHATEL",76440,FORGES LES EAUX,"49,615955","1,539152"
NOR0090006158,ROUEN SAINT SEVER,76091,ALE,28,NORMANDIE,NULL,NULL,25-26 place Gadeau de Kerville,76100,ROUEN,"49,430526","1,07837"
NOR0092005426,YVETOT,76101,ALE,28,NORMANDIE,NULL,Zone de la Plaine,Avenue Micheline OSTERMEYER,76190,YVETOT,"49,615709","0,775352"
NOR0543005948,ROUEN LUCILINE,76112,ALE,28,NORMANDIE,NULL,NULL,4 rue Amédée Dormoy,76000,ROUEN,"49,445018","1,066131"
NOR0001005489,DIRECTION REGIONALE HAUTE NORMANDIE,76115,DRA,28,NORMANDIE,NULL,Le FLORAL,90 avenue de Caen,76100,ROUEN,"49,429595","1,074097"
NOR0093005636,MAROMME,76116,ALE,28,NORMANDIE,NULL,NULL,116 rue des Martyrs de la Résistance,76150,MAROMME,"49,481967","1,045565"
NOR0094001466,BARENTIN FO,76132,ALE,28,NORMANDIE,NULL,NULL,200 RUE DENIS PAPIN,76360,BARENTIN,"49,540385","0,958441"
NOR0095001519,HARFLEUR,76204,ALE,28,NORMANDIE,NULL,NULL,10 avenue du Clos Labedoyere,76700,HARFLEUR,"49,504217","0,195625"
NOR0096005427,LE HAVRE FERRER,76220,ALE,28,NORMANDIE,NULL,NULL,17 rue FERRER,76600,LE HAVRE,"49,488478","0,138869"
NOR0100006096,ROUEN AUBETTE,76235,ALE,28,NORMANDIE,NULL,NULL,17 rue de l'Aubette,76000,ROUEN,"49,43747","1,129972"
NOR0101001511,ROUEN ST ETIENNE DU ROUVRAY,76243,ALE,28,NORMANDIE,NULL,NULL,7 RUE ABEL GANCE,76800,ST ETIENNE DU ROUVRAY,"49,398304","1,072215"
NOR0103005778,ROUEN QUEVILLY,76251,ALE,28,NORMANDIE,NULL,NULL,5 rue Fleury,76120,LE GRAND QUEVILLY,"49,41289","1,053128"
NOR0065006018,DT ROUEN DIEPPE,76266,DDA,28,NORMANDIE,Etage 1er,Immeuble Le Vauban,4 passage de la Luciline,76000,ROUEN,"49,445734","1,068291"
IDF0330001739,La Ferté-Sous-Jouarre,77009,ALE,11,ILE-DE-FRANCE,NULL,NULL,8 RUE DE LA GARE,77260,LA FERTE SOUS JOUARRE,"48,950311","3,124439"
IDF0349001649,Lagny-sur-Marne,77015,ALE,11,ILE-DE-FRANCE,NULL,TOUR ORIX,26 30 RUE DU PONT HARDY,77400,LAGNY SUR MARNE,"48,876875","2,692272"
IDF0331005743,Coulommiers,77023,ALE,11,ILE-DE-FRANCE,NULL,NULL,14 rue des Longs Sillons,77120,COULOMMIERS,"48,804571","3,101109"
IDF0332005067,Meaux,77031,ALE,11,ILE-DE-FRANCE,NULL,NULL,12 boulevard Jean Rose,77100,MEAUX,"48,960698","2,88204"
IDF0334006044,Dammarie les Lys,77046,ALE,11,ILE-DE-FRANCE,NULL,NULL,187 rue Gaston Pluchon,77190,DAMMARIE LES LYS,"48,51968","2,633892"
IDF0335005944,Montereau-Fault-Yonne,77054,ALE,11,ILE-DE-FRANCE,NULL,NULL,2/8 rue Edmond Fortin,77130,MONTEREAU FAULT YONNE,"48,384812","2,956876"
IDF0336001670,Nemours,77062,ALE,11,ILE-DE-FRANCE,NULL,NULL,30 avenue de Lyon,77140,NEMOURS,"48,263068","2,699788"
IDF0337001542,Provins,77070,ALE,11,ILE-DE-FRANCE,NULL,NULL,10 rue de la Foire aux Chevaux,77160,PROVINS,"48,560335","3,306422"
IDF0346001787,Brie-Comte-Robert,77085,ALE,11,ILE-DE-FRANCE,NULL,NULL,RUE DU 19 MARS 1962,77170,BRIE COMTE ROBERT,"48,68549","2,608642"
IDF0338001559,Torcy,77093,ALE,11,ILE-DE-FRANCE,NULL,NULL,11 13 PROMENADE DU BELVEDERE,77200,TORCY,"48,841031","2,653293"
IDF0339001755,Avon,77103,ALE,11,ILE-DE-FRANCE,NULL,NULL,9 avenue du Général De Gaulle,77210,AVON,"48,418127","2,72957"
IDF0341005951,Mitry Mory,77111,ALE,11,ILE-DE-FRANCE,NULL,NULL,3 rue Paul Gauguin,77290,MITRY MORY,"48,974144","2,642808"
IDF0344001572,Chessy Val d'Europe,77126,ALE,11,ILE-DE-FRANCE,NULL,NULL,27 PLACE D ARIANE,77700,CHESSY,"48,856807","2,772824"
IDF0345005546,Savigny-le-Temple,77134,ALE,11,ILE-DE-FRANCE,NULL,NULL,25 AVENUE JULES VALLES,77176,SAVIGNY LE TEMPLE,"48,594329","2,58132"
IDF0347005433,Pontault-Combault,77142,ALE,11,ILE-DE-FRANCE,ZI DES 50 ARPENTS,NULL,50 RUE DES AULNES,77340,PONTAULT COMBAULT,"48,800849","2,606685"
IDF0348001666,Chelles,77150,ALE,11,ILE-DE-FRANCE,NULL,NULL,3 RUE DU REVEREND PERE CHAILLET,77500,CHELLES,"48,872905","2,589817"
IDF0307001684,Plateau DR Lieusaint,77206,DDA,11,ILE-DE-FRANCE,NULL,IMMEUBLE LE TRAIT D UNION,4 ALLEE DE LA MIXITE,77127,LIEUSAINT,"48,615522","2,542184"
IDF0371001579,Plaisir,78000,ALE,11,ILE-DE-FRANCE,NULL,NULL,14 16 BOULEVARD LEON BLUM,78370,PLAISIR,"48,818753","1,962269"
IDF0372005758,Mantes-la-Jolie,78010,ALE,11,ILE-DE-FRANCE,NULL,Immeuble Origami,2 B boulevard Calmette,78200,MANTES LA JOLIE,"48,984447","1,713918"
IDF0373005755,Les Mureaux,78025,ALE,11,ILE-DE-FRANCE,NULL,NULL,"160, avenue Paul Raoult",78130,LES MUREAUX,"48,982963","1,911874"
IDF0374005515,Saint-Germain-en-Laye,78033,ALE,11,ILE-DE-FRANCE,NULL,NULL,101 rue Pereire,78100,ST GERMAIN EN LAYE,"48,900874","2,064885"
IDF0368001641,Versailles,78046,ALE,11,ILE-DE-FRANCE,NULL,NULL,24 rue de Vergennes,78000,VERSAILLES,"48,802204","2,129677"
IDF0378001616,Poissy (APE-A2S),78056,ALE,11,ILE-DE-FRANCE,NULL,NULL,2 PLACE GEORGES POMPIDOU,78300,POISSY,"48,932539","2,041148"
IDF0379005455,Rambouillet,78064,ALE,11,ILE-DE-FRANCE,NULL,NULL,1 rue Claude Chappe,78120,RAMBOUILLET,"48,651943","1,839958"
IDF0380001569,Trappes (APE-A2S),78072,ALE,11,ILE-DE-FRANCE,NULL,NULL,130 AVENUE DES BOULEAUX,78190,TRAPPES,"48,770115","2,008309"
IDF0381001651,Sartrouville,78080,ALE,11,ILE-DE-FRANCE,NULL,NULL,27 rue Lamartine,78500,SARTROUVILLE,"48,937046","2,160102"
IDF0382001537,Conflans-Sainte-Honorine,78095,ALE,11,ILE-DE-FRANCE,NULL,NULL,1 RUE DE POLOGNE,78700,CONFLANS STE HONORINE,"48,999459","2,105546"
IDF0383005400,Guyancourt (APE-Cadres),78121,ALE,11,ILE-DE-FRANCE,NULL,NULL,3 AVENUE DU 8 MAI 1945,78280,GUYANCOURT,"48,785455","2,054704"
IDF0351005400,Guyancourt (APE-Cadres),78201,DDA,11,ILE-DE-FRANCE,NULL,NULL,3 AVENUE DU 8 MAI 1945,78280,GUYANCOURT,"48,785455","2,054704"
NAQ0175005031,DIRECTION TERRITORIALE DEUX SEVRES,79004,DDA,75,NOUVELLE-AQUITAINE,NULL,NULL,36 rue Thomas Portau,79000,NIORT,"46,305987","-0,484803"
NAQ0183005476,PE NIORT TREVINS,79006,ALE,75,NOUVELLE-AQUITAINE,NULL,NULL,275 Rue du Stade,79180,CHAURAY,"46,346764","-0,37556"
NAQ0189005520,NIORT GARENNE,79012,ALE,75,NOUVELLE-AQUITAINE,NULL,NULL,36 rue Thomas Portau,79000,NIORT,"46,305987","-0,484803"
NAQ0190005654,Pole Emploi Bressuire,79020,ALE,75,NOUVELLE-AQUITAINE,NULL,NULL,89 B boulevard de Thouars,79300,BRESSUIRE,"46,84965","-0,46894"
NAQ0192000158,PARTHENAY,79035,ALE,75,NOUVELLE-AQUITAINE,NULL,NULL,13 BOULEVARD EDGAR QUINET,79200,PARTHENAY,"46,64833","-0,23889"
NAQ0193006083,THOUARS,79043,ALE,75,NOUVELLE-AQUITAINE,NULL,NULL,8 rue Gambetta,79100,THOUARS,"46,980186","-0,210517"
NAQ0188005982,MELLE,79051,ALE,75,NOUVELLE-AQUITAINE,NULL,Zone du Pinier,3 rue des Petits Champs,79500,ST LEGER DE LA MARTINIERE,"46,225673","-0,131902"
HDF0185003225,AMIENS DURY,80011,ALE,32,HAUTS-DE-FRANCE,NULL,NULL,1 PLACE DES MAGNOLIAS,80000,AMIENS,"49,89389","2,294227"
HDF1058005703,DT AISNE rue de Gaulle,80073,DDA,32,HAUTS-DE-FRANCE,NULL,NULL,11 avenue Charles De Gaulle,02000,LAON,"49,570177","3,636011"
HDF0187005686,ABBEVILLE,80414,ALE,32,HAUTS-DE-FRANCE,NULL,NULL,11 rue Paul Vimereu,80100,ABBEVILLE,"50,10038","1,86659"
HDF0188005117,AMIENS MILLEVOYE,80430,ALE,32,HAUTS-DE-FRANCE,NULL,NULL,21 RUE MILLEVOYE,80000,AMIENS,"49,886866","2,297128"
HDF0191003217,DOULLENS,80445,ALE,32,HAUTS-DE-FRANCE,NULL,NULL,IMPASSE TIVOLI,80600,DOULLENS,"50,159783","2,347199"
HDF0192003223,FRIVILLE ESCARBOTIN,80453,ALE,32,HAUTS-DE-FRANCE,NULL,NULL,191 B RUE HENRI BARBUSSE,80130,FRIVILLE ESCARBOTIN,"50,082033","1,543485"
HDF0193005381,HAM,80461,ALE,32,HAUTS-DE-FRANCE,NULL,"""LIEU DIT """"CHEMIN D'ESTOUILLY""""""",RUE BEAUDELAIRE,80400,HAM,"49,757857","3,073615"
HDF0194005251,PERONNE ALBERT,80476,ALE,32,HAUTS-DE-FRANCE,NULL,NULL,4 B AVENUE DANICOURT,80200,PERONNE,"49,93269","2,94068"
HDF0196005088,AMIENS TELLIER,80492,ALE,32,HAUTS-DE-FRANCE,NULL,NULL,RUE PAUL TELLIER,80000,AMIENS,"49,891043","2,308611"
HDF0198005580,MONTDIDIER,80502,ALE,32,HAUTS-DE-FRANCE,NULL,8 rue de Marthe,ZAC de l'Épinette,80500,MONTDIDIER,"49,646751","2,58901"
OCC0003002685,DT MIDI PYRENEES EST / ALBITECH,81003,DDA,76,OCCITANIE,NULL,NULL,7 RUE GUSTAVE EIFFEL,81000,ALBI,"43,917463","2,162067"
OCC0023002583,ALBI,81711,ALE,76,OCCITANIE,NULL,NULL,17 RUE COMPAYRE,81000,ALBI,"43,927481","2,148055"
OCC0024006095,CASTRES,81734,ALE,76,OCCITANIE,NULL,NULL,68 Boulevard Pierre Mendés France,81100,CASTRES,"43,596164","2,22697"
OCC0025002705,GRAULHET,81742,ALE,76,OCCITANIE,NULL,NULL,AVENUE RHIN ET DANUBE,81300,GRAULHET,"43,760781","1,973923"
OCC0022005270,GAILLAC,81743,ALE,76,OCCITANIE,NULL,NULL,510 AVENUE FRANCOIS MITTERRAND,81600,GAILLAC,"43,906055","1,912479"
OCC0026002617,AUSSILLON MAZAMET,81750,ALE,76,OCCITANIE,NULL,NULL,28 BOULEVARD DU THORE,81200,AUSSILLON,"43,507863","2,359676"
OCC0027002724,CARMAUX,81765,ALE,76,OCCITANIE,NULL,NULL,RUE DE LA VERRERIE,81400,CARMAUX,"44,050264","2,151604"
OCC0043005525,MONTAUBAN ALBASUD,82001,ALE,76,OCCITANIE,NULL,Zone Albasud,205 Avenue de l'Europe,82000,MONTAUBAN,"43,9971","1,335377"
OCC0032006120,DT Lot - Tarn-et-Garonne,82013,DDA,76,OCCITANIE,NULL,NULL,35-37 RUE MICHELET,82000,MONTAUBAN,"44,01722","1,358632"
OCC0045005562,MONTAUBAN NORD,82816,ALE,76,OCCITANIE,NULL,NULL,124 rue de Pater,82000,MONTAUBAN,"44,031898","1,371281"
OCC0046002642,CASTELSARRASIN,82824,ALE,76,OCCITANIE,NULL,NULL,4 COTE DES CHARRETIERS,82100,CASTELSARRASIN,"44,037746","1,104698"
PAC0087005716,Six Fours APE,83000,ALE,93,PROVENCE-ALPES-COTE D'AZUR,NULL,NULL,Chemin des Négadoux,83140,SIX FOURS LES PLAGES,"43,108463","5,843169"
PAC0088006099,La Garde APE,83001,ALE,93,PROVENCE-ALPES-COTE D'AZUR,NULL,NULL,250 avenue du Reganas,83130,LA GARDE,"43,147389","6,029723"
PAC0086005926,SAINT MAXIMIN APE,83002,ALE,93,PROVENCE-ALPES-COTE D'AZUR,NULL,NULL,637 avenue Gabriel PERI,83470,ST MAXIMIN LA STE BAUME,"43,454133","5,855962"
PAC0080005555,APE LE CANNET VAR,83027,ALE,93,PROVENCE-ALPES-COTE D'AZUR,NULL,NULL,9 rue Ambroise Paré,83340,LE CANNET DES MAURES,"43,393514","6,336741"
PAC0081005255,APE SAINT RAPHAEL,83028,ALE,93,PROVENCE-ALPES-COTE D'AZUR,NULL,ACTIPARC DU CERCERON,386 VOIE DENIS PAPIN,83700,ST RAPHAEL,"43,437674","6,79109"
PAC0071005315,DT 83 CARRE VAUBAN MAYOL,83142,DDA,93,PROVENCE-ALPES-COTE D'AZUR,NULL,CARRE VAUBAN BAT 2B,40 TRAVERSE DES MINIMES,83000,TOULON,"43,119632","5,935501"
PAC0089005492,APE TOULON CARNOT,83405,ALE,93,PROVENCE-ALPES-COTE D'AZUR,NULL,Bâtiment LA CROIX ROUGE,33 rue Berrier Fontaine,83000,TOULON,"43,126968","5,924726"
PAC0091005821,La Seyne sur Mer APE,83413,ALE,93,PROVENCE-ALPES-COTE D'AZUR,NULL,NULL,124 avenue Louis Curet,83500,LA SEYNE SUR MER,"43,10268","5,881753"
PAC0092005835,HYERES APE,83421,ALE,93,PROVENCE-ALPES-COTE D'AZUR,NULL,NULL,195 Avenue Jean moulin,83400,HYERES LES PALMIERS,"43,10758","6,130203"
PAC0093003351,FREJUS APE,83436,ALE,93,PROVENCE-ALPES-COTE D'AZUR,BASE NATURE,NULL,1196 boulevard de la Mer,83600,FREJUS,"43,419207","6,745507"
PAC0094005834,Draguignan APE,83444,ALE,93,PROVENCE-ALPES-COTE D'AZUR,NULL,Quartier Chabran,Place 7ème bataillon chasseurs alpins,83300,DRAGUIGNAN,"43,541072","6,464698"
PAC0096005794,TOULON LA RODE APE & A2S VAR,83452,ALE,93,PROVENCE-ALPES-COTE D'AZUR,NULL,NULL,56 RUE VINCENT SCOTTO,83000,TOULON,"43,119031","5,942676"
PAC0098003654,BRIGNOLES,83460,ALE,93,PROVENCE-ALPES-COTE D'AZUR,NULL,NULL,269 Avenue Adjudant Chef M.L. Broquier,83170,BRIGNOLES,"43,40821","6,039107"
PAC0099005978,GOLFE ST TROPEZ,83475,ALE,93,PROVENCE-ALPES-COTE D'AZUR,NULL,NULL,98 rue Carnot,83310,COGOLIN,"43,256101","6,532265"
PAC0100005974,AVIGNON JOLY JEAN APE DT,84002,DDA,93,PROVENCE-ALPES-COTE D'AZUR,NULL,ZAC Joly jean,15 rue Madame de Sevigne,84000,AVIGNON,"43,929217","4,827556"
PAC0112005974,AVIGNON JOLY JEAN APE DT,84004,ALE,93,PROVENCE-ALPES-COTE D'AZUR,NULL,ZAC Joly jean,15 rue Madame de Sevigne,84000,AVIGNON,"43,929217","4,827556"
PAC0121005836,Carpentras APE,84470,ALE,93,PROVENCE-ALPES-COTE D'AZUR,NULL,Rue du Pape Jean XXIII,158 allée des tilleuls,84200,CARPENTRAS,"44,059315","5,044937"
PAC0122005837,ORANGE APE,84485,ALE,93,PROVENCE-ALPES-COTE D'AZUR,NULL,NULL,85 Rue Agis Rigord,84100,ORANGE,"44,139029","4,793412"
PAC0115005539,APE Cavaillon,84493,ALE,93,PROVENCE-ALPES-COTE D'AZUR,NULL,NULL,601 avenue de la Libération,84300,CAVAILLON,"43,848708","5,038097"
PAC0113003398,APE APT,84494,ALE,93,PROVENCE-ALPES-COTE D'AZUR,NULL,NULL,461 voie Domitienne,84400,APT,"43,879201","5,387185"
PAC0116005972,BOLLENE APE,84503,ALE,93,PROVENCE-ALPES-COTE D'AZUR,NULL,NULL,4 rue Sauveur Durand,84500,BOLLENE,"44,298842","4,757645"
PAC0117005980,AVIGNON REALPANIER APE,84511,ALE,93,PROVENCE-ALPES-COTE D'AZUR,NULL,NULL,21 rue Claude Chabrol,84000,AVIGNON,"43,948715","4,805928"
PAC0114005973,Pertuis APE,84526,ALE,93,PROVENCE-ALPES-COTE D'AZUR,NULL,NULL,182 allée des Prés Verts,84120,PERTUIS,"43,695427","5,505081"
PDL0002003088,LA ROCHE SUD,85004,DDA,52,PAYS DE LA LOIRE,NULL,NULL,33 rue du Commerce,85000,LA ROCHE SUR YON,"46,65435","-1,442554"
PDL0017003088,LA ROCHE SUD,85007,ALE,52,PAYS DE LA LOIRE,NULL,NULL,33 rue du Commerce,85000,LA ROCHE SUR YON,"46,65435","-1,442554"
PDL0016005592,Montaigu,85010,ALE,52,PAYS DE LA LOIRE,NULL,Zone artisanale la bretonnière,16 rue René Descartes,85600,BOUFFERE,"46,975692","-1,334645"
PDL0018005410,LA ROCHE NORD,85012,ALE,52,PAYS DE LA LOIRE,NULL,Zone artisanale LES PTES BAZINIERES,19 rue Benjamin Franklin,85000,LA ROCHE SUR YON,"46,687081","-1,427158"
PDL0015005571,ST GILLES CROIX DE VIE,85019,ALE,52,PAYS DE LA LOIRE,NULL,Zone OCEANIS,7 route de la Roche,85800,ST GILLES CROIX DE VIE,"46,694473","-1,912716"
PDL0019005598,Olonne sur Mer,85020,ALE,52,PAYS DE LA LOIRE,NULL,NULL,100 rue de la belle Olonnaise,85109,LES SABLES D OLONNE,"46,496177","-1,771294"
PDL0454005583,LUCON,85034,ALE,52,PAYS DE LA LOIRE,NULL,NULL,2 rue des Liquidambars,85400,LUCON,"46,455298","-1,166334"
PDL0020005622,Les Herbiers,85035,ALE,52,PAYS DE LA LOIRE,NULL,NULL,8 rue de l'Oiselière,85503,LES HERBIERS,"46,881511","-1,011302"
PDL0021006031,FONTENAY LE COMTE,85043,ALE,52,PAYS DE LA LOIRE,NULL,NULL,3 rue de l¿ouillette,85200,FONTENAY LE COMTE,"46,464581","-0,792228"
PDL0022005550,CHALLANS,85051,ALE,52,PAYS DE LA LOIRE,Pôle Activ Océan,Parc Tertiaire IV,40 rue Pierre Gilles de Gennes,85300,CHALLANS,"46,834994","-1,88215"
NAQ0157005977,DR PE Poitou-Charentes,86006,DDA,75,NOUVELLE-AQUITAINE,NULL,NULL,27 rue du Pré Médard,86280,ST BENOIT,"46,56128","0,36501"
NAQ0165000131,POITIERS GARE,86009,ALE,75,NOUVELLE-AQUITAINE,NULL,NULL,60 BOULEVARD DU GRAND CERF,86000,POITIERS,"46,582977","0,334514"
NAQ0167005538,POITIERS GRAND LARGE,86014,ALE,75,NOUVELLE-AQUITAINE,NULL,NULL,2 allée de la Calypso,86280,ST BENOIT,"46,562967","0,363574"
NAQ0170005577,CHATELLERAULT,86022,ALE,75,NOUVELLE-AQUITAINE,NULL,Parc ACTIVITES RENE MONORY,1 rue GEORGES CHARPAK,86100,CHATELLERAULT,"46,843718","0,53142"
NAQ0172005537,PE MONTMORILLON,86030,ALE,75,NOUVELLE-AQUITAINE,NULL,NULL,rue Daniel Cormier,86500,MONTMORILLON,"46,425931","0,866865"
NAQ0174000126,POITIERS FUTUROSCOPE,86061,ALE,75,NOUVELLE-AQUITAINE,NULL,ZAC DU TELEPORT,AVENUE JEAN MONNET,86360,CHASSENEUIL DU POITOU,"46,668367","0,359045"
NAQ1035005031,DIRECTION TERRITORIALE DEUX SEVRES,86083,DDA,75,NOUVELLE-AQUITAINE,NULL,NULL,36 rue Thomas Portau,79000,NIORT,"46,305987","-0,484803"
NAQ0166000138,LOUDUN,86084,ALE,75,NOUVELLE-AQUITAINE,NULL,ZONE INDUSTRIELLE DE OUAGADOUGOU,RUE DES AUBUIES,86200,LOUDUN,"47,021312","0,083842"
NAQ0003005697,Siège Régional Pôle emploi Limousin,87001,DDA,75,NOUVELLE-AQUITAINE,NULL,Parc Ester,11 rue du Puy Ponchet,87067,LIMOGES,"45,854917","1,284576"
NAQ0012002250,LIMOGES VENTADOUR,87016,ALE,75,NOUVELLE-AQUITAINE,NULL,NULL,18 RUE PAUL CLAUDEL,87000,LIMOGES,"45,812012","1,26869"
NAQ0014005144,SAINT JUNIEN,87024,ALE,75,NOUVELLE-AQUITAINE,NULL,NULL,2 AVENUE ANATOLE FRANCE,87200,ST JUNIEN,"45,888527","0,903885"
NAQ0284005697,Siège Régional Pôle emploi Limousin,87031,DDA,75,NOUVELLE-AQUITAINE,NULL,Parc Ester,11 rue du Puy Ponchet,87067,LIMOGES,"45,854917","1,284576"
NAQ0015005584,LIMOGES LECLERC,87040,ALE,75,NOUVELLE-AQUITAINE,NULL,NULL,135 ¿ 137 avenue du Général Leclerc,87000,LIMOGES,"45,847573","1,26145"
NAQ0017005140,BELLAC,87055,ALE,75,NOUVELLE-AQUITAINE,NULL,NULL,4 T RUE DU GENERAL ARBELLOT,87300,BELLAC,"46,12187","1,05116"
NAQ1033005697,Siège Régional Pôle emploi Limousin,87068,DDA,75,NOUVELLE-AQUITAINE,NULL,Parc Ester,11 rue du Puy Ponchet,87067,LIMOGES,"45,854917","1,284576"
NAQ1058002245,LIMOGES JOURDAN,87069,ALE,75,NOUVELLE-AQUITAINE,NULL,NULL,13 COURS JOURDAN,87000,LIMOGES,"45,833199","1,264288"
NAQ0011005259,SAINT YRIEIX,87071,ALE,75,NOUVELLE-AQUITAINE,NULL,NULL,RUE DU 8 MAI 1945,87500,ST YRIEIX LA PERCHE,"45,510844","1,204888"
GRE0073005501,POLE EMPLOI EPINAL,88615,ALE,44,GRAND EST,DT88-APE-A2S,NULL,"3, PLACE DU GENERAL DE GAULLE",88026,EPINAL,"48,17847","6,44236"
GRE0076005123,REMIREMONT,88623,ALE,44,GRAND EST,NULL,NULL,LIEU DIT LE GROS CHATELET,88200,REMIREMONT,"48,01649","6,589747"
GRE0078005931,POLE EMPLOI SAINT DIE DES VOSGES,88631,ALE,44,GRAND EST,NULL,NULL,5 rue Marie Marvingt,88100,ST DIE DES VOSGES,"48,288609","6,940211"
GRE0081006010,NEUFCHATEAU,88646,ALE,44,GRAND EST,NULL,NULL,110 QUAI JEAN MOULIN,88300,NEUFCHATEAU,"48,354836","5,692693"
GRE0083002305,GERARDMER,88662,ALE,44,GRAND EST,NULL,NULL,3 RUE DES VOSGES,88400,GERARDMER,"48,068157","6,874135"
GRE0084002301,EPINAL VOIVRE,88670,ALE,44,GRAND EST,NULL,NULL,14 AVENUE DU ROSE POIRIER,88000,EPINAL,"48,20159","6,46218"
BFC0013005405,AUXERRE CLAIRION,89002,ALE,27,BOURGOGNE-FRANCHE-COMTE,NULL,NULL,49-51 RUE GUYNEMER,89000,AUXERRE,"47,81351","3,57618"
BFC0605005981,DT NIEVRE YONNE,89031,DDA,27,BOURGOGNE-FRANCHE-COMTE,NULL,NULL,Espace Colbert,58000,NEVERS,"46,999597","3,156027"
BFC0020005406,SENS,89044,ALE,27,BOURGOGNE-FRANCHE-COMTE,NULL,ZA ECO PARC,RUE DU 19 MARS 1962,89100,SENS,"48,2022","3,2998"
BFC0021005885,AVALLON,89052,ALE,27,BOURGOGNE-FRANCHE-COMTE,NULL,NULL,62 rue de Lyon,89200,AVALLON,"47,491613","3,916162"
BFC0022000751,JOIGNY CHAMVRES,89060,ALE,27,BOURGOGNE-FRANCHE-COMTE,NULL,NULL,19 ROUTE DE CHAMVRES,89300,JOIGNY,"47,974911","3,385793"
BFC0105005721,BELFORT EUROPE,90005,ALE,27,BOURGOGNE-FRANCHE-COMTE,NULL,NULL,8 PLACE DE L'EUROPE,90000,BELFORT,"47,634215","6,844594"
BFC0111005349,BELFORT THIERS,90010,ALE,27,BOURGOGNE-FRANCHE-COMTE,NULL,NULL,14 A rue Adolphe Thiers,90000,BELFORT,"47,634228","6,855761"
IDF0134001590,Viry-Châtillon,91008,ALE,11,ILE-DE-FRANCE,NULL,PARC DE VIRY,16 RUE DE RIS,91170,VIRY CHATILLON,"48,676182","2,38894"
IDF0135001564,Corbeil-Essonnes,91012,ALE,11,ILE-DE-FRANCE,NULL,NULL,12-14 QUAI JACQUES BOURGOIN,91100,CORBEIL ESSONNES,"48,612104","2,484794"
IDF0139005602,Dourdan,91020,ALE,11,ILE-DE-FRANCE,NULL,NULL,"3, avenue Eugène Vernholes",91410,DOURDAN,"48,529651","2,012109"
IDF0138001582,Etampes,91035,ALE,11,ILE-DE-FRANCE,NULL,RESIDENCE MOULIN DE BONTE,15 RUE DE SACLAS,91150,ETAMPES,"48,429013","2,148538"
IDF0140005560,Juvisy sur Orge,91043,ALE,11,ILE-DE-FRANCE,NULL,NULL,83 avenue de la Cour de France,91260,JUVISY SUR ORGE,"48,695844","2,37124"
IDF0142001759,Palaiseau,91051,ALE,11,ILE-DE-FRANCE,NULL,NULL,9 rue Édouard Branly,91120,PALAISEAU,"48,717285","2,248738"
IDF0143005939,ARPAJON,91066,ALE,11,ILE-DE-FRANCE,NULL,NULL,"2, Route d¿Egly",91290,ARPAJON,"48,585717","2,244617"
IDF0144001757,Brunoy,91074,ALE,11,ILE-DE-FRANCE,NULL,NULL,13 rue de Cercay,91800,BRUNOY,"48,696698","2,503481"
IDF0145005347,DT ESSONNE,91082,ALE,11,ILE-DE-FRANCE,NULL,NULL,34 cours Blaise Pascal,91000,EVRY,"48,627062","2,430488"
IDF0149001672,Longjumeau,91090,ALE,11,ILE-DE-FRANCE,NULL,NULL,30 rue Maurice,91160,LONGJUMEAU,"48,694038","2,287487"
IDF0150006105,Brétigny Sur Orge,91100,ALE,11,ILE-DE-FRANCE,NULL,NULL,11 Rue Georges Charpak,91220,BRETIGNY SUR ORGE,"48,604468","2,297315"
IDF0152005800,Les Ulis,91123,ALE,11,ILE-DE-FRANCE,Groupe scolaire les Barceleau,NULL,2 avenue d'Alsace,91940,LES ULIS,"48,686835","2,170589"
IDF0153005768,Sainte-Geneviève-des-Bois,91131,ALE,11,ILE-DE-FRANCE,NULL,NULL,141 route de Corbeil,91700,STE GENEVIEVE DES BOIS,"48,638247","2,332844"
IDF0154001557,Savigny-sur-Orge,91146,ALE,11,ILE-DE-FRANCE,NULL,NULL,11 AVENUE DU GARIGLIANO,91600,SAVIGNY SUR ORGE,"48,692037","2,334181"
IDF0122005347,DT ESSONNE,91211,DDA,11,ILE-DE-FRANCE,NULL,NULL,34 cours Blaise Pascal,91000,EVRY,"48,627062","2,430488"
IDF0179005354,Nanterre (APE-A2S-Cadres),92013,ALE,11,ILE-DE-FRANCE,NULL,NULL,20 rue Gambetta,92000,NANTERRE,"48,887982","2,199459"
IDF0182001629,Boulogne-Billancourt,92022,ALE,11,ILE-DE-FRANCE,NULL,NULL,21 QUAI ALPHONSE LE GALLO,92100,BOULOGNE BILLANCOURT,"48,83383","2,243232"
IDF0159001775,Asnieres-sur-Seine,92037,ALE,11,ILE-DE-FRANCE,NULL,IMMEUBLE GRAND ANGLE,61 AVENUE GABRIEL PERI,92600,ASNIERES SUR SEINE,"48,917363","2,295494"
IDF0184001551,Colombes,92045,ALE,11,ILE-DE-FRANCE,NULL,NULL,102 avenue Henri Barbusse,92700,COLOMBES,"48,916759","2,252618"
IDF0186001599,Courbevoie,92053,ALE,11,ILE-DE-FRANCE,NULL,NULL,17 rue du Président Kruger,92400,COURBEVOIE,"48,898422","2,255272"
IDF0187005638,Gennevilliers,92061,ALE,11,ILE-DE-FRANCE,NULL,NULL,223 rue des Caboeufs,92230,GENNEVILLIERS,"48,922424","2,313878"
IDF0188001765,Levallois-Perret,92076,ALE,11,ILE-DE-FRANCE,NULL,NULL,99 RUE ANATOLE FRANCE,92300,LEVALLOIS PERRET,"48,893579","2,2836"
IDF0190005039,Montrouge,92092,ALE,11,ILE-DE-FRANCE,NULL,NULL,223 avenue Pierre Brossolette,92120,MONTROUGE,"48,812155","2,301057"
IDF0192005661,Puteaux,92110,ALE,11,ILE-DE-FRANCE,NULL,NULL,116 rue de Verdun,92800,PUTEAUX,"48,877845","2,234376"
IDF0193005528,Rueil-Malmaison,92125,ALE,11,ILE-DE-FRANCE,NULL,NULL,128 RUE DANTON,92500,RUEIL MALMAISON,"48,876616","2,200161"
IDF0196005943,Clichy-la-Garènne,92156,ALE,11,ILE-DE-FRANCE,NULL,(92/98 bd Victor Hugo) - Porte G,23-31 rue Morel,92110,CLICHY,"48,90138","2,31726"
IDF0198005068,Antony (APE-A2S-Cadres),92180,ALE,11,ILE-DE-FRANCE,NULL,NULL,42 AVENUE ARISTIDE BRIAND,92160,ANTONY,"48,755604","2,305974"
IDF0200001621,Issy-les-Moulineaux (APE-Cadres),92205,ALE,11,ILE-DE-FRANCE,NULL,NULL,2 RUE VICTOR HUGO,92130,ISSY LES MOULINEAUX,"48,826832","2,275242"
IDF0201006011,Bagneux,92221,ALE,11,ILE-DE-FRANCE,NULL,NULL,157 rue des Blains,92220,BAGNEUX,"48,793102","2,317971"
IDF0157006129,DT 92 HAUTS DE SEINE,92301,DDA,11,ILE-DE-FRANCE,NULL,Immeuble LE CARILLON OUEST,6 esplanade Charles De Gaulle,92000,NANTERRE,"48,895604","2,222951"
IDF0265005257,Sevran,93015,ALE,11,ILE-DE-FRANCE,NULL,NULL,2 rue Paul Langevin,93270,SEVRAN,"48,946479","2,527996"
IDF0253005673,Aubervilliers,93016,ALE,11,ILE-DE-FRANCE,NULL,NULL,124 rue Henri Barbusse,93300,AUBERVILLIERS,"48,910714","2,391271"
IDF0254001570,Aulnay-sous-Bois,93024,ALE,11,ILE-DE-FRANCE,NULL,NULL,135 rue Jacques Duclos,93600,AULNAY SOUS BOIS,"48,949388","2,487927"
IDF0255001575,Montreuil-sous-Bois,93032,ALE,11,ILE-DE-FRANCE,NULL,NULL,7 RUE KLEBER,93100,MONTREUIL,"48,857195","2,436555"
IDF0257005941,Noisy le Sec,93040,ALE,11,ILE-DE-FRANCE,NULL,NULL,54 rue Paul Vaillant-Couturier,93130,NOISY LE SEC,"48,891386","2,447762"
IDF0219005660,Drancy,93045,ALE,11,ILE-DE-FRANCE,NULL,NULL,175-177Bis Avenue Henri Barbusse,93700,DRANCY,"48,915465","2,44249"
IDF0258001606,Pantin,93055,ALE,11,ILE-DE-FRANCE,NULL,RESIDENCE FORMAIGNE,188 AVENUE JEAN LOLIVE,93500,PANTIN,"48,8949","2,422487"
IDF0259005643,Clichy-sous-Bois,93063,ALE,11,ILE-DE-FRANCE,NULL,NULL,5 allée Étienne Laurent,93390,CLICHY SOUS BOIS,"48,904109","2,55099"
IDF0260001695,Saint Ouen,93086,ALE,11,ILE-DE-FRANCE,NULL,Bâtiment D,44 avenue du Capitaine Glarner,93400,ST OUEN,"48,903764","2,329146"
IDF0261005742,Bobigny,93094,ALE,11,ILE-DE-FRANCE,NULL,Cité Karl Marx,49 rue Miriam Makeba,93000,BOBIGNY,"48,905878","2,439848"
IDF0262005495,Rosny-sous-Bois,93104,ALE,11,ILE-DE-FRANCE,NULL,NULL,6 rue de Rome,93110,ROSNY SOUS BOIS,"48,87649","2,474054"
IDF0263001769,Neuilly-sur-Marne,93120,ALE,11,ILE-DE-FRANCE,NULL,CENTRE COMMERCIAL BAOBAB,10 RUE JEAN PERRIN,93330,NEUILLY SUR MARNE,"48,855349","2,518571"
IDF0264003681,Livry-Gargan,93135,ALE,11,ILE-DE-FRANCE,ETAGE 2,NULL,33 BOULEVARD ROBERT SCHUMAN,93190,LIVRY GARGAN,"48,927638","2,548042"
IDF0234006098,Stains,93143,ALE,11,ILE-DE-FRANCE,NULL,NULL,35 Rue du Moulin Neuf,93240,STAINS,"48,951279","2,393139"
IDF0238001673,Epinay-sur-Seine (APE-A2S),93166,ALE,11,ILE-DE-FRANCE,NULL,NULL,32 AVENUE SALVADOR ALLENDE,93800,EPINAY SUR SEINE,"48,956482","2,308841"
IDF0239006033,LE BLANC MESNIL,93174,ALE,11,ILE-DE-FRANCE,NULL,NULL,22 avenue Albert Einstein,93150,LE BLANC MESNIL,"48,944004","2,47238"
IDF0242001745,Noisy-le-Grand,93182,ALE,11,ILE-DE-FRANCE,NULL,NULL,8 RUE DU MARECHAL JUIN,93160,NOISY LE GRAND,"48,84222","2,571914"
IDF0245001693,Tremblay-en-France,93190,ALE,11,ILE-DE-FRANCE,NULL,NULL,43 allée Nelson Mandela,93290,TREMBLAY EN FRANCE,"48,949742","2,569879"
IDF0246001571,La Courneuve,93200,ALE,11,ILE-DE-FRANCE,NULL,NULL,139 avenue Paul Vaillant-Couturier,93120,LA COURNEUVE,"48,925466","2,415422"
IDF0247001706,Saint-Denis,93215,ALE,11,ILE-DE-FRANCE,NULL,NULL,5 AVENUE DU COLONEL FABIEN,93200,ST DENIS,"48,944389","2,355101"
IDF0251005854,BONDY,93231,ALE,11,ILE-DE-FRANCE,NULL,NULL,14 rue de la Liberté,93141,BONDY,"48,893996","2,484455"
IDF0206005806,Le Galilée,93326,DDA,11,ILE-DE-FRANCE,NULL,NULL,4 rue Galilée,93160,NOISY LE GRAND,"48,842581","2,547389"
IDF0299005424,Champigny-sur-Marne,94011,ALE,11,ILE-DE-FRANCE,NULL,NULL,17 Avenue Max Dormoy,94500,CHAMPIGNY SUR MARNE,"48,811135","2,519344"
IDF0300001788,Choisy-le-Roi (APE-A2S),94026,ALE,11,ILE-DE-FRANCE,NULL,TOUR ORIX,16 AVENUE JEAN JAURES,94600,CHOISY LE ROI,"48,76458","2,405954"
IDF0301005627,Ivry-sur-Seine,94034,ALE,11,ILE-DE-FRANCE,NULL,Immeuble le Michelet,161 avenue de Verdun,94200,IVRY SUR SEINE,"48,807459","2,375039"
IDF0302001708,Nogent-sur-Marne,94050,ALE,11,ILE-DE-FRANCE,NULL,NULL,5 RUE JEAN MONNET,94130,NOGENT SUR MARNE,"48,839155","2,493482"
IDF0282005799,Saint-Maur-des-Fossés,94065,ALE,11,ILE-DE-FRANCE,NULL,NULL,16 rue Léon Bocquet,94100,ST MAUR DES FOSSES,"48,80109","2,485034"
IDF0283001554,Villejuif,94073,ALE,11,ILE-DE-FRANCE,NULL,NULL,108 avenue de Stalingrad,94800,VILLEJUIF,"48,782912","2,36696"
IDF0284005465,VINCENNES,94081,ALE,11,ILE-DE-FRANCE,NULL,NULL,3 rue Lejemptel,94300,VINCENNES,"48,84625","2,437448"
IDF0285005945,Vitry-sur-Seine,94096,ALE,11,ILE-DE-FRANCE,NULL,NULL,119-123 Avenue Rouget de l¿Isle,94400,VITRY SUR SEINE,"48,780656","2,395078"
IDF0286005446,Créteil,94106,ALE,11,ILE-DE-FRANCE,NULL,NULL,45 RUE AUGUSTE PERRET,94000,CRETEIL,"48,763456","2,47248"
IDF0288001741,Cachan,94114,ALE,11,ILE-DE-FRANCE,NULL,NULL,8 rue François Delage,94230,CACHAN,"48,793326","2,337417"
IDF0291001586,L'Haÿ-les-Roses,94130,ALE,11,ILE-DE-FRANCE,NULL,NULL,15 17 BD PAUL VAILLANT COUTURIER,94240,L HAY LES ROSES,"48,783581","2,341352"
IDF0292001730,Point relais Alfortville,94153,ALE,11,ILE-DE-FRANCE,NULL,NULL,7 rue Roger Mordrel,94140,ALFORTVILLE,"48,806615","2,421872"
IDF0293005309,Villeneuve-Saint-Georges,94161,ALE,11,ILE-DE-FRANCE,NULL,NULL,2 rue Henri Janin,94190,VILLENEUVE ST GEORGES,"48,729057","2,447552"
IDF0294001760,Sucy-en-Brie,94176,ALE,11,ILE-DE-FRANCE,NULL,PARC D AFFAIRES LEADER CLUB,9 ALLEE DU PACIFIQUE,94370,SUCY EN BRIE,"48,772731","2,50461"
IDF0295001627,Fontenay-sous-Bois,94184,ALE,11,ILE-DE-FRANCE,NULL,NULL,201 RUE CARNOT,94120,FONTENAY SOUS BOIS,"48,853048","2,49121"
IDF0297001683,Maisons-Alfort,94192,ALE,11,ILE-DE-FRANCE,NULL,NULL,39 AVENUE GAMBETTA,94700,MAISONS ALFORT,"48,81012","2,43897"
IDF0298006032,CHENNEVIERES,94202,ALE,11,ILE-DE-FRANCE,NULL,Avenue du Pince Vent,2 rue des Prés Champlain,94430,CHENNEVIERES SUR MARNE,"48,796449","2,553499"
IDF0266005806,Le Galilée,94305,DDA,11,ILE-DE-FRANCE,NULL,NULL,4 rue Galilée,93160,NOISY LE GRAND,"48,842581","2,547389"
IDF0116001697,Argenteuil,95013,ALE,11,ILE-DE-FRANCE,NULL,NULL,47 boulevard Jean Allemane,95100,ARGENTEUIL,"48,951958","2,253781"
IDF0119001687,Persan,95021,ALE,11,ILE-DE-FRANCE,NULL,NULL,4 rue Jean Moulin,95340,PERSAN,"49,150909","2,280371"
IDF0120001544,Gonesse,95036,ALE,11,ILE-DE-FRANCE,NULL,NULL,10 B rue Berthelot,95500,GONESSE,"48,982186","2,456355"
IDF0106001650,Montmorency,95044,ALE,11,ILE-DE-FRANCE,NULL,NULL,27 rue Ferber,95160,MONTMORENCY,"48,974216","2,313946"
IDF0108005707,Sarcelles,95060,ALE,11,ILE-DE-FRANCE,NULL,NULL,43 avenue Paul Valéry,95200,SARCELLES,"48,979437","2,379254"
IDF0109001762,Ermont,95075,ALE,11,ILE-DE-FRANCE,NULL,NULL,90 rue Raoul Dautry,95120,ERMONT,"48,981826","2,265411"
IDF0486005359,Domont,95079,ALE,11,ILE-DE-FRANCE,NULL,NULL,2 rue des Charbonniers,95330,DOMONT,"49,029079","2,34312"
IDF1462005564,Bezons,95081,ALE,11,ILE-DE-FRANCE,NULL,NULL,LE CAMILLE DONZIEUX,95870,BEZONS,"48,927288","2,215671"
IDF1581005007,Cadres Saint-Gratien,95082,ALE,11,ILE-DE-FRANCE,NULL,NULL,6 RUE DU MARECHAL JUIN,95210,ST GRATIEN,"48,963563","2,287704"
IDF0110001675,Taverny,95091,ALE,11,ILE-DE-FRANCE,Stade JEAN BOUIN,NULL,47 rue de Montmorency,95150,TAVERNY,"49,019101","2,224693"
IDF0111001720,Saint-Ouen-l'Aumône,95116,ALE,11,ILE-DE-FRANCE,NULL,NULL,60 RUE DE PARIS,95310,ST OUEN L AUMONE,"49,039047","2,11665"
IDF0112005082,Herblay,95132,ALE,11,ILE-DE-FRANCE,NULL,NULL,93 rue de la Marne,95220,HERBLAY,"49,00056","2,181426"
IDF0113005356,Cergy (APE-A2S-Cadres),95140,ALE,11,ILE-DE-FRANCE,NULL,NULL,4 RUE DES CHAUFFOURS,95000,CERGY PONTOISE,"49,041618","2,078384"
IDF0114001771,Garges-lès-Gonesse (APE-A2S),95155,ALE,11,ILE-DE-FRANCE,NULL,ESPACE EUROPE,36 AVENUE JOLIOT CURIE,95140,GARGES LES GONESSE,"48,974271","2,415154"
IDF0087006131,DT 95 VAL D OISE,95204,DDA,11,ILE-DE-FRANCE,NULL,Immeuble Le Mercury,1 rue de la Croix-des-Maheux,95000,PONTOISE,"49,048846","2,09294"
SPM0001005310,ST PIERRE ET MIQUELON,97003,ALE,11,ILE-DE-FRANCE,NULL,NULL,16 RUE SOEUR CESARINE,97500,ST PIERRE ET MIQUELON,"14,742602","-61,174931"
GUA0070005907,APE DE SAINT MARTIN,97010,ALE,1,GUADELOUPE,MARIGOT,NULL,22 rue Léopold Mingau,97150,ST MARTIN,"46,220655","-0,161297"
GUA0027005279,ABYMES DOTHEMARE,97113,ALE,1,GUADELOUPE,NULL,NULL,ZAC de Dothemare,97139,LES ABYMES,"16,27136","-61,504996"
GUA0012005917,APE DE SAINTE ROSE,97115,ALE,1,GUADELOUPE,NULL,Zone industrielle de Nolivier,Route de Morne Rouge,97115,STE ROSE,"16,31452","-61,647044"
GUA0002005300,GUADELOUPE DR Annexe,97120,DDA,1,GUADELOUPE,NULL,ZAC PARC DE DESMARAIS,SECTION MORIN SAINT-CLAUDE,97120,ST CLAUDE,"16,024355","-61,70107"
GUA0013005698,APE DE BASSE TERRE,97121,ALE,1,GUADELOUPE,NULL,Rue Mauchanal,Rond Point de Desmarais,97100,BASSE TERRE,"15,992846","-61,727527"
GUA0015005624,APE DE PORT LOUIS,97122,ALE,1,GUADELOUPE,NULL,NULL,Boulevard Jacques Edwige,97117,PORT LOUIS,"16,416648","-61,532228"
GUA0014006084,APE DE MORNE- A -L'EAU,97136,ALE,1,GUADELOUPE,NULL,Immeuble Consonne,Route de Lasserre,97111,MORNE A L EAU,"16,330843","-61,459014"
GUA0016005298,MARIE GALANTE,97144,ALE,1,GUADELOUPE,NULL,NULL,RUE DE LA SAVANE,97112,GRAND BOURG,"15,885432","-61,312797"
GUA0017005294,POINTE A PITRE BERGEVIN,97152,ALE,1,GUADELOUPE,NULL,NULL,RUE DE LA VILLE D ORLY,97110,POINTE A PITRE,"16,247346","-61,541017"
GUA0018006026,APE DE BAIE MAHAULT,97175,ALE,1,GUADELOUPE,NULL,NULL,Rond-point Destrellan,97122,BAIE MAHAULT,"16,262443","-61,589086"
GUA0024005283,CAPESTERRE LES FLAMBOYANTS,97183,ALE,1,GUADELOUPE,NULL,Rue DES FILAOS,Résidence des Flamboyants,97130,CAPESTERRE BELLE EAU,"16,05411","-61,562117"
GUA0025006060,APE BOUILLANTE,97184,ALE,1,GUADELOUPE,NULL,Provisoire,Section Vannier,97125,BOUILLANTE,"16,127542","-61,770037"
GUA0026005787,APE DE SAINT FRANCOIS,97185,ALE,1,GUADELOUPE,NULL,Avenue Martin Luther King,Section Cayenne,97118,ST FRANCOIS,"16,253282","-61,272933"
MAR0011002504,DT CENTRE MARTINIQUE,97201,DDA,2,MARTINIQUE,NULL,bat D1 Quartier KERLYS,5 Rue SAINT-CHRISTOPHE,97200,FORT DE FRANCE,"14,612415","-61,052978"
MAR0001006050,DR POLE-EMPLOI MARTINIQUE,97210,DRA,2,MARTINIQUE,NULL,Quartier KERLYS,5 Rue SAINT-CHRISTOPHE,97200,FORT DE FRANCE,"14,612412","-61,05313"
MAR0020005718,SCHOELCHER,97216,ALE,2,MARTINIQUE,NULL,NULL,40 avenue Madiana,97233,SCHOELCHER,"14,615883","-61,100906"
MAR0006005810,LE MARIN,97224,ALE,2,MARTINIQUE,NULL,NULL,Quartier Habitation MONTGERALD,97290,LE MARIN,"14,470933","-60,871135"
MAR0007005975,TRINITE BEAUSEJOUR,97232,ALE,2,MARTINIQUE,NULL,NULL,Quartier Beauséjour,97220,LA TRINITE,"14,739015","-60,963183"
MAR0021002503,FORT DE FRANCE KERLYS,97240,ALE,2,MARTINIQUE,NULL,DERRIERE INTERSPORT,DERRIERE INTERSPORT,97200,FORT DE FRANCE,"14,604261","-61,066969"
MAR0023005994,LAMENTIN ACAJOU,97255,ALE,2,MARTINIQUE,FACE AU château D EAU,Quartier ACAJOU,Route Départementale 14,97232,LE LAMENTIN,"14,627161","-61,018834"
MAR0008005952,RIVIERE-SALEE,97263,ALE,2,MARTINIQUE,NULL,NULL,Quartier La Laugier,97215,RIVIERE SALEE,"14,528254","-60,979614"
MAR0112005936,LE FRANCOIS,97273,ALE,2,MARTINIQUE,NULL,Lotissement Cotonnerie Sud,Route du Saint ESPRIT,97240,LE FRANCOIS,"14,615002","-60,903308"
MAR0009005802,SAINT-PIERRE,97286,ALE,2,MARTINIQUE,NULL,NULL,02 RUE PERCEE,97250,ST PIERRE,"14,742602","-61,174931"
MAR0010005955,SAINTE MARIE,97294,ALE,2,MARTINIQUE,NULL,NULL,ZAC Belle-Etoile,97230,STE MARIE,"14,781371","-60,993063"
GUY0008005243,APE CAYENNE BADUEL,97304,ALE,3,GUYANE,NULL,LOTISSEMENT HELICONIAS,ROUTE DE BADUEL,97300,CAYENNE,"4,927819","-52,291899"
GUY0001005228,DR GUYANE,97310,DRA,3,GUYANE,NULL,NULL,19 AVENUE PASTEUR,97300,CAYENNE,"4,944071","-52,321263"
GUY0002005235,DT GUYANE,97312,DDA,3,GUYANE,NULL,NULL,48 AVENUE PASTEUR,97300,CAYENNE,"4,944071","-52,321263"
GUY0005005245,APE CAYENNE MONTABO,97315,ALE,3,GUYANE,NULL,NULL,ROUTE DE MONTABO CHEMIN GRANT,97300,CAYENNE,"4,928124","-52,290086"
GUY0003005222,APE CAYENNE COLLERY,97319,ALE,3,GUYANE,NULL,PLAZZA MARENGO II,ZONE INDUSTRIELLE COLLERY,97300,CAYENNE,"4,937995","-52,335052"
GUY0011005954,APE KOUROU,97320,ALE,3,GUYANE,NULL,NULL,1 RUE DE LA CRECHE,97310,KOUROU,"5,158258","-52,642947"
GUY0012005230,APE SAINT LAURENT DU MARONI,97335,ALE,3,GUYANE,NULL,DOMAINE DU LAC BLEU,1 RUE DES IBIS,97320,ST LAURENT DU MARONI,"5,503506","-54,029181"
REU0001004509,SAINTE CLOTILDE,97410,DRA,4,REUNION,NULL,NULL,40 rue Lory les Bas,97490,ST DENIS,"-20,888533","55,4823"
REU0001005507,SAINT PIERRE CENTRE,97410,DRA,4,REUNION,NULL,NULL,40 rue François de Mahy,97410,ST PIERRE,"-21,339293","55,475728"
REU0036006038,Du Moulin,97421,ALE,4,REUNION,STE CLOTILDE,NULL,4 allée Maureau,97490,ST DENIS,"-20,890974","55,492705"
REU0040005092,SAINT DENIS,97423,ALE,4,REUNION,NULL,IMMEUBLE BAMBOU,357 RUE DU MARECHAL LECLERC,97400,ST DENIS,"-20,88294","55,462767"
REU0023005507,SAINT PIERRE CENTRE,97431,ALE,4,REUNION,NULL,NULL,40 rue François de Mahy,97410,ST PIERRE,"-21,339293","55,475728"
REU0024005432,RAVINE DES CABRIS,97438,ALE,4,REUNION,NULL,RAVINE DES CABRIS,403 chemin Boeuf,97432,ST PIERRE,"-21,34049","55,476619"
REU0015004506,SAINT PAUL,97446,ALE,4,REUNION,NULL,NULL,6 route de Savannah,97460,ST PAUL,"-20,986848","55,294728"
REU0010005373,LA POSSESSION,97448,ALE,4,REUNION,NULL,ZAC MOULIN JOLI,RUE MOULIN JOLI,97419,LA POSSESSION,"-20,961891","55,322783"
REU0016005844,EPERON,97450,ALE,4,REUNION,NULL,zac EPERON,Angle RD10 et rue fond générése,97435,ST PAUL,"-21,049945","55,261399"
REU0042004502,SAINT ANDRE,97454,ALE,4,REUNION,NULL,NULL,494 RUE ANDROPOLIS,97440,ST ANDRE,"-20,963339","55,66137"
REU0031004509,SAINTE CLOTILDE,97460,DDA,4,REUNION,NULL,NULL,40 rue Lory les Bas,97490,ST DENIS,"-20,888533","55,4823"
REU0019005507,SAINT PIERRE CENTRE,97461,DDA,4,REUNION,NULL,NULL,40 rue François de Mahy,97410,ST PIERRE,"-21,339293","55,475728"
REU0017004511,LE PORT F,97462,ALE,4,REUNION,NULL,NULL,99 AVENUE DU 20 DECEMBRE 1848,97420,LE PORT,"-20,941113","55,298001"
REU0025006052,St Joseph,97470,ALE,4,REUNION,NULL,NULL,40 rue du Général De Gaulle,97480,ST JOSEPH,"-21,376795","55,620794"
REU0005004537,DT OUEST,97481,DDA,4,REUNION,NULL,NULL,9 RUE DE LA BUSE,97460,ST PAUL,"-21,006538","55,274245"
REU0026005736,LA RIVIERE SAINT LOUIS,97485,ALE,4,REUNION,NULL,NULL,64 A rue de Cilaos,97421,ST LOUIS,"-21,279445","55,43439"
REU0043005374,SAINT BENOIT,97493,ALE,4,REUNION,NULL,SCI LE TAMARIN,ROND POINT DES PLAINES,97470,ST BENOIT,"-21,047698","55,716866"
REU0044004509,SAINTE CLOTILDE,97503,ALE,4,REUNION,NULL,NULL,40 rue Lory les Bas,97490,ST DENIS,"-20,888533","55,4823"
REU0051005127,SAINT LOUIS 2 BEL AIR,97506,ALE,4,REUNION,NULL,ZONE INDUSTRIELLE BEL AIR,20 RUE DE L ETANG,97450,ST LOUIS,"48,716063","7,188619"
REU0028004528,LE TAMPON,97511,ALE,4,REUNION,NULL,NULL,106 RUE MARTINEL LASSAYS,97430,LE TAMPON,"-21,280569","55,515183"
REU0018005526,SAINT LEU,97526,ALE,4,REUNION,NULL,Quartier d'affaires Tamarins,1 rue Galabé,97424,PITON SAINT LEU,"-21,166983","55,287634"
REU0046004504,SAINTE MARIE REUNION,97534,ALE,4,REUNION,NULL,NULL,30 RUE ANDRE LARDY,97438,STE MARIE,"-20,897407","55,533429"
REU0247005507,SAINT PIERRE CENTRE,97549,DDA,4,REUNION,NULL,NULL,40 rue François de Mahy,97410,ST PIERRE,"-21,339293","55,475728"
MAY0002005570,DT MAYOTTE,97600,DDA,6,MAYOTTE,2eme Etage,Résidences de l horloge,33 lotissement Les Hauts Vallons,97600,MAMOUDZOU,"-12,781348","45,232027"
MAY0003006127,APE KAWENI,97601,ALE,6,MAYOTTE,NULL,NULL,90 ROUTE NATIONALE 1,97600,MAMOUDZOU,"-12,775812","45,224836"
MAY0012005404,DZOUMOGNE,97604,ALE,6,MAYOTTE,DZOUGMOGNE,NULL,255 avenue M Godajou,97650,BANDRABOUA,"-12,704005","45,123064"
MAY0001005570,DT MAYOTTE,97609,DRA,6,MAYOTTE,2eme Etage,Résidences de l horloge,33 lotissement Les Hauts Vallons,97600,MAMOUDZOU,"-12,781348","45,232027"
GUA0155005958,DIRECTION REGIONALE GUADELOUPE,97708,DDA,1,GUADELOUPE,NULL,NULL,Zone d'activités ANTILLOPOLE,97139,LES ABYMES,"16,27136","-61,504996"
GUA0160006157,APE PETIT BOURG ROUJOL,97709,ALE,1,GUADELOUPE,NULL,NULL,Chemin de Roujol,97170,PETIT BOURG,"16,179503","-61,587668"
GUA0162005585,APE DE JARRY,97710,ALE,1,GUADELOUPE,Transit,Immeuble BNP,Rue Emmanuel BLANDIN,97122,BAIE MAHAULT,"16,239813","-61,583708"
GUA0182006163,APE GOSIER,97712,ALE,1,GUADELOUPE,NULL,NULL,NC,97190,LE GOSIER,"16,206313","-61,493027"
GUA0183006124,APE DE ABYMES CARUEL,97713,ALE,1,GUADELOUPE,NULL,NULL,Route des Abymes,97139,LES ABYMES,"16,259513","-61,518442"